{"type":"FeatureCollection","crs":{"type":"name","properties":{"name":"EPSG:4326"}},"features":[{"type":"Feature","id":28433,"geometry":{"type":"LineString","coordinates":[[144.999045025054,-37.8193271889281],[144.999175889828,-37.8185711858245]]},"properties":{"OBJECTID":28433,"ufi":1389746,"pfi":5678659,"ezi_road_name":"CHURCH STREET","road_name":"CHURCH","road_type":"STREET","class_code":3,"direction_code":"B","left_locality":"RICHMOND","right_locality":"RICHMOND"}},{"type":"Feature","id":144527,"geometry":{"type":"LineString","coordinates":[[144.99813852522,-37.8184693701955],[144.998948799318,-37.8185669408187],[144.999175889828,-37.8185711858245]]},"properties":{"OBJECTID":144527,"ufi":1389353,"pfi":5678267,"ezi_road_name":"BRIDGE ROAD","road_name":"BRIDGE","road_type":"ROAD","class_code":2,"direction_code":"B","left_locality":"RICHMOND","right_locality":"RICHMOND"}},{"type":"Feature","id":132624,"geometry":{"type":"LineString","coordinates":[[144.999457305956,-37.8170364740223],[144.999175889828,-37.8185711858245]]},"properties":{"OBJECTID":132624,"ufi":42600464,"pfi":15795782,"ezi_road_name":"CHURCH STREET","road_name":"CHURCH","road_type":"STREET","class_code":3,"direction_code":"B","left_locality":"RICHMOND","right_locality":"RICHMOND"}},{"type":"Feature","id":988410,"geometry":{"type":"LineString","coordinates":[[144.99967796902,-37.8185995248862],[144.999403037831,-37.8185714036808],[144.999175889828,-37.8185711858245]]},"properties":{"OBJECTID":988410,"ufi":1389371,"pfi":5678285,"ezi_road_name":"BRIDGE ROAD","road_name":"BRIDGE","road_type":"ROAD","class_code":2,"direction_code":"B","left_locality":"RICHMOND","right_locality":"RICHMOND"}},{"type":"Feature","id":822151,"geometry":{"type":"LineString","coordinates":[[144.99967796902,-37.8185995248862],[144.999574538795,-37.8192205858021]]},"properties":{"OBJECTID":822151,"ufi":62818360,"pfi":5678617,"ezi_road_name":"TULLO PLACE","road_name":"TULLO","road_type":"PLACE","class_code":5,"direction_code":"B","left_locality":"RICHMOND","right_locality":"RICHMOND"}},{"type":"Feature","id":147337,"geometry":{"type":"LineString","coordinates":[[144.99967796902,-37.8185995248862],[145.000334982446,-37.8186667310322]]},"properties":{"OBJECTID":147337,"ufi":1389419,"pfi":5678333,"ezi_road_name":"BRIDGE ROAD","road_name":"BRIDGE","road_type":"ROAD","class_code":2,"direction_code":"B","left_locality":"RICHMOND","right_locality":"RICHMOND"}},{"type":"Feature","id":822149,"geometry":{"type":"LineString","coordinates":[[144.998657813438,-37.8189374120965],[144.998068174557,-37.8188690182814]]},"properties":{"OBJECTID":822149,"ufi":62818358,"pfi":5678471,"ezi_road_name":"ALBAN STREET","road_name":"ALBAN","road_type":"STREET","class_code":5,"direction_code":"B","left_locality":"RICHMOND","right_locality":"RICHMOND"}},{"type":"Feature","id":162841,"geometry":{"type":"LineString","coordinates":[[144.999045025054,-37.8193271889281],[144.998573269393,-37.8192726827992]]},"properties":{"OBJECTID":162841,"ufi":45902448,"pfi":16704792,"ezi_road_name":"BERRY STREET","road_name":"BERRY","road_type":"STREET","class_code":5,"direction_code":"F","left_locality":"RICHMOND","right_locality":"RICHMOND"}},{"type":"Feature","id":29088,"geometry":{"type":"LineString","coordinates":[[144.999045025054,-37.8193271889281],[144.99898105243,-37.8196974562778]]},"properties":{"OBJECTID":29088,"ufi":1389933,"pfi":5678845,"ezi_road_name":"CHURCH STREET","road_name":"CHURCH","road_type":"STREET","class_code":3,"direction_code":"B","left_locality":"RICHMOND","right_locality":"RICHMOND"}},{"type":"Feature","id":52254,"geometry":{"type":"LineString","coordinates":[[144.99813852522,-37.8184693701955],[144.998068174557,-37.8188690182814]]},"properties":{"OBJECTID":52254,"ufi":1389522,"pfi":5678436,"ezi_road_name":"EUCALYPTUS STREET","road_name":"EUCALYPTUS","road_type":"STREET","class_code":5,"direction_code":"B","left_locality":"RICHMOND","right_locality":"RICHMOND"}},{"type":"Feature","id":491717,"geometry":{"type":"LineString","coordinates":[[144.99813852522,-37.8184693701955],[144.99710471794,-37.8183448667848]]},"properties":{"OBJECTID":491717,"ufi":1389300,"pfi":5678214,"ezi_road_name":"BRIDGE ROAD","road_name":"BRIDGE","road_type":"ROAD","class_code":2,"direction_code":"B","left_locality":"RICHMOND","right_locality":"RICHMOND"}},{"type":"Feature","id":162519,"geometry":{"type":"LineString","coordinates":[[144.998573269393,-37.8192726827992],[144.998008616253,-37.8192074329278]]},"properties":{"OBJECTID":162519,"ufi":45902449,"pfi":16704793,"ezi_road_name":"BERRY STREET","road_name":"BERRY","road_type":"STREET","class_code":5,"direction_code":"F","left_locality":"RICHMOND","right_locality":"RICHMOND"}},{"type":"Feature","id":162617,"geometry":{"type":"LineString","coordinates":[[144.998488289665,-37.8197381486585],[144.998573269393,-37.8192726827992]]},"properties":{"OBJECTID":162617,"ufi":45902465,"pfi":16704794,"ezi_road_name":"UNNAMED","road_name":"UNNAMED","road_type":null,"class_code":5,"direction_code":"B","left_locality":"RICHMOND","right_locality":"RICHMOND"}},{"type":"Feature","id":325002,"geometry":{"type":"LineString","coordinates":[[144.998068174557,-37.8188690182814],[144.998008616253,-37.8192074329278]]},"properties":{"OBJECTID":325002,"ufi":1389670,"pfi":5678583,"ezi_road_name":"EUCALYPTUS STREET","road_name":"EUCALYPTUS","road_type":"STREET","class_code":5,"direction_code":"B","left_locality":"RICHMOND","right_locality":"RICHMOND"}},{"type":"Feature","id":29289,"geometry":{"type":"LineString","coordinates":[[144.99898105243,-37.8196974562778],[145.000048568093,-37.8198175010071],[145.000139182952,-37.8197426270614],[145.000334982446,-37.8186667310322]]},"properties":{"OBJECTID":29289,"ufi":1390008,"pfi":5678919,"ezi_road_name":"WATERLOO PLACE","road_name":"WATERLOO","road_type":"PLACE","class_code":5,"direction_code":"B","left_locality":"RICHMOND","right_locality":"RICHMOND"}},{"type":"Feature","id":52967,"geometry":{"type":"LineString","coordinates":[[145.000334982446,-37.8186667310322],[145.000770457848,-37.8187112659098]]},"properties":{"OBJECTID":52967,"ufi":1389449,"pfi":5678363,"ezi_road_name":"BRIDGE ROAD","road_name":"BRIDGE","road_type":"ROAD","class_code":2,"direction_code":"B","left_locality":"RICHMOND","right_locality":"RICHMOND"}},{"type":"Feature","id":328482,"geometry":{"type":"LineString","coordinates":[[144.998008616253,-37.8192074329278],[144.997425449734,-37.8191388108639]]},"properties":{"OBJECTID":328482,"ufi":57401212,"pfi":5678584,"ezi_road_name":"BERRY STREET","road_name":"BERRY","road_type":"STREET","class_code":5,"direction_code":"F","left_locality":"RICHMOND","right_locality":"RICHMOND"}},{"type":"Feature","id":29141,"geometry":{"type":"LineString","coordinates":[[144.99898105243,-37.8196974562778],[144.998965092062,-37.8197897719749]]},"properties":{"OBJECTID":29141,"ufi":1389986,"pfi":5678898,"ezi_road_name":"CHURCH STREET","road_name":"CHURCH","road_type":"STREET","class_code":3,"direction_code":"B","left_locality":"RICHMOND","right_locality":"RICHMOND"}},{"type":"Feature","id":162840,"geometry":{"type":"LineString","coordinates":[[144.998488289665,-37.8197381486585],[144.998965092062,-37.8197897719749]]},"properties":{"OBJECTID":162840,"ufi":45902447,"pfi":16704791,"ezi_road_name":"HODGSON TERRACE","road_name":"HODGSON","road_type":"TERRACE","class_code":5,"direction_code":"B","left_locality":"RICHMOND","right_locality":"RICHMOND"}},{"type":"Feature","id":28458,"geometry":{"type":"LineString","coordinates":[[144.998965092062,-37.8197897719749],[144.998923745304,-37.8200291406781]]},"properties":{"OBJECTID":28458,"ufi":1390115,"pfi":5679026,"ezi_road_name":"CHURCH STREET","road_name":"CHURCH","road_type":"STREET","class_code":3,"direction_code":"B","left_locality":"RICHMOND","right_locality":"RICHMOND"}},{"type":"Feature","id":492240,"geometry":{"type":"LineString","coordinates":[[145.000526715267,-37.8202074527237],[145.000770457848,-37.8187112659098]]},"properties":{"OBJECTID":492240,"ufi":1390218,"pfi":5679129,"ezi_road_name":"LYNDHURST STREET","road_name":"LYNDHURST","road_type":"STREET","class_code":5,"direction_code":"F","left_locality":"RICHMOND","right_locality":"RICHMOND"}},{"type":"Feature","id":1229035,"geometry":{"type":"LineString","coordinates":[[145.000770457848,-37.8187112659098],[145.001449496168,-37.8187809968099]]},"properties":{"OBJECTID":1229035,"ufi":1389486,"pfi":5678400,"ezi_road_name":"BRIDGE ROAD","road_name":"BRIDGE","road_type":"ROAD","class_code":2,"direction_code":"B","left_locality":"RICHMOND","right_locality":"RICHMOND"}},{"type":"Feature","id":822152,"geometry":{"type":"LineString","coordinates":[[144.997354742439,-37.819595175982],[144.998488289665,-37.8197381486585]]},"properties":{"OBJECTID":822152,"ufi":62818361,"pfi":16704790,"ezi_road_name":"HODGSON TERRACE","road_name":"HODGSON","road_type":"TERRACE","class_code":5,"direction_code":"B","left_locality":"RICHMOND","right_locality":"RICHMOND"}},{"type":"Feature","id":28715,"geometry":{"type":"LineString","coordinates":[[144.998923745304,-37.8200291406781],[145.000526715267,-37.8202074527237]]},"properties":{"OBJECTID":28715,"ufi":1390219,"pfi":5679130,"ezi_road_name":"ABINGER STREET","road_name":"ABINGER","road_type":"STREET","class_code":5,"direction_code":"B","left_locality":"RICHMOND","right_locality":"RICHMOND"}},{"type":"Feature","id":118975,"geometry":{"type":"LineString","coordinates":[[144.998923745304,-37.8200291406781],[144.998841379674,-37.8204819572016]]},"properties":{"OBJECTID":118975,"ufi":36055764,"pfi":5679242,"ezi_road_name":"CHURCH STREET","road_name":"CHURCH","road_type":"STREET","class_code":3,"direction_code":"B","left_locality":"RICHMOND","right_locality":"RICHMOND"}},{"type":"Feature","id":328485,"geometry":{"type":"LineString","coordinates":[[144.997425449734,-37.8191388108639],[144.997419509175,-37.8191597412317],[144.996973810047,-37.8191149511598]]},"properties":{"OBJECTID":328485,"ufi":57401215,"pfi":5678580,"ezi_road_name":"UNNAMED","road_name":"UNNAMED","road_type":null,"class_code":5,"direction_code":"F","left_locality":"RICHMOND","right_locality":"RICHMOND"}},{"type":"Feature","id":29086,"geometry":{"type":"LineString","coordinates":[[144.997072276181,-37.8172674920674],[144.998012299346,-37.8173854976916]]},"properties":{"OBJECTID":29086,"ufi":1388707,"pfi":5677624,"ezi_road_name":"HULL STREET","road_name":"HULL","road_type":"STREET","class_code":5,"direction_code":"B","left_locality":"RICHMOND","right_locality":"RICHMOND"}},{"type":"Feature","id":483961,"geometry":{"type":"LineString","coordinates":[[144.998012299346,-37.8173854976916],[144.998147804817,-37.81661615105]]},"properties":{"OBJECTID":483961,"ufi":1388706,"pfi":5677623,"ezi_road_name":"BANK STREET","road_name":"BANK","road_type":"STREET","class_code":5,"direction_code":"B","left_locality":"RICHMOND","right_locality":"RICHMOND"}},{"type":"Feature","id":714362,"geometry":{"type":"LineString","coordinates":[[144.999457305956,-37.8170364740223],[144.999623867084,-37.817029266162]]},"properties":{"OBJECTID":714362,"ufi":61552329,"pfi":15795785,"ezi_road_name":"UNNAMED","road_name":"UNNAMED","road_type":null,"class_code":6,"direction_code":"B","left_locality":"RICHMOND","right_locality":"RICHMOND"}},{"type":"Feature","id":1268097,"geometry":{"type":"LineString","coordinates":[[144.999501125775,-37.8167975008229],[144.999457305956,-37.8170364740223]]},"properties":{"OBJECTID":1268097,"ufi":42600463,"pfi":15795781,"ezi_road_name":"CHURCH STREET","road_name":"CHURCH","road_type":"STREET","class_code":3,"direction_code":"B","left_locality":"RICHMOND","right_locality":"RICHMOND"}},{"type":"Feature","id":1238104,"geometry":{"type":"LineString","coordinates":[[144.999623867084,-37.817029266162],[144.999946551816,-37.8169524740552]]},"properties":{"OBJECTID":1238104,"ufi":61552344,"pfi":15795786,"ezi_road_name":"UNNAMED","road_name":"UNNAMED","road_type":null,"class_code":6,"direction_code":"B","left_locality":"RICHMOND","right_locality":"RICHMOND"}},{"type":"Feature","id":720274,"geometry":{"type":"LineString","coordinates":[[144.999946551816,-37.8169524740552],[145.000036437243,-37.8170512062424],[145.000137849852,-37.8171353146727],[145.0002853649,-37.8172084583152],[145.000386778407,-37.8172486780268],[145.00054351556,-37.8172943953141],[145.000674890577,-37.8173145051492],[145.000808571569,-37.8173126749827],[145.000965308721,-37.8173053571548],[145.001085167337,-37.8172834171499],[145.001241891913,-37.8172322199951],[145.001370971734,-37.8171627338782],[145.001451634158,-37.8170950849643],[145.001506956007,-37.8170274281823],[145.001550749775,-37.8169542928762],[145.001573793359,-37.8168720137075],[145.001578401716,-37.8167842467469],[145.001562260787,-37.816701966679],[145.001532298379,-37.8166233369516],[145.001470067588,-37.8165410581236]]},"properties":{"OBJECTID":720274,"ufi":61563698,"pfi":15795784,"ezi_road_name":"UNNAMED","road_name":"UNNAMED","road_type":null,"class_code":6,"direction_code":"B","left_locality":"RICHMOND","right_locality":"RICHMOND"}},{"type":"Feature","id":324421,"geometry":{"type":"LineString","coordinates":[[144.997043972962,-37.8187020677049],[144.99710471794,-37.8183448667848]]},"properties":{"OBJECTID":324421,"ufi":1389444,"pfi":5678358,"ezi_road_name":"WALTHAM STREET","road_name":"WALTHAM","road_type":"STREET","class_code":5,"direction_code":"B","left_locality":"RICHMOND","right_locality":"RICHMOND"}},{"type":"Feature","id":28532,"geometry":{"type":"LineString","coordinates":[[144.99710471794,-37.8183448667848],[144.996904661329,-37.8183207783226]]},"properties":{"OBJECTID":28532,"ufi":1389233,"pfi":5678147,"ezi_road_name":"BRIDGE ROAD","road_name":"BRIDGE","road_type":"ROAD","class_code":2,"direction_code":"B","left_locality":"RICHMOND","right_locality":"RICHMOND"}},{"type":"Feature","id":328483,"geometry":{"type":"LineString","coordinates":[[144.996973810047,-37.8191149511598],[144.997043972962,-37.8187020677049]]},"properties":{"OBJECTID":328483,"ufi":57401213,"pfi":5678553,"ezi_road_name":"WALTHAM STREET","road_name":"WALTHAM","road_type":"STREET","class_code":5,"direction_code":"B","left_locality":"RICHMOND","right_locality":"RICHMOND"}},{"type":"Feature","id":822146,"geometry":{"type":"LineString","coordinates":[[144.997043972962,-37.8187020677049],[144.996622832875,-37.8186513476951]]},"properties":{"OBJECTID":822146,"ufi":62818355,"pfi":5678359,"ezi_road_name":"SHERIDAN PLACE","road_name":"SHERIDAN","road_type":"PLACE","class_code":5,"direction_code":"B","left_locality":"RICHMOND","right_locality":"RICHMOND"}},{"type":"Feature","id":144665,"geometry":{"type":"LineString","coordinates":[[145.001150072412,-37.8192420973283],[145.001698917898,-37.8192972137555]]},"properties":{"OBJECTID":144665,"ufi":1389729,"pfi":5678642,"ezi_road_name":"UNNAMED","road_name":"UNNAMED","road_type":null,"class_code":5,"direction_code":"B","left_locality":"RICHMOND","right_locality":"RICHMOND"}},{"type":"Feature","id":487066,"geometry":{"type":"LineString","coordinates":[[145.000982190761,-37.8202564920088],[145.001150072412,-37.8192420973283]]},"properties":{"OBJECTID":487066,"ufi":1390242,"pfi":5679153,"ezi_road_name":"SPENCER PLACE","road_name":"SPENCER","road_type":"PLACE","class_code":5,"direction_code":"B","left_locality":"RICHMOND","right_locality":"RICHMOND"}},{"type":"Feature","id":718163,"geometry":{"type":"LineString","coordinates":[[144.999946551816,-37.8169524740552],[144.999909673278,-37.8168775021107],[144.999893534146,-37.8168190002816],[144.999891229069,-37.8167403692595],[144.999909674177,-37.8166215273478],[144.99998572465,-37.8164990170652],[145.000052576375,-37.8164258741391],[145.000153988086,-37.8163600561594],[145.000261157998,-37.8163127351907],[145.000400607073,-37.8162741166535],[145.000527369241,-37.8162466900214],[145.000734804613,-37.8162448598285],[145.000958379117,-37.8162741138149],[145.001092059211,-37.8163161628076],[145.001234962309,-37.8163746728414],[145.001304108331,-37.8164075857351]]},"properties":{"OBJECTID":718163,"ufi":61554063,"pfi":15795783,"ezi_road_name":"UNNAMED","road_name":"UNNAMED","road_type":null,"class_code":6,"direction_code":"B","left_locality":"RICHMOND","right_locality":"RICHMOND"}},{"type":"Feature","id":29201,"geometry":{"type":"LineString","coordinates":[[144.999501125775,-37.8167975008229],[144.999669020004,-37.8158818647438]]},"properties":{"OBJECTID":29201,"ufi":1388410,"pfi":5677327,"ezi_road_name":"CHURCH STREET","road_name":"CHURCH","road_type":"STREET","class_code":3,"direction_code":"B","left_locality":"RICHMOND","right_locality":"RICHMOND"}},{"type":"Feature","id":53593,"geometry":{"type":"LineString","coordinates":[[144.999501125775,-37.8167975008229],[144.999021184665,-37.8167383112819]]},"properties":{"OBJECTID":53593,"ufi":1388411,"pfi":5677328,"ezi_road_name":"CAMERON STREET","road_name":"CAMERON","road_type":"STREET","class_code":5,"direction_code":"B","left_locality":"RICHMOND","right_locality":"RICHMOND"}},{"type":"Feature","id":147226,"geometry":{"type":"LineString","coordinates":[[144.996990729815,-37.817779952842],[144.996904661329,-37.8183207783226]]},"properties":{"OBJECTID":147226,"ufi":1389217,"pfi":5678131,"ezi_road_name":"BOSISTO STREET","road_name":"BOSISTO","road_type":"STREET","class_code":5,"direction_code":"B","left_locality":"RICHMOND","right_locality":"RICHMOND"}},{"type":"Feature","id":881868,"geometry":{"type":"LineString","coordinates":[[144.996904661329,-37.8183207783226],[144.996137869284,-37.818229782125]]},"properties":{"OBJECTID":881868,"ufi":64903316,"pfi":5678132,"ezi_road_name":"BRIDGE ROAD","road_name":"BRIDGE","road_type":"ROAD","class_code":2,"direction_code":"B","left_locality":"RICHMOND","right_locality":"RICHMOND"}},{"type":"Feature","id":28241,"geometry":{"type":"LineString","coordinates":[[145.001530947313,-37.8183673188284],[145.001449496168,-37.8187809968099]]},"properties":{"OBJECTID":28241,"ufi":1389485,"pfi":5678399,"ezi_road_name":"GLEADELL STREET","road_name":"GLEADELL","road_type":"STREET","class_code":5,"direction_code":"B","left_locality":"RICHMOND","right_locality":"RICHMOND"}},{"type":"Feature","id":52970,"geometry":{"type":"LineString","coordinates":[[145.001449496168,-37.8187809968099],[145.001779718663,-37.8188156990209]]},"properties":{"OBJECTID":52970,"ufi":1389500,"pfi":5678414,"ezi_road_name":"BRIDGE ROAD","road_name":"BRIDGE","road_type":"ROAD","class_code":2,"direction_code":"B","left_locality":"RICHMOND","right_locality":"RICHMOND"}},{"type":"Feature","id":328484,"geometry":{"type":"LineString","coordinates":[[144.996826402797,-37.8199813778416],[144.996973810047,-37.8191149511598]]},"properties":{"OBJECTID":328484,"ufi":57401214,"pfi":5679004,"ezi_road_name":"WALTHAM STREET","road_name":"WALTHAM","road_type":"STREET","class_code":5,"direction_code":"B","left_locality":"RICHMOND","right_locality":"RICHMOND"}},{"type":"Feature","id":29138,"geometry":{"type":"LineString","coordinates":[[144.99822421821,-37.8161822826717],[144.999111847135,-37.8162921077466],[144.999021184665,-37.8167383112819]]},"properties":{"OBJECTID":29138,"ufi":1388385,"pfi":5677302,"ezi_road_name":"KENNY STREET","road_name":"KENNY","road_type":"STREET","class_code":5,"direction_code":"F","left_locality":"RICHMOND","right_locality":"RICHMOND"}},{"type":"Feature","id":881551,"geometry":{"type":"LineString","coordinates":[[144.999021184665,-37.8167383112819],[144.998255838009,-37.8166439217243],[144.998147804817,-37.81661615105]]},"properties":{"OBJECTID":881551,"ufi":64903275,"pfi":16764230,"ezi_road_name":"CAMERON STREET","road_name":"CAMERON","road_type":"STREET","class_code":5,"direction_code":"B","left_locality":"RICHMOND","right_locality":"RICHMOND"}},{"type":"Feature","id":28533,"geometry":{"type":"LineString","coordinates":[[145.001966182865,-37.8161570261245],[145.001530947313,-37.8183673188284]]},"properties":{"OBJECTID":28533,"ufi":1389239,"pfi":5678153,"ezi_road_name":"GLEADELL STREET","road_name":"GLEADELL","road_type":"STREET","class_code":5,"direction_code":"B","left_locality":"RICHMOND","right_locality":"RICHMOND"}},{"type":"Feature","id":1211616,"geometry":{"type":"LineString","coordinates":[[145.001530947313,-37.8183673188284],[145.00265948733,-37.8184919797392]]},"properties":{"OBJECTID":1211616,"ufi":76319530,"pfi":5678230,"ezi_road_name":"R O W Y","road_name":"R O W Y","road_type":null,"class_code":6,"direction_code":"B","left_locality":"RICHMOND","right_locality":"RICHMOND"}},{"type":"Feature","id":113023,"geometry":{"type":"LineString","coordinates":[[144.996990729815,-37.817779952842],[144.995951755425,-37.8176552779552]]},"properties":{"OBJECTID":113023,"ufi":34388802,"pfi":5677854,"ezi_road_name":"LEGGO PLACE","road_name":"LEGGO","road_type":"PLACE","class_code":5,"direction_code":"B","left_locality":"RICHMOND","right_locality":"RICHMOND"}},{"type":"Feature","id":173687,"geometry":{"type":"LineString","coordinates":[[144.997072276181,-37.8172674920674],[144.996990729815,-37.817779952842]]},"properties":{"OBJECTID":173687,"ufi":1388937,"pfi":5677853,"ezi_road_name":"BOSISTO STREET","road_name":"BOSISTO","road_type":"STREET","class_code":5,"direction_code":"B","left_locality":"RICHMOND","right_locality":"RICHMOND"}},{"type":"Feature","id":254179,"geometry":{"type":"LineString","coordinates":[[144.998761738635,-37.8209667671246],[144.998841379674,-37.8204819572016]]},"properties":{"OBJECTID":254179,"ufi":53375778,"pfi":5679484,"ezi_road_name":"CHURCH STREET","road_name":"CHURCH","road_type":"STREET","class_code":3,"direction_code":"B","left_locality":"RICHMOND","right_locality":"RICHMOND"}},{"type":"Feature","id":822155,"geometry":{"type":"LineString","coordinates":[[144.997329240167,-37.8203153998508],[144.998734350798,-37.8204710270555],[144.998841379674,-37.8204819572016]]},"properties":{"OBJECTID":822155,"ufi":62818365,"pfi":5679244,"ezi_road_name":"WALTHAM PLACE","road_name":"WALTHAM","road_type":"PLACE","class_code":5,"direction_code":"B","left_locality":"RICHMOND","right_locality":"RICHMOND"}},{"type":"Feature","id":28722,"geometry":{"type":"LineString","coordinates":[[145.000526715267,-37.8202074527237],[145.000982190761,-37.8202564920088]]},"properties":{"OBJECTID":28722,"ufi":1390243,"pfi":5679154,"ezi_road_name":"ABINGER STREET","road_name":"ABINGER","road_type":"STREET","class_code":5,"direction_code":"B","left_locality":"RICHMOND","right_locality":"RICHMOND"}},{"type":"Feature","id":1246487,"geometry":{"type":"LineString","coordinates":[[145.000405879285,-37.8209491667451],[145.000526715267,-37.8202074527237]]},"properties":{"OBJECTID":1246487,"ufi":1390561,"pfi":5679471,"ezi_road_name":"LYNDHURST STREET","road_name":"LYNDHURST","road_type":"STREET","class_code":5,"direction_code":"B","left_locality":"RICHMOND","right_locality":"RICHMOND"}},{"type":"Feature","id":52977,"geometry":{"type":"LineString","coordinates":[[145.001698917898,-37.8192972137555],[145.001779718663,-37.8188156990209]]},"properties":{"OBJECTID":52977,"ufi":1389728,"pfi":5678641,"ezi_road_name":"HOSIE STREET","road_name":"HOSIE","road_type":"STREET","class_code":5,"direction_code":"F","left_locality":"RICHMOND","right_locality":"RICHMOND"}},{"type":"Feature","id":170886,"geometry":{"type":"LineString","coordinates":[[145.001779718663,-37.8188156990209],[145.002340828847,-37.8188746513001]]},"properties":{"OBJECTID":170886,"ufi":1389523,"pfi":5678437,"ezi_road_name":"BRIDGE ROAD","road_name":"BRIDGE","road_type":"ROAD","class_code":2,"direction_code":"B","left_locality":"RICHMOND","right_locality":"RICHMOND"}},{"type":"Feature","id":148988,"geometry":{"type":"LineString","coordinates":[[144.997210687702,-37.8164888030757],[144.997072276181,-37.8172674920674]]},"properties":{"OBJECTID":148988,"ufi":1388656,"pfi":5677573,"ezi_road_name":"BOSISTO STREET","road_name":"BOSISTO","road_type":"STREET","class_code":5,"direction_code":"B","left_locality":"RICHMOND","right_locality":"RICHMOND"}},{"type":"Feature","id":484036,"geometry":{"type":"LineString","coordinates":[[144.996151826409,-37.8171519118161],[144.997072276181,-37.8172674920674]]},"properties":{"OBJECTID":484036,"ufi":34389003,"pfi":5677574,"ezi_road_name":"HULL STREET","road_name":"HULL","road_type":"STREET","class_code":5,"direction_code":"B","left_locality":"RICHMOND","right_locality":"RICHMOND"}},{"type":"Feature","id":28915,"geometry":{"type":"LineString","coordinates":[[145.001527477121,-37.8203187641262],[145.001698917898,-37.8192972137555]]},"properties":{"OBJECTID":28915,"ufi":1390266,"pfi":5679177,"ezi_road_name":"HOSIE STREET","road_name":"HOSIE","road_type":"STREET","class_code":5,"direction_code":"F","left_locality":"RICHMOND","right_locality":"RICHMOND"}},{"type":"Feature","id":18118,"geometry":{"type":"LineString","coordinates":[[144.99822421821,-37.8161822826717],[144.998147804817,-37.81661615105]]},"properties":{"OBJECTID":18118,"ufi":1388323,"pfi":5677240,"ezi_road_name":"BANK STREET","road_name":"BANK","road_type":"STREET","class_code":5,"direction_code":"B","left_locality":"RICHMOND","right_locality":"RICHMOND"}},{"type":"Feature","id":27357,"geometry":{"type":"LineString","coordinates":[[144.997210687702,-37.8164888030757],[144.99803963508,-37.8165886599669],[144.998147804817,-37.81661615105]]},"properties":{"OBJECTID":27357,"ufi":1388324,"pfi":5677241,"ezi_road_name":"CAMERON STREET","road_name":"CAMERON","road_type":"STREET","class_code":5,"direction_code":"B","left_locality":"RICHMOND","right_locality":"RICHMOND"}},{"type":"Feature","id":448869,"geometry":{"type":"LineString","coordinates":[[145.000982190761,-37.8202564920088],[145.001527477121,-37.8203187641262]]},"properties":{"OBJECTID":448869,"ufi":1390267,"pfi":5679178,"ezi_road_name":"ABINGER STREET","road_name":"ABINGER","road_type":"STREET","class_code":5,"direction_code":"B","left_locality":"RICHMOND","right_locality":"RICHMOND"}},{"type":"Feature","id":243710,"geometry":{"type":"LineString","coordinates":[[145.001932109766,-37.8192906596786],[145.002260347883,-37.8193192879901]]},"properties":{"OBJECTID":243710,"ufi":51551348,"pfi":18430551,"ezi_road_name":"PANDOLEON LANE","road_name":"PANDOLEON","road_type":"LANE","class_code":5,"direction_code":"B","left_locality":"RICHMOND","right_locality":"RICHMOND"}},{"type":"Feature","id":28397,"geometry":{"type":"LineString","coordinates":[[144.996700134702,-37.8207237370407],[144.996826402797,-37.8199813778416]]},"properties":{"OBJECTID":28397,"ufi":1390461,"pfi":5679371,"ezi_road_name":"WALTHAM STREET","road_name":"WALTHAM","road_type":"STREET","class_code":5,"direction_code":"B","left_locality":"RICHMOND","right_locality":"RICHMOND"}},{"type":"Feature","id":29342,"geometry":{"type":"LineString","coordinates":[[144.996826402797,-37.8199813778416],[144.995432037813,-37.8198210349039]]},"properties":{"OBJECTID":29342,"ufi":1390094,"pfi":5679005,"ezi_road_name":"GOODWOOD STREET","road_name":"GOODWOOD","road_type":"STREET","class_code":5,"direction_code":"B","left_locality":"RICHMOND","right_locality":"RICHMOND"}},{"type":"Feature","id":254178,"geometry":{"type":"LineString","coordinates":[[144.998761738635,-37.8209667671246],[144.996700134702,-37.8207237370407]]},"properties":{"OBJECTID":254178,"ufi":53375777,"pfi":5679485,"ezi_road_name":"DARLINGTON PARADE","road_name":"DARLINGTON","road_type":"PARADE","class_code":5,"direction_code":"B","left_locality":"RICHMOND","right_locality":"RICHMOND"}},{"type":"Feature","id":464017,"geometry":{"type":"LineString","coordinates":[[144.998761738635,-37.8209667671246],[144.998682279953,-37.8214265923158]]},"properties":{"OBJECTID":464017,"ufi":53375776,"pfi":5679704,"ezi_road_name":"CHURCH STREET","road_name":"CHURCH","road_type":"STREET","class_code":3,"direction_code":"B","left_locality":"RICHMOND","right_locality":"RICHMOND"}},{"type":"Feature","id":824414,"geometry":{"type":"LineString","coordinates":[[144.998761738635,-37.8209667671246],[144.998878410925,-37.821023134719],[144.99961305586,-37.8211121859926]]},"properties":{"OBJECTID":824414,"ufi":62818376,"pfi":18935897,"ezi_road_name":"STOCKADE LANE","road_name":"STOCKADE","road_type":"LANE","class_code":5,"direction_code":"B","left_locality":"RICHMOND","right_locality":"RICHMOND"}},{"type":"Feature","id":822147,"geometry":{"type":"LineString","coordinates":[[144.996048521049,-37.8187871478635],[144.996137869284,-37.818229782125]]},"properties":{"OBJECTID":822147,"ufi":62818356,"pfi":5678408,"ezi_road_name":"PELUSO PLACE","road_name":"PELUSO","road_type":"PLACE","class_code":5,"direction_code":"B","left_locality":"RICHMOND","right_locality":"RICHMOND"}},{"type":"Feature","id":464632,"geometry":{"type":"LineString","coordinates":[[144.996137869284,-37.818229782125],[144.995856479208,-37.8181964172976]]},"properties":{"OBJECTID":464632,"ufi":1389155,"pfi":5678070,"ezi_road_name":"BRIDGE ROAD","road_name":"BRIDGE","road_type":"ROAD","class_code":2,"direction_code":"B","left_locality":"RICHMOND","right_locality":"RICHMOND"}},{"type":"Feature","id":142864,"geometry":{"type":"LineString","coordinates":[[144.99822421821,-37.8161822826717],[144.998308808967,-37.8157019228109]]},"properties":{"OBJECTID":142864,"ufi":1388097,"pfi":5677014,"ezi_road_name":"BANK STREET","road_name":"BANK","road_type":"STREET","class_code":5,"direction_code":"B","left_locality":"RICHMOND","right_locality":"RICHMOND"}},{"type":"Feature","id":488457,"geometry":{"type":"LineString","coordinates":[[145.002260347883,-37.8193192879901],[145.002340828847,-37.8188746513001]]},"properties":{"OBJECTID":488457,"ufi":51551353,"pfi":5678655,"ezi_road_name":"MARY STREET","road_name":"MARY","road_type":"STREET","class_code":5,"direction_code":"F","left_locality":"RICHMOND","right_locality":"RICHMOND"}},{"type":"Feature","id":17862,"geometry":{"type":"LineString","coordinates":[[145.002340828847,-37.8188746513001],[145.002577246566,-37.8188995322346]]},"properties":{"OBJECTID":17862,"ufi":1389534,"pfi":5678448,"ezi_road_name":"BRIDGE ROAD","road_name":"BRIDGE","road_type":"ROAD","class_code":2,"direction_code":"B","left_locality":"RICHMOND","right_locality":"RICHMOND"}},{"type":"Feature","id":116526,"geometry":{"type":"LineString","coordinates":[[145.001527477121,-37.8203187641262],[145.001675076611,-37.8203351781833]]},"properties":{"OBJECTID":116526,"ufi":1390272,"pfi":5679183,"ezi_road_name":"ABINGER STREET","road_name":"ABINGER","road_type":"STREET","class_code":5,"direction_code":"B","left_locality":"RICHMOND","right_locality":"RICHMOND"}},{"type":"Feature","id":243711,"geometry":{"type":"LineString","coordinates":[[145.00220970985,-37.8195990689571],[145.002260347883,-37.8193192879901]]},"properties":{"OBJECTID":243711,"ufi":51551355,"pfi":5678795,"ezi_road_name":"MARY STREET","road_name":"MARY","road_type":"STREET","class_code":5,"direction_code":"F","left_locality":"RICHMOND","right_locality":"RICHMOND"}},{"type":"Feature","id":1210490,"geometry":{"type":"LineString","coordinates":[[145.002260347883,-37.8193192879901],[145.003738843686,-37.8194204339832]]},"properties":{"OBJECTID":1210490,"ufi":76319394,"pfi":5678715,"ezi_road_name":"R O W Y","road_name":"R O W Y","road_type":null,"class_code":6,"direction_code":"B","left_locality":"RICHMOND","right_locality":"RICHMOND"}},{"type":"Feature","id":144671,"geometry":{"type":"LineString","coordinates":[[145.000405879285,-37.8209491667451],[145.000310640797,-37.8215338372834],[145.00027954202,-37.8216204951679]]},"properties":{"OBJECTID":144671,"ufi":1390870,"pfi":5679779,"ezi_road_name":"LYNDHURST STREET","road_name":"LYNDHURST","road_type":"STREET","class_code":5,"direction_code":"B","left_locality":"RICHMOND","right_locality":"RICHMOND"}},{"type":"Feature","id":1211618,"geometry":{"type":"LineString","coordinates":[[145.000405879285,-37.8209491667451],[145.000846570305,-37.8210056400843]]},"properties":{"OBJECTID":1211618,"ufi":76319532,"pfi":5679505,"ezi_road_name":"R O W Y","road_name":"R O W Y","road_type":null,"class_code":6,"direction_code":"B","left_locality":"RICHMOND","right_locality":"RICHMOND"}},{"type":"Feature","id":28170,"geometry":{"type":"LineString","coordinates":[[144.99737031743,-37.815598282241],[144.997210687702,-37.8164888030757]]},"properties":{"OBJECTID":28170,"ufi":1388256,"pfi":5677173,"ezi_road_name":"BOSISTO STREET","road_name":"BOSISTO","road_type":"STREET","class_code":5,"direction_code":"B","left_locality":"RICHMOND","right_locality":"RICHMOND"}},{"type":"Feature","id":988412,"geometry":{"type":"LineString","coordinates":[[144.997210687702,-37.8164888030757],[144.996393510051,-37.816392005354],[144.996280093255,-37.816387325207]]},"properties":{"OBJECTID":988412,"ufi":1388257,"pfi":5677174,"ezi_road_name":"CAMERON STREET","road_name":"CAMERON","road_type":"STREET","class_code":5,"direction_code":"B","left_locality":"RICHMOND","right_locality":"RICHMOND"}},{"type":"Feature","id":144668,"geometry":{"type":"LineString","coordinates":[[145.002128727626,-37.820046499298],[145.00220970985,-37.8195990689571]]},"properties":{"OBJECTID":144668,"ufi":1390129,"pfi":5679040,"ezi_road_name":"MARY STREET","road_name":"MARY","road_type":"STREET","class_code":5,"direction_code":"F","left_locality":"RICHMOND","right_locality":"RICHMOND"}},{"type":"Feature","id":151542,"geometry":{"type":"LineString","coordinates":[[145.00220970985,-37.8195990689571],[145.003681249999,-37.8197004941566]]},"properties":{"OBJECTID":151542,"ufi":1389936,"pfi":5678848,"ezi_road_name":"FRANCIS STREET","road_name":"FRANCIS","road_type":"STREET","class_code":5,"direction_code":"F","left_locality":"RICHMOND","right_locality":"RICHMOND"}},{"type":"Feature","id":822160,"geometry":{"type":"LineString","coordinates":[[145.000877509182,-37.8208404676508],[145.000846570305,-37.8210056400843]]},"properties":{"OBJECTID":822160,"ufi":62818370,"pfi":5679504,"ezi_road_name":"SHAW STREET","road_name":"SHAW","road_type":"STREET","class_code":5,"direction_code":"B","left_locality":"RICHMOND","right_locality":"RICHMOND"}},{"type":"Feature","id":53257,"geometry":{"type":"LineString","coordinates":[[145.001675076611,-37.8203351781833],[145.002068562061,-37.8203789328998]]},"properties":{"OBJECTID":53257,"ufi":1390292,"pfi":5679203,"ezi_road_name":"ABINGER STREET","road_name":"ABINGER","road_type":"STREET","class_code":5,"direction_code":"B","left_locality":"RICHMOND","right_locality":"RICHMOND"}},{"type":"Feature","id":822159,"geometry":{"type":"LineString","coordinates":[[145.001675076611,-37.8203351781833],[145.001604325299,-37.8207933198603]]},"properties":{"OBJECTID":822159,"ufi":62818369,"pfi":5679416,"ezi_road_name":"PRINCESS STREET","road_name":"PRINCESS","road_type":"STREET","class_code":5,"direction_code":"B","left_locality":"RICHMOND","right_locality":"RICHMOND"}},{"type":"Feature","id":822150,"geometry":{"type":"LineString","coordinates":[[144.995856479208,-37.8181964172976],[144.99576213095,-37.8187717581649],[144.995716969048,-37.8190109272164]]},"properties":{"OBJECTID":822150,"ufi":62818359,"pfi":5678512,"ezi_road_name":"ALLOWAH TERRACE","road_name":"ALLOWAH","road_type":"TERRACE","class_code":5,"direction_code":"B","left_locality":"RICHMOND","right_locality":"RICHMOND"}},{"type":"Feature","id":28326,"geometry":{"type":"LineString","coordinates":[[144.995856479208,-37.8181964172976],[144.995431514993,-37.8181460538862]]},"properties":{"OBJECTID":28326,"ufi":1389144,"pfi":5678059,"ezi_road_name":"BRIDGE ROAD","road_name":"BRIDGE","road_type":"ROAD","class_code":2,"direction_code":"B","left_locality":"RICHMOND","right_locality":"RICHMOND"}},{"type":"Feature","id":723292,"geometry":{"type":"LineString","coordinates":[[144.995968933908,-37.8175469692795],[144.995951755425,-37.8176552779552]]},"properties":{"OBJECTID":723292,"ufi":61561943,"pfi":14084721,"ezi_road_name":"UNNAMED","road_name":"UNNAMED","road_type":null,"class_code":6,"direction_code":"B","left_locality":"RICHMOND","right_locality":"RICHMOND"}},{"type":"Feature","id":148990,"geometry":{"type":"LineString","coordinates":[[145.001330723616,-37.8160891442322],[144.999886130231,-37.8159347908455],[144.999669020004,-37.8158818647438]]},"properties":{"OBJECTID":148990,"ufi":1388047,"pfi":5676964,"ezi_road_name":"HIGHETT STREET","road_name":"HIGHETT","road_type":"STREET","class_code":5,"direction_code":"B","left_locality":"RICHMOND","right_locality":"RICHMOND"}},{"type":"Feature","id":27405,"geometry":{"type":"LineString","coordinates":[[145.002577246566,-37.8188995322346],[145.003794707219,-37.8190276488322]]},"properties":{"OBJECTID":27405,"ufi":1389592,"pfi":5678506,"ezi_road_name":"BRIDGE ROAD","road_name":"BRIDGE","road_type":"ROAD","class_code":2,"direction_code":"B","left_locality":"RICHMOND","right_locality":"RICHMOND"}},{"type":"Feature","id":52972,"geometry":{"type":"LineString","coordinates":[[145.002577246566,-37.8188995322346],[145.00265948733,-37.8184919797392]]},"properties":{"OBJECTID":52972,"ufi":1389533,"pfi":5678447,"ezi_road_name":"GRIFFITHS STREET","road_name":"GRIFFITHS","road_type":"STREET","class_code":5,"direction_code":"B","left_locality":"RICHMOND","right_locality":"RICHMOND"}},{"type":"Feature","id":29297,"geometry":{"type":"LineString","coordinates":[[144.998308808967,-37.8157019228109],[144.999452181067,-37.8158281828203],[144.999669020004,-37.8158818647438]]},"properties":{"OBJECTID":29297,"ufi":1387937,"pfi":5676856,"ezi_road_name":"HIGHETT STREET","road_name":"HIGHETT","road_type":"STREET","class_code":5,"direction_code":"B","left_locality":"RICHMOND","right_locality":"RICHMOND"}},{"type":"Feature","id":1234168,"geometry":{"type":"LineString","coordinates":[[144.999761256322,-37.8153787902469],[144.999669020004,-37.8158818647438]]},"properties":{"OBJECTID":1234168,"ufi":1387936,"pfi":5676855,"ezi_road_name":"CHURCH STREET","road_name":"CHURCH","road_type":"STREET","class_code":3,"direction_code":"B","left_locality":"RICHMOND","right_locality":"RICHMOND"}},{"type":"Feature","id":723082,"geometry":{"type":"LineString","coordinates":[[144.995196484274,-37.8174578668683],[144.995968933908,-37.8175469692795]]},"properties":{"OBJECTID":723082,"ufi":61564454,"pfi":14084722,"ezi_road_name":"UNNAMED","road_name":"UNNAMED","road_type":null,"class_code":6,"direction_code":"B","left_locality":"RICHMOND","right_locality":"RICHMOND"}},{"type":"Feature","id":723291,"geometry":{"type":"LineString","coordinates":[[144.996151826409,-37.8171519118161],[144.996024219824,-37.817198580085],[144.995968933908,-37.8175469692795]]},"properties":{"OBJECTID":723291,"ufi":61561942,"pfi":14084720,"ezi_road_name":"UNNAMED","road_name":"UNNAMED","road_type":null,"class_code":6,"direction_code":"B","left_locality":"RICHMOND","right_locality":"RICHMOND"}},{"type":"Feature","id":28974,"geometry":{"type":"LineString","coordinates":[[145.002068562061,-37.8203789328998],[145.002128727626,-37.820046499298]]},"properties":{"OBJECTID":28974,"ufi":1390291,"pfi":5679202,"ezi_road_name":"MARY STREET","road_name":"MARY","road_type":"STREET","class_code":5,"direction_code":"F","left_locality":"RICHMOND","right_locality":"RICHMOND"}},{"type":"Feature","id":175852,"geometry":{"type":"LineString","coordinates":[[145.002128727626,-37.820046499298],[145.003596687089,-37.8201462137113]]},"properties":{"OBJECTID":175852,"ufi":1390178,"pfi":5679089,"ezi_road_name":"SHEEDY STREET","road_name":"SHEEDY","road_type":"STREET","class_code":5,"direction_code":"F","left_locality":"RICHMOND","right_locality":"RICHMOND"}},{"type":"Feature","id":27746,"geometry":{"type":"LineString","coordinates":[[145.00265948733,-37.8184919797392],[145.002863483053,-37.8174810948185]]},"properties":{"OBJECTID":27746,"ufi":1389315,"pfi":5678229,"ezi_road_name":"GRIFFITHS STREET","road_name":"GRIFFITHS","road_type":"STREET","class_code":5,"direction_code":"B","left_locality":"RICHMOND","right_locality":"RICHMOND"}},{"type":"Feature","id":1211617,"geometry":{"type":"LineString","coordinates":[[145.00265948733,-37.8184919797392],[145.003854802715,-37.8186061137963]]},"properties":{"OBJECTID":1211617,"ufi":76319531,"pfi":5678290,"ezi_road_name":"R O W Y","road_name":"R O W Y","road_type":null,"class_code":6,"direction_code":"B","left_locality":"RICHMOND","right_locality":"RICHMOND"}},{"type":"Feature","id":28440,"geometry":{"type":"LineString","coordinates":[[145.000846570305,-37.8210056400843],[145.000721590395,-37.8216726876863]]},"properties":{"OBJECTID":28440,"ufi":1390908,"pfi":5679817,"ezi_road_name":"SHAW STREET","road_name":"SHAW","road_type":"STREET","class_code":5,"direction_code":"B","left_locality":"RICHMOND","right_locality":"RICHMOND"}},{"type":"Feature","id":113084,"geometry":{"type":"LineString","coordinates":[[144.996185250924,-37.8169526557244],[144.996151826409,-37.8171519118161]]},"properties":{"OBJECTID":113084,"ufi":34389002,"pfi":5677513,"ezi_road_name":"THOMAS STREET","road_name":"THOMAS","road_type":"STREET","class_code":5,"direction_code":"B","left_locality":"RICHMOND","right_locality":"RICHMOND"}},{"type":"Feature","id":28363,"geometry":{"type":"LineString","coordinates":[[144.996185250924,-37.8169526557244],[144.996280093255,-37.816387325207]]},"properties":{"OBJECTID":28363,"ufi":1388497,"pfi":5677414,"ezi_road_name":"THOMAS STREET","road_name":"THOMAS","road_type":"STREET","class_code":5,"direction_code":"B","left_locality":"RICHMOND","right_locality":"RICHMOND"}},{"type":"Feature","id":144384,"geometry":{"type":"LineString","coordinates":[[144.995299571343,-37.8168549559407],[144.996185250924,-37.8169526557244]]},"properties":{"OBJECTID":144384,"ufi":41610034,"pfi":5677415,"ezi_road_name":"MCGOUN STREET","road_name":"MCGOUN","road_type":"STREET","class_code":5,"direction_code":"B","left_locality":"RICHMOND","right_locality":"RICHMOND"}},{"type":"Feature","id":29276,"geometry":{"type":"LineString","coordinates":[[144.998682279953,-37.8214265923158],[144.998644020705,-37.8216480759155]]},"properties":{"OBJECTID":29276,"ufi":1390892,"pfi":5679801,"ezi_road_name":"CHURCH STREET","road_name":"CHURCH","road_type":"STREET","class_code":3,"direction_code":"B","left_locality":"RICHMOND","right_locality":"RICHMOND"}},{"type":"Feature","id":156594,"geometry":{"type":"LineString","coordinates":[[144.998682279953,-37.8214265923158],[145.00027954202,-37.8216204951679]]},"properties":{"OBJECTID":156594,"ufi":1390871,"pfi":5679780,"ezi_road_name":"BROUGHAM STREET","road_name":"BROUGHAM","road_type":"STREET","class_code":5,"direction_code":"B","left_locality":"RICHMOND","right_locality":"RICHMOND"}},{"type":"Feature","id":144675,"geometry":{"type":"LineString","coordinates":[[145.001811093223,-37.8218013487],[145.002068562061,-37.8203789328998]]},"properties":{"OBJECTID":144675,"ufi":1390983,"pfi":5679892,"ezi_road_name":"MARY STREET","road_name":"MARY","road_type":"STREET","class_code":5,"direction_code":"F","left_locality":"RICHMOND","right_locality":"RICHMOND"}},{"type":"Feature","id":146108,"geometry":{"type":"LineString","coordinates":[[145.002068562061,-37.8203789328998],[145.002736905039,-37.8204532619279]]},"properties":{"OBJECTID":146108,"ufi":1390325,"pfi":5679236,"ezi_road_name":"ABINGER STREET","road_name":"ABINGER","road_type":"STREET","class_code":5,"direction_code":"B","left_locality":"RICHMOND","right_locality":"RICHMOND"}},{"type":"Feature","id":29056,"geometry":{"type":"LineString","coordinates":[[144.997931046728,-37.8156602098462],[144.998308808967,-37.8157019228109]]},"properties":{"OBJECTID":29056,"ufi":1387833,"pfi":5676754,"ezi_road_name":"HIGHETT STREET","road_name":"HIGHETT","road_type":"STREET","class_code":5,"direction_code":"B","left_locality":"RICHMOND","right_locality":"RICHMOND"}},{"type":"Feature","id":485936,"geometry":{"type":"LineString","coordinates":[[144.995431514993,-37.8181460538862],[144.99532647319,-37.8187550010098]]},"properties":{"OBJECTID":485936,"ufi":57401211,"pfi":5678377,"ezi_road_name":"WUSTEMENN PLACE","road_name":"WUSTEMENN","road_type":"PLACE","class_code":5,"direction_code":"B","left_locality":"RICHMOND","right_locality":"RICHMOND"}},{"type":"Feature","id":1227098,"geometry":{"type":"LineString","coordinates":[[144.995085806441,-37.8181050710971],[144.995431514993,-37.8181460538862]]},"properties":{"OBJECTID":1227098,"ufi":1389117,"pfi":5678032,"ezi_road_name":"BRIDGE ROAD","road_name":"BRIDGE","road_type":"ROAD","class_code":2,"direction_code":"B","left_locality":"RICHMOND","right_locality":"RICHMOND"}},{"type":"Feature","id":173352,"geometry":{"type":"LineString","coordinates":[[145.001330723616,-37.8160891442322],[145.001966182865,-37.8161570261245]]},"properties":{"OBJECTID":173352,"ufi":1388086,"pfi":5677003,"ezi_road_name":"HIGHETT STREET","road_name":"HIGHETT","road_type":"STREET","class_code":5,"direction_code":"B","left_locality":"RICHMOND","right_locality":"RICHMOND"}},{"type":"Feature","id":468532,"geometry":{"type":"LineString","coordinates":[[145.001411398617,-37.8155509011726],[145.001411014138,-37.8156410022454],[145.001330723616,-37.8160891442322]]},"properties":{"OBJECTID":468532,"ufi":1388046,"pfi":5676963,"ezi_road_name":"NEWLANDS STREET","road_name":"NEWLANDS","road_type":"STREET","class_code":5,"direction_code":"F","left_locality":"RICHMOND","right_locality":"RICHMOND"}},{"type":"Feature","id":28835,"geometry":{"type":"LineString","coordinates":[[144.998028824754,-37.8151793462762],[144.997931046728,-37.8156602098462]]},"properties":{"OBJECTID":28835,"ufi":1387797,"pfi":5676719,"ezi_road_name":"BROMHAM PLACE","road_name":"BROMHAM","road_type":"PLACE","class_code":5,"direction_code":"F","left_locality":"RICHMOND","right_locality":"RICHMOND"}},{"type":"Feature","id":53104,"geometry":{"type":"LineString","coordinates":[[144.99737031743,-37.815598282241],[144.997931046728,-37.8156602098462]]},"properties":{"OBJECTID":53104,"ufi":1387798,"pfi":5676720,"ezi_road_name":"HIGHETT STREET","road_name":"HIGHETT","road_type":"STREET","class_code":5,"direction_code":"B","left_locality":"RICHMOND","right_locality":"RICHMOND"}},{"type":"Feature","id":322358,"geometry":{"type":"LineString","coordinates":[[144.998644020705,-37.8216480759155],[144.998523576388,-37.8216345331935]]},"properties":{"OBJECTID":322358,"ufi":35117804,"pfi":5679802,"ezi_road_name":"THE VAUCLUSE","road_name":"THE VAUCLUSE","road_type":null,"class_code":5,"direction_code":"B","left_locality":"RICHMOND","right_locality":"RICHMOND"}},{"type":"Feature","id":344401,"geometry":{"type":"LineString","coordinates":[[144.998644020705,-37.8216480759155],[144.998258065831,-37.8238816167543]]},"properties":{"OBJECTID":344401,"ufi":57755389,"pfi":5680860,"ezi_road_name":"CHURCH STREET","road_name":"CHURCH","road_type":"STREET","class_code":3,"direction_code":"B","left_locality":"RICHMOND","right_locality":"RICHMOND"}},{"type":"Feature","id":146218,"geometry":{"type":"LineString","coordinates":[[144.998523576388,-37.8216345331935],[144.996332820769,-37.8213881517259]]},"properties":{"OBJECTID":146218,"ufi":35117780,"pfi":5679790,"ezi_road_name":"THE VAUCLUSE","road_name":"THE VAUCLUSE","road_type":null,"class_code":5,"direction_code":"B","left_locality":"RICHMOND","right_locality":"RICHMOND"}},{"type":"Feature","id":328474,"geometry":{"type":"LineString","coordinates":[[145.002863483053,-37.8174810948185],[145.002889157802,-37.8173538732332]]},"properties":{"OBJECTID":328474,"ufi":57401193,"pfi":20175164,"ezi_road_name":"GRIFFITHS STREET","road_name":"GRIFFITHS","road_type":"STREET","class_code":5,"direction_code":"B","left_locality":"RICHMOND","right_locality":"RICHMOND"}},{"type":"Feature","id":483429,"geometry":{"type":"LineString","coordinates":[[145.003949454603,-37.8180687250381],[145.002863483053,-37.8174810948185]]},"properties":{"OBJECTID":483429,"ufi":1389085,"pfi":5678001,"ezi_road_name":"PALMER STREET","road_name":"PALMER","road_type":"STREET","class_code":5,"direction_code":"B","left_locality":"RICHMOND","right_locality":"RICHMOND"}},{"type":"Feature","id":824413,"geometry":{"type":"LineString","coordinates":[[145.001447360873,-37.8217583938354],[145.001567791715,-37.8210832269906]]},"properties":{"OBJECTID":824413,"ufi":62818375,"pfi":5679854,"ezi_road_name":"PRINCESS STREET","road_name":"PRINCESS","road_type":"STREET","class_code":5,"direction_code":"B","left_locality":"RICHMOND","right_locality":"RICHMOND"}},{"type":"Feature","id":28441,"geometry":{"type":"LineString","coordinates":[[145.000721590395,-37.8216726876863],[145.00027954202,-37.8216204951679]]},"properties":{"OBJECTID":28441,"ufi":1390909,"pfi":5679818,"ezi_road_name":"BROUGHAM STREET","road_name":"BROUGHAM","road_type":"STREET","class_code":5,"direction_code":"B","left_locality":"RICHMOND","right_locality":"RICHMOND"}},{"type":"Feature","id":173567,"geometry":{"type":"LineString","coordinates":[[145.000142549838,-37.8222900832368],[145.000247058041,-37.8217068286637],[145.00027954202,-37.8216204951679]]},"properties":{"OBJECTID":173567,"ufi":1391203,"pfi":5680111,"ezi_road_name":"LYNDHURST STREET","road_name":"LYNDHURST","road_type":"STREET","class_code":5,"direction_code":"B","left_locality":"RICHMOND","right_locality":"RICHMOND"}},{"type":"Feature","id":28163,"geometry":{"type":"LineString","coordinates":[[144.99642989721,-37.8154944172732],[144.996280093255,-37.816387325207]]},"properties":{"OBJECTID":28163,"ufi":1388206,"pfi":5677123,"ezi_road_name":"THOMAS STREET","road_name":"THOMAS","road_type":"STREET","class_code":5,"direction_code":"B","left_locality":"RICHMOND","right_locality":"RICHMOND"}},{"type":"Feature","id":467113,"geometry":{"type":"LineString","coordinates":[[144.995874831789,-37.8163477848719],[144.99616667556,-37.8163825726752],[144.996280093255,-37.816387325207]]},"properties":{"OBJECTID":467113,"ufi":18535588,"pfi":13178120,"ezi_road_name":"CAMERON STREET","road_name":"CAMERON","road_type":"STREET","class_code":5,"direction_code":"B","left_locality":"RICHMOND","right_locality":"RICHMOND"}},{"type":"Feature","id":294637,"geometry":{"type":"LineString","coordinates":[[144.995156300834,-37.8185119671916],[144.994566112184,-37.8184477541284]]},"properties":{"OBJECTID":294637,"ufi":55126811,"pfi":19527297,"ezi_road_name":"KURNAGAR LANE","road_name":"KURNAGAR","road_type":"LANE","class_code":5,"direction_code":"B","left_locality":"RICHMOND","right_locality":"RICHMOND"}},{"type":"Feature","id":328475,"geometry":{"type":"LineString","coordinates":[[145.002889157802,-37.8173538732332],[145.003088322385,-37.8163669177754],[145.003119109447,-37.8162801962412]]},"properties":{"OBJECTID":328475,"ufi":57401194,"pfi":20175165,"ezi_road_name":"GRIFFITHS STREET","road_name":"GRIFFITHS","road_type":"STREET","class_code":5,"direction_code":"B","left_locality":"RICHMOND","right_locality":"RICHMOND"}},{"type":"Feature","id":939339,"geometry":{"type":"LineString","coordinates":[[145.002889157802,-37.8173538732332],[145.004048033027,-37.8174817817503]]},"properties":{"OBJECTID":939339,"ufi":68219640,"pfi":17035430,"ezi_road_name":"DYER STREET","road_name":"DYER","road_type":"STREET","class_code":9,"direction_code":"B","left_locality":"RICHMOND","right_locality":"RICHMOND"}},{"type":"Feature","id":29329,"geometry":{"type":"LineString","coordinates":[[144.995432037813,-37.8198210349039],[144.994343732439,-37.8196958752466]]},"properties":{"OBJECTID":29329,"ufi":1390015,"pfi":5678926,"ezi_road_name":"GOODWOOD STREET","road_name":"GOODWOOD","road_type":"STREET","class_code":5,"direction_code":"B","left_locality":"RICHMOND","right_locality":"RICHMOND"}},{"type":"Feature","id":822156,"geometry":{"type":"LineString","coordinates":[[144.995432037813,-37.8198210349039],[144.995310534382,-37.8204613727896]]},"properties":{"OBJECTID":822156,"ufi":62818366,"pfi":5679248,"ezi_road_name":"FORDHAM COURT","road_name":"FORDHAM","road_type":"COURT","class_code":5,"direction_code":"B","left_locality":"RICHMOND","right_locality":"RICHMOND"}},{"type":"Feature","id":53102,"geometry":{"type":"LineString","coordinates":[[144.999761256322,-37.8153787902469],[145.001411398617,-37.8155509011726]]},"properties":{"OBJECTID":53102,"ufi":1387738,"pfi":5676660,"ezi_road_name":"SOMERSET STREET","road_name":"SOMERSET","road_type":"STREET","class_code":5,"direction_code":"B","left_locality":"RICHMOND","right_locality":"RICHMOND"}},{"type":"Feature","id":324810,"geometry":{"type":"LineString","coordinates":[[144.998028824754,-37.8151793462762],[144.999761256322,-37.8153787902469]]},"properties":{"OBJECTID":324810,"ufi":1387631,"pfi":5676554,"ezi_road_name":"RULE STREET","road_name":"RULE","road_type":"STREET","class_code":5,"direction_code":"F","left_locality":"RICHMOND","right_locality":"RICHMOND"}},{"type":"Feature","id":491974,"geometry":{"type":"LineString","coordinates":[[144.999761256322,-37.8153787902469],[144.999838816864,-37.8149557149825]]},"properties":{"OBJECTID":491974,"ufi":1387630,"pfi":5676553,"ezi_road_name":"CHURCH STREET","road_name":"CHURCH","road_type":"STREET","class_code":3,"direction_code":"B","left_locality":"RICHMOND","right_locality":"RICHMOND"}},{"type":"Feature","id":113025,"geometry":{"type":"LineString","coordinates":[[144.995085806441,-37.8181050710971],[144.995196484274,-37.8174578668683]]},"properties":{"OBJECTID":113025,"ufi":34388803,"pfi":14084686,"ezi_road_name":"JUDD STREET","road_name":"JUDD","road_type":"STREET","class_code":5,"direction_code":"F","left_locality":"RICHMOND","right_locality":"RICHMOND"}},{"type":"Feature","id":452160,"geometry":{"type":"LineString","coordinates":[[144.995085806441,-37.8181050710971],[144.994630005757,-37.8180529292785]]},"properties":{"OBJECTID":452160,"ufi":1389101,"pfi":5678017,"ezi_road_name":"BRIDGE ROAD","road_name":"BRIDGE","road_type":"ROAD","class_code":2,"direction_code":"B","left_locality":"RICHMOND","right_locality":"RICHMOND"}},{"type":"Feature","id":27880,"geometry":{"type":"LineString","coordinates":[[145.001966182865,-37.8161570261245],[145.003119109447,-37.8162801962412]]},"properties":{"OBJECTID":27880,"ufi":1388140,"pfi":5677057,"ezi_road_name":"HIGHETT STREET","road_name":"HIGHETT","road_type":"STREET","class_code":5,"direction_code":"B","left_locality":"RICHMOND","right_locality":"RICHMOND"}},{"type":"Feature","id":126529,"geometry":{"type":"LineString","coordinates":[[144.997114786257,-37.8155700569918],[144.99737031743,-37.815598282241]]},"properties":{"OBJECTID":126529,"ufi":1387762,"pfi":5676684,"ezi_road_name":"HIGHETT STREET","road_name":"HIGHETT","road_type":"STREET","class_code":5,"direction_code":"B","left_locality":"RICHMOND","right_locality":"RICHMOND"}},{"type":"Feature","id":28493,"geometry":{"type":"LineString","coordinates":[[145.001447360873,-37.8217583938354],[145.000721590395,-37.8216726876863]]},"properties":{"OBJECTID":28493,"ufi":1390946,"pfi":5679855,"ezi_road_name":"BROUGHAM STREET","road_name":"BROUGHAM","road_type":"STREET","class_code":5,"direction_code":"B","left_locality":"RICHMOND","right_locality":"RICHMOND"}},{"type":"Feature","id":128413,"geometry":{"type":"LineString","coordinates":[[144.995196484274,-37.8174578668683],[144.995299571343,-37.8168549559407]]},"properties":{"OBJECTID":128413,"ufi":41610032,"pfi":15700290,"ezi_road_name":"JUDD STREET","road_name":"JUDD","road_type":"STREET","class_code":5,"direction_code":"F","left_locality":"RICHMOND","right_locality":"RICHMOND"}},{"type":"Feature","id":29169,"geometry":{"type":"LineString","coordinates":[[145.002736905039,-37.8204532619279],[145.003521877189,-37.8205405476676]]},"properties":{"OBJECTID":29169,"ufi":1390362,"pfi":5679273,"ezi_road_name":"ABINGER STREET","road_name":"ABINGER","road_type":"STREET","class_code":5,"direction_code":"B","left_locality":"RICHMOND","right_locality":"RICHMOND"}},{"type":"Feature","id":492233,"geometry":{"type":"LineString","coordinates":[[145.002736905039,-37.8204532619279],[145.002660821328,-37.8209118371516]]},"properties":{"OBJECTID":492233,"ufi":1390539,"pfi":5679449,"ezi_road_name":"ABINGER PLACE","road_name":"ABINGER","road_type":"PLACE","class_code":5,"direction_code":"B","left_locality":"RICHMOND","right_locality":"RICHMOND"}},{"type":"Feature","id":28641,"geometry":{"type":"LineString","coordinates":[[144.997114786257,-37.8155700569918],[144.997418934253,-37.8140708381362],[144.997008564068,-37.8140192463039]]},"properties":{"OBJECTID":28641,"ufi":1387742,"pfi":5676664,"ezi_road_name":"BELGIUM AVENUE","road_name":"BELGIUM","road_type":"AVENUE","class_code":5,"direction_code":"B","left_locality":"RICHMOND","right_locality":"RICHMOND"}},{"type":"Feature","id":28787,"geometry":{"type":"LineString","coordinates":[[144.99642989721,-37.8154944172732],[144.997114786257,-37.8155700569918]]},"properties":{"OBJECTID":28787,"ufi":1387743,"pfi":5676665,"ezi_road_name":"HIGHETT STREET","road_name":"HIGHETT","road_type":"STREET","class_code":5,"direction_code":"B","left_locality":"RICHMOND","right_locality":"RICHMOND"}},{"type":"Feature","id":95922,"geometry":{"type":"LineString","coordinates":[[144.995623422087,-37.8163178170052],[144.995874831789,-37.8163477848719]]},"properties":{"OBJECTID":95922,"ufi":18535587,"pfi":13178119,"ezi_road_name":"CAMERON STREET","road_name":"CAMERON","road_type":"STREET","class_code":5,"direction_code":"B","left_locality":"RICHMOND","right_locality":"RICHMOND"}},{"type":"Feature","id":822144,"geometry":{"type":"LineString","coordinates":[[144.995874831789,-37.8163477848719],[144.995907973335,-37.8161613592659]]},"properties":{"OBJECTID":822144,"ufi":62818352,"pfi":13178121,"ezi_road_name":"YILAM LANE","road_name":"YILAM","road_type":"LANE","class_code":5,"direction_code":"B","left_locality":"RICHMOND","right_locality":"RICHMOND"}},{"type":"Feature","id":822161,"geometry":{"type":"LineString","coordinates":[[145.002422886355,-37.8208851190118],[145.002660821328,-37.8209118371516]]},"properties":{"OBJECTID":822161,"ufi":62818371,"pfi":5679450,"ezi_road_name":"ABINGER PLACE","road_name":"ABINGER","road_type":"PLACE","class_code":5,"direction_code":"B","left_locality":"RICHMOND","right_locality":"RICHMOND"}},{"type":"Feature","id":28640,"geometry":{"type":"LineString","coordinates":[[145.001474981373,-37.8151210041949],[145.001412260101,-37.8154608099251],[145.001411398617,-37.8155509011726]]},"properties":{"OBJECTID":28640,"ufi":1387737,"pfi":5676659,"ezi_road_name":"NEWLANDS STREET","road_name":"NEWLANDS","road_type":"STREET","class_code":5,"direction_code":"F","left_locality":"RICHMOND","right_locality":"RICHMOND"}},{"type":"Feature","id":29053,"geometry":{"type":"LineString","coordinates":[[145.002833012198,-37.8156991629532],[145.001411398617,-37.8155509011726]]},"properties":{"OBJECTID":29053,"ufi":1387830,"pfi":5676751,"ezi_road_name":"SOMERSET STREET","road_name":"SOMERSET","road_type":"STREET","class_code":5,"direction_code":"B","left_locality":"RICHMOND","right_locality":"RICHMOND"}},{"type":"Feature","id":128418,"geometry":{"type":"LineString","coordinates":[[144.995299571343,-37.8168549559407],[144.995315715865,-37.8167605409849],[144.995392951216,-37.8167176562805],[144.99546510929,-37.8163020173228]]},"properties":{"OBJECTID":128418,"ufi":41610033,"pfi":15700291,"ezi_road_name":"JUDD STREET","road_name":"JUDD","road_type":"STREET","class_code":5,"direction_code":"F","left_locality":"RICHMOND","right_locality":"RICHMOND"}},{"type":"Feature","id":1247948,"geometry":{"type":"LineString","coordinates":[[144.998208237181,-37.8142970141516],[144.998028824754,-37.8151793462762]]},"properties":{"OBJECTID":1247948,"ufi":1387521,"pfi":5676446,"ezi_road_name":"BROMHAM PLACE","road_name":"BROMHAM","road_type":"PLACE","class_code":5,"direction_code":"F","left_locality":"RICHMOND","right_locality":"RICHMOND"}},{"type":"Feature","id":112039,"geometry":{"type":"LineString","coordinates":[[144.996332820769,-37.8213881517259],[144.99619500034,-37.8213726497427],[144.996157165995,-37.8213522678159],[144.996119991013,-37.8213272188226],[144.996086553922,-37.8212990532418],[144.996057250877,-37.8212681201951],[144.995864431993,-37.821036800315],[144.995679351197,-37.8209920759563]]},"properties":{"OBJECTID":112039,"ufi":35117800,"pfi":6273539,"ezi_road_name":"THE VAUCLUSE","road_name":"THE VAUCLUSE","road_type":null,"class_code":5,"direction_code":"B","left_locality":"RICHMOND","right_locality":"RICHMOND"}}]}