{"type":"FeatureCollection","crs":{"type":"name","properties":{"name":"EPSG:4326"}},"features":[{"type":"Feature","id":187948,"geometry":{"type":"LineString","coordinates":[[144.962564179058,-37.8237214717475],[144.962666587899,-37.8237928271091]]},"properties":{"OBJECTID":187948,"ufi":48859458,"pfi":17483937,"ezi_road_name":"POWER STREET","road_name":"POWER","road_type":"STREET","class_code":2,"direction_code":"F","left_locality":"SOUTHBANK","right_locality":"SOUTHBANK"}},{"type":"Feature","id":840613,"geometry":{"type":"LineString","coordinates":[[144.962550588446,-37.823847266038],[144.962666587899,-37.8237928271091]]},"properties":{"OBJECTID":840613,"ufi":63456810,"pfi":10128174,"ezi_road_name":"CITY ROAD","road_name":"CITY","road_type":"ROAD","class_code":2,"direction_code":"F","left_locality":"SOUTHBANK","right_locality":"SOUTHBANK"}},{"type":"Feature","id":840610,"geometry":{"type":"LineString","coordinates":[[144.962666587899,-37.8237928271091],[144.963360670305,-37.8231718103418],[144.963630811677,-37.8229394157258],[144.963851926594,-37.8227793928525],[144.963980462037,-37.8227063512346]]},"properties":{"OBJECTID":840610,"ufi":63456806,"pfi":17483934,"ezi_road_name":"CITY ROAD","road_name":"CITY","road_type":"ROAD","class_code":2,"direction_code":"F","left_locality":"SOUTHBANK","right_locality":"SOUTHBANK"}},{"type":"Feature","id":870921,"geometry":{"type":"LineString","coordinates":[[144.962666587899,-37.8237928271091],[144.96281950811,-37.8238919581546],[144.963201857146,-37.824167286229]]},"properties":{"OBJECTID":870921,"ufi":64819709,"pfi":5681007,"ezi_road_name":"POWER STREET","road_name":"POWER","road_type":"STREET","class_code":2,"direction_code":"F","left_locality":"SOUTHBANK","right_locality":"SOUTHBANK"}},{"type":"Feature","id":840612,"geometry":{"type":"LineString","coordinates":[[144.962550588446,-37.823847266038],[144.962564179058,-37.8237214717475]]},"properties":{"OBJECTID":840612,"ufi":63456809,"pfi":17483938,"ezi_road_name":"CITY ROAD","road_name":"CITY","road_type":"ROAD","class_code":2,"direction_code":"F","left_locality":"SOUTHBANK","right_locality":"SOUTHBANK"}},{"type":"Feature","id":840611,"geometry":{"type":"LineString","coordinates":[[144.962564179058,-37.8237214717475],[144.963259567615,-37.823099294206],[144.963534595822,-37.82286269434],[144.963766005432,-37.8226952227326],[144.963912661691,-37.8226118791903]]},"properties":{"OBJECTID":840611,"ufi":63456808,"pfi":17483936,"ezi_road_name":"CITY ROAD","road_name":"CITY","road_type":"ROAD","class_code":2,"direction_code":"F","left_locality":"SOUTHBANK","right_locality":"SOUTHBANK"}},{"type":"Feature","id":870161,"geometry":{"type":"LineString","coordinates":[[144.960836820277,-37.8231992677513],[144.961265236717,-37.8232392677753],[144.961617578429,-37.8233161101085],[144.961835109967,-37.8233788983501],[144.962011342358,-37.8234422939414],[144.96226001669,-37.8235574669773],[144.962512854713,-37.8236868307381],[144.962564179058,-37.8237214717475]]},"properties":{"OBJECTID":870161,"ufi":64819623,"pfi":17483935,"ezi_road_name":"POWER STREET","road_name":"POWER","road_type":"STREET","class_code":2,"direction_code":"F","left_locality":"SOUTHBANK","right_locality":"SOUTHBANK"}},{"type":"Feature","id":840601,"geometry":{"type":"LineString","coordinates":[[144.963111665393,-37.8242432306929],[144.963067461094,-37.824210312778],[144.962728603993,-37.8239603146749],[144.962550588446,-37.823847266038]]},"properties":{"OBJECTID":840601,"ufi":63456797,"pfi":10128188,"ezi_road_name":"POWER STREET","road_name":"POWER","road_type":"STREET","class_code":2,"direction_code":"F","left_locality":"SOUTHBANK","right_locality":"SOUTHBANK"}},{"type":"Feature","id":187829,"geometry":{"type":"LineString","coordinates":[[144.961048017793,-37.8251251721686],[144.962550588446,-37.823847266038]]},"properties":{"OBJECTID":187829,"ufi":48859491,"pfi":10128173,"ezi_road_name":"CITY ROAD","road_name":"CITY","road_type":"ROAD","class_code":2,"direction_code":"B","left_locality":"SOUTHBANK","right_locality":"SOUTHBANK"}},{"type":"Feature","id":187830,"geometry":{"type":"LineString","coordinates":[[144.962550588446,-37.823847266038],[144.962474088815,-37.8237986783025],[144.962113016376,-37.8236186066562],[144.961796178779,-37.8234792028917],[144.961606864223,-37.8234326507079],[144.961444803654,-37.8233982621746],[144.96098767526,-37.8233522527713],[144.960790470801,-37.8233415479884]]},"properties":{"OBJECTID":187830,"ufi":48859492,"pfi":10128189,"ezi_road_name":"POWER STREET","road_name":"POWER","road_type":"STREET","class_code":2,"direction_code":"F","left_locality":"SOUTHBANK","right_locality":"SOUTHBANK"}},{"type":"Feature","id":1257870,"geometry":{"type":"LineString","coordinates":[[144.963111665393,-37.8242432306929],[144.963157755255,-37.8242047177741],[144.963201857146,-37.824167286229]]},"properties":{"OBJECTID":1257870,"ufi":61554118,"pfi":10128176,"ezi_road_name":"FAWKNER STREET","road_name":"FAWKNER","road_type":"STREET","class_code":6,"direction_code":"B","left_locality":"SOUTHBANK","right_locality":"SOUTHBANK"}},{"type":"Feature","id":74405,"geometry":{"type":"LineString","coordinates":[[144.963201857146,-37.824167286229],[144.964358726433,-37.8231852917573],[144.964495112253,-37.8230114310501]]},"properties":{"OBJECTID":74405,"ufi":15424319,"pfi":5681006,"ezi_road_name":"FAWKNER STREET","road_name":"FAWKNER","road_type":"STREET","class_code":5,"direction_code":"F","left_locality":"SOUTHBANK","right_locality":"SOUTHBANK"}},{"type":"Feature","id":840928,"geometry":{"type":"LineString","coordinates":[[144.963201857146,-37.824167286229],[144.963755508618,-37.8245659668284]]},"properties":{"OBJECTID":840928,"ufi":63456836,"pfi":5681192,"ezi_road_name":"POWER STREET","road_name":"POWER","road_type":"STREET","class_code":2,"direction_code":"F","left_locality":"SOUTHBANK","right_locality":"SOUTHBANK"}},{"type":"Feature","id":818097,"geometry":{"type":"LineString","coordinates":[[144.962754328149,-37.8245433343103],[144.963111665393,-37.8242432306929]]},"properties":{"OBJECTID":818097,"ufi":62821417,"pfi":10128175,"ezi_road_name":"UNNAMED","road_name":"UNNAMED","road_type":null,"class_code":6,"direction_code":"B","left_locality":"SOUTHBANK","right_locality":"SOUTHBANK"}},{"type":"Feature","id":840941,"geometry":{"type":"LineString","coordinates":[[144.963657668609,-37.8246498843361],[144.963111665393,-37.8242432306929]]},"properties":{"OBJECTID":840941,"ufi":63456853,"pfi":10128187,"ezi_road_name":"POWER STREET","road_name":"POWER","road_type":"STREET","class_code":2,"direction_code":"F","left_locality":"SOUTHBANK","right_locality":"SOUTHBANK"}},{"type":"Feature","id":872334,"geometry":{"type":"LineString","coordinates":[[144.963657668609,-37.8246498843361],[144.963755508618,-37.8245659668284]]},"properties":{"OBJECTID":872334,"ufi":64819848,"pfi":10128178,"ezi_road_name":"KAVANAGH STREET","road_name":"KAVANAGH","road_type":"STREET","class_code":4,"direction_code":"B","left_locality":"SOUTHBANK","right_locality":"SOUTHBANK"}},{"type":"Feature","id":319992,"geometry":{"type":"LineString","coordinates":[[144.963755508618,-37.8245659668284],[144.96483529437,-37.8236398706761],[144.96497397269,-37.8235163388899],[144.965092376933,-37.8233677543388],[144.965131854296,-37.8233051818012],[144.965186947972,-37.8232218368189]]},"properties":{"OBJECTID":319992,"ufi":15424332,"pfi":11633618,"ezi_road_name":"KAVANAGH STREET","road_name":"KAVANAGH","road_type":"STREET","class_code":4,"direction_code":"B","left_locality":"SOUTHBANK","right_locality":"SOUTHBANK"}},{"type":"Feature","id":870922,"geometry":{"type":"LineString","coordinates":[[144.964441799936,-37.8250721831189],[144.964068190609,-37.8247911222566],[144.963755508618,-37.8245659668284]]},"properties":{"OBJECTID":870922,"ufi":64819710,"pfi":5681511,"ezi_road_name":"POWER STREET","road_name":"POWER","road_type":"STREET","class_code":2,"direction_code":"F","left_locality":"SOUTHBANK","right_locality":"SOUTHBANK"}},{"type":"Feature","id":410006,"geometry":{"type":"LineString","coordinates":[[144.9633678182,-37.8248984723184],[144.963657668609,-37.8246498843361]]},"properties":{"OBJECTID":410006,"ufi":59597283,"pfi":21007682,"ezi_road_name":"KAVANAGH STREET","road_name":"KAVANAGH","road_type":"STREET","class_code":5,"direction_code":"B","left_locality":"SOUTHBANK","right_locality":"SOUTHBANK"}},{"type":"Feature","id":840932,"geometry":{"type":"LineString","coordinates":[[144.964621433348,-37.8253574747541],[144.963785388381,-37.8247449959329],[144.963657668609,-37.8246498843361]]},"properties":{"OBJECTID":840932,"ufi":63456840,"pfi":10128186,"ezi_road_name":"POWER STREET","road_name":"POWER","road_type":"STREET","class_code":2,"direction_code":"F","left_locality":"SOUTHBANK","right_locality":"SOUTHBANK"}},{"type":"Feature","id":410005,"geometry":{"type":"LineString","coordinates":[[144.96215431193,-37.8259392011789],[144.9633678182,-37.8248984723184]]},"properties":{"OBJECTID":410005,"ufi":59597282,"pfi":21007681,"ezi_road_name":"KAVANAGH STREET","road_name":"KAVANAGH","road_type":"STREET","class_code":5,"direction_code":"B","left_locality":"SOUTHBANK","right_locality":"SOUTHBANK"}},{"type":"Feature","id":410724,"geometry":{"type":"LineString","coordinates":[[144.9633678182,-37.8248984723184],[144.964228645889,-37.8260395512002]]},"properties":{"OBJECTID":410724,"ufi":59597385,"pfi":21007716,"ezi_road_name":"HOFF BOULEVARD","road_name":"HOFF","road_type":"BOULEVARD","class_code":5,"direction_code":"B","left_locality":"SOUTHBANK","right_locality":"SOUTHBANK"}},{"type":"Feature","id":818095,"geometry":{"type":"LineString","coordinates":[[144.963035444239,-37.8224874721756],[144.9634877379,-37.8220947650806]]},"properties":{"OBJECTID":818095,"ufi":62821414,"pfi":13662324,"ezi_road_name":"WATERFALL LANE","road_name":"WATERFALL","road_type":"LANE","class_code":5,"direction_code":"B","left_locality":"SOUTHBANK","right_locality":"SOUTHBANK"}},{"type":"Feature","id":187945,"geometry":{"type":"LineString","coordinates":[[144.964495112253,-37.8230114310501],[144.964247001165,-37.8228766569129],[144.963980462037,-37.8227063512346]]},"properties":{"OBJECTID":187945,"ufi":48859451,"pfi":11633714,"ezi_road_name":"SOUTHBANK BOULEVARD","road_name":"SOUTHBANK","road_type":"BOULEVARD","class_code":3,"direction_code":"F","left_locality":"SOUTHBANK","right_locality":"SOUTHBANK"}},{"type":"Feature","id":187946,"geometry":{"type":"LineString","coordinates":[[144.963980462037,-37.8227063512346],[144.963912661691,-37.8226118791903]]},"properties":{"OBJECTID":187946,"ufi":48859452,"pfi":17483932,"ezi_road_name":"SOUTHBANK BOULEVARD","road_name":"SOUTHBANK","road_type":"BOULEVARD","class_code":3,"direction_code":"F","left_locality":"SOUTHBANK","right_locality":"SOUTHBANK"}},{"type":"Feature","id":840609,"geometry":{"type":"LineString","coordinates":[[144.963980462037,-37.8227063512346],[144.964193015111,-37.8225855640041],[144.964196718865,-37.8225840327062]]},"properties":{"OBJECTID":840609,"ufi":63456805,"pfi":17483930,"ezi_road_name":"CITY ROAD","road_name":"CITY","road_type":"ROAD","class_code":2,"direction_code":"F","left_locality":"SOUTHBANK","right_locality":"SOUTHBANK"}},{"type":"Feature","id":1128251,"geometry":{"type":"LineString","coordinates":[[144.960790470801,-37.8233415479884],[144.960781564005,-37.8233681070019],[144.960226931572,-37.8250685629063],[144.96017593062,-37.8252191301083]]},"properties":{"OBJECTID":1128251,"ufi":73135010,"pfi":10128130,"ezi_road_name":"QUEENS BRIDGE STREET","road_name":"QUEENS BRIDGE","road_type":"STREET","class_code":3,"direction_code":"B","left_locality":"SOUTHBANK","right_locality":"SOUTHBANK"}},{"type":"Feature","id":870909,"geometry":{"type":"LineString","coordinates":[[144.960790470801,-37.8233415479884],[144.960552048043,-37.8233286037566],[144.960119288248,-37.8233177300892],[144.959988830411,-37.8233261202123],[144.959895542166,-37.8233456131948],[144.959760461598,-37.8233929608767]]},"properties":{"OBJECTID":870909,"ufi":64819696,"pfi":10128165,"ezi_road_name":"WHITEMAN STREET","road_name":"WHITEMAN","road_type":"STREET","class_code":5,"direction_code":"F","left_locality":"SOUTHBANK","right_locality":"SOUTHBANK"}},{"type":"Feature","id":1127896,"geometry":{"type":"LineString","coordinates":[[144.960836820277,-37.8231992677513],[144.960790470801,-37.8233415479884]]},"properties":{"OBJECTID":1127896,"ufi":73134996,"pfi":10128129,"ezi_road_name":"QUEENS BRIDGE STREET","road_name":"QUEENS BRIDGE","road_type":"STREET","class_code":3,"direction_code":"B","left_locality":"SOUTHBANK","right_locality":"SOUTHBANK"}},{"type":"Feature","id":468901,"geometry":{"type":"LineString","coordinates":[[144.961336645596,-37.8217143099728],[144.961302018236,-37.8218185543395],[144.961276429725,-37.8218793626575],[144.961205331664,-37.8220888229239],[144.960836820277,-37.8231992677513]]},"properties":{"OBJECTID":468901,"ufi":39399566,"pfi":11832341,"ezi_road_name":"QUEENS BRIDGE STREET","road_name":"QUEENS BRIDGE","road_type":"STREET","class_code":3,"direction_code":"B","left_locality":"SOUTHBANK","right_locality":"SOUTHBANK"}},{"type":"Feature","id":870910,"geometry":{"type":"LineString","coordinates":[[144.959762267212,-37.8232448280827],[144.9598181541,-37.8232188700435],[144.959964417795,-37.8231793106611],[144.960132897725,-37.8231639687109],[144.960718241761,-37.8231882010576],[144.960836820277,-37.8231992677513]]},"properties":{"OBJECTID":870910,"ufi":64819697,"pfi":10128166,"ezi_road_name":"WHITEMAN STREET","road_name":"WHITEMAN","road_type":"STREET","class_code":5,"direction_code":"F","left_locality":"SOUTHBANK","right_locality":"SOUTHBANK"}},{"type":"Feature","id":321579,"geometry":{"type":"LineString","coordinates":[[144.963912661691,-37.8226118791903],[144.963650693191,-37.8222467766977]]},"properties":{"OBJECTID":321579,"ufi":48859450,"pfi":17483931,"ezi_road_name":"SOUTHBANK BOULEVARD","road_name":"SOUTHBANK","road_type":"BOULEVARD","class_code":3,"direction_code":"F","left_locality":"SOUTHBANK","right_locality":"SOUTHBANK"}},{"type":"Feature","id":840940,"geometry":{"type":"LineString","coordinates":[[144.963912661691,-37.8226118791903],[144.964084619897,-37.8225141542558]]},"properties":{"OBJECTID":840940,"ufi":63456852,"pfi":17483929,"ezi_road_name":"CITY ROAD","road_name":"CITY","road_type":"ROAD","class_code":2,"direction_code":"F","left_locality":"SOUTHBANK","right_locality":"SOUTHBANK"}},{"type":"Feature","id":125637,"geometry":{"type":"LineString","coordinates":[[144.961940019717,-37.8222954243512],[144.962812821051,-37.8217400946893],[144.963002762631,-37.8216568742484]]},"properties":{"OBJECTID":125637,"ufi":39399574,"pfi":11628449,"ezi_road_name":"FRESHWATER PLACE","road_name":"FRESHWATER","road_type":"PLACE","class_code":5,"direction_code":"B","left_locality":"SOUTHBANK","right_locality":"SOUTHBANK"}},{"type":"Feature","id":74752,"geometry":{"type":"LineString","coordinates":[[144.965186947972,-37.8232218368189],[144.964939615724,-37.823168236159],[144.964737491191,-37.8231134227774],[144.964495112253,-37.8230114310501]]},"properties":{"OBJECTID":74752,"ufi":15424561,"pfi":11633713,"ezi_road_name":"SOUTHBANK BOULEVARD","road_name":"SOUTHBANK","road_type":"BOULEVARD","class_code":3,"direction_code":"F","left_locality":"SOUTHBANK","right_locality":"SOUTHBANK"}},{"type":"Feature","id":187943,"geometry":{"type":"LineString","coordinates":[[144.963650693191,-37.8222467766977],[144.964084619897,-37.8225141542558]]},"properties":{"OBJECTID":187943,"ufi":48859445,"pfi":17483927,"ezi_road_name":"SOUTHBANK BOULEVARD","road_name":"SOUTHBANK","road_type":"BOULEVARD","class_code":3,"direction_code":"F","left_locality":"SOUTHBANK","right_locality":"SOUTHBANK"}},{"type":"Feature","id":187947,"geometry":{"type":"LineString","coordinates":[[144.964084619897,-37.8225141542558],[144.964150140319,-37.822554530025],[144.964196718865,-37.8225840327062]]},"properties":{"OBJECTID":187947,"ufi":48859453,"pfi":17483933,"ezi_road_name":"SOUTHBANK BOULEVARD","road_name":"SOUTHBANK","road_type":"BOULEVARD","class_code":3,"direction_code":"F","left_locality":"SOUTHBANK","right_locality":"SOUTHBANK"}},{"type":"Feature","id":840607,"geometry":{"type":"LineString","coordinates":[[144.964084619897,-37.8225141542558],[144.964121466095,-37.8224932170336],[144.964584211654,-37.8223018830757],[144.965798657562,-37.821765716189]]},"properties":{"OBJECTID":840607,"ufi":63456803,"pfi":17483926,"ezi_road_name":"CITY ROAD","road_name":"CITY","road_type":"ROAD","class_code":2,"direction_code":"F","left_locality":"SOUTHBANK","right_locality":"SOUTHBANK"}},{"type":"Feature","id":187944,"geometry":{"type":"LineString","coordinates":[[144.964196718865,-37.8225840327062],[144.964337999605,-37.8226735177851],[144.964481943849,-37.8227525150215],[144.964727191108,-37.8228667978906],[144.964966941576,-37.8229524551106]]},"properties":{"OBJECTID":187944,"ufi":48859447,"pfi":5680437,"ezi_road_name":"SOUTHBANK BOULEVARD","road_name":"SOUTHBANK","road_type":"BOULEVARD","class_code":3,"direction_code":"F","left_locality":"SOUTHBANK","right_locality":"SOUTHBANK"}},{"type":"Feature","id":840608,"geometry":{"type":"LineString","coordinates":[[144.964196718865,-37.8225840327062],[144.9646488661,-37.8223970743345],[144.965843193339,-37.8218697852123]]},"properties":{"OBJECTID":840608,"ufi":63456804,"pfi":17483928,"ezi_road_name":"CITY ROAD","road_name":"CITY","road_type":"ROAD","class_code":2,"direction_code":"F","left_locality":"SOUTHBANK","right_locality":"SOUTHBANK"}},{"type":"Feature","id":108518,"geometry":{"type":"LineString","coordinates":[[144.963650693191,-37.8222467766977],[144.9634877379,-37.8220947650806]]},"properties":{"OBJECTID":108518,"ufi":23024748,"pfi":13662322,"ezi_road_name":"SOUTHBANK BOULEVARD","road_name":"SOUTHBANK","road_type":"BOULEVARD","class_code":3,"direction_code":"B","left_locality":"SOUTHBANK","right_locality":"SOUTHBANK"}},{"type":"Feature","id":125638,"geometry":{"type":"LineString","coordinates":[[144.9634877379,-37.8220947650806],[144.963002762631,-37.8216568742484]]},"properties":{"OBJECTID":125638,"ufi":39399575,"pfi":13662323,"ezi_road_name":"SOUTHBANK BOULEVARD","road_name":"SOUTHBANK","road_type":"BOULEVARD","class_code":3,"direction_code":"B","left_locality":"SOUTHBANK","right_locality":"SOUTHBANK"}},{"type":"Feature","id":410004,"geometry":{"type":"LineString","coordinates":[[144.961048017793,-37.8251251721686],[144.96215431193,-37.8259392011789]]},"properties":{"OBJECTID":410004,"ufi":59597281,"pfi":5681860,"ezi_road_name":"BALSTON STREET","road_name":"BALSTON","road_type":"STREET","class_code":5,"direction_code":"B","left_locality":"SOUTHBANK","right_locality":"SOUTHBANK"}},{"type":"Feature","id":136703,"geometry":{"type":"LineString","coordinates":[[144.961048017793,-37.8251251721686],[144.960805771805,-37.8253311598373],[144.960423757841,-37.8256575298477]]},"properties":{"OBJECTID":136703,"ufi":43912734,"pfi":5681662,"ezi_road_name":"CITY ROAD","road_name":"CITY","road_type":"ROAD","class_code":2,"direction_code":"B","left_locality":"SOUTHBANK","right_locality":"SOUTHBANK"}},{"type":"Feature","id":840929,"geometry":{"type":"LineString","coordinates":[[144.964441799936,-37.8250721831189],[144.964972416808,-37.8254994499757],[144.965230712995,-37.825761039926]]},"properties":{"OBJECTID":840929,"ufi":63456837,"pfi":5681746,"ezi_road_name":"POWER STREET","road_name":"POWER","road_type":"STREET","class_code":2,"direction_code":"F","left_locality":"SOUTHBANK","right_locality":"SOUTHBANK"}},{"type":"Feature","id":873119,"geometry":{"type":"LineString","coordinates":[[144.964441799936,-37.8250721831189],[144.964757699692,-37.8252496300831],[144.965285589279,-37.8256374300908],[144.965449517445,-37.8257727618678],[144.965655452631,-37.8259060789578],[144.96575924308,-37.8259514559711],[144.965863852794,-37.8259910493456],[144.966009717636,-37.8260350682125],[144.966136837334,-37.8260610621581],[144.966260768012,-37.8260795936773],[144.966385473936,-37.8260927659042]]},"properties":{"OBJECTID":873119,"ufi":64819935,"pfi":14310746,"ezi_road_name":"POWER-CITYLINK IN RAMP ON","road_name":"POWER-CITYLINK IN","road_type":"RAMP","class_code":0,"direction_code":"F","left_locality":"SOUTHBANK","right_locality":"SOUTHBANK"}},{"type":"Feature","id":230358,"geometry":{"type":"LineString","coordinates":[[144.966986984054,-37.8219871448417],[144.965187981933,-37.8228018357417],[144.964966941576,-37.8229524551106]]},"properties":{"OBJECTID":230358,"ufi":50724062,"pfi":5680436,"ezi_road_name":"FAWKNER STREET","road_name":"FAWKNER","road_type":"STREET","class_code":5,"direction_code":"B","left_locality":"SOUTHBANK","right_locality":"SOUTHBANK"}},{"type":"Feature","id":345331,"geometry":{"type":"LineString","coordinates":[[144.964966941576,-37.8229524551106],[144.965137657413,-37.8230124116995],[144.965274665765,-37.8230346608006]]},"properties":{"OBJECTID":345331,"ufi":15424327,"pfi":5680506,"ezi_road_name":"SOUTHBANK BOULEVARD","road_name":"SOUTHBANK","road_type":"BOULEVARD","class_code":3,"direction_code":"F","left_locality":"SOUTHBANK","right_locality":"SOUTHBANK"}},{"type":"Feature","id":74751,"geometry":{"type":"LineString","coordinates":[[144.966039925284,-37.8233776388392],[144.965186947972,-37.8232218368189]]},"properties":{"OBJECTID":74751,"ufi":15424560,"pfi":11633712,"ezi_road_name":"SOUTHBANK BOULEVARD","road_name":"SOUTHBANK","road_type":"BOULEVARD","class_code":3,"direction_code":"F","left_locality":"SOUTHBANK","right_locality":"SOUTHBANK"}},{"type":"Feature","id":230361,"geometry":{"type":"LineString","coordinates":[[144.965186947972,-37.8232218368189],[144.965274665765,-37.8230346608006]]},"properties":{"OBJECTID":230361,"ufi":50724066,"pfi":11633612,"ezi_road_name":"KAVANAGH STREET","road_name":"KAVANAGH","road_type":"STREET","class_code":4,"direction_code":"B","left_locality":"SOUTHBANK","right_locality":"SOUTHBANK"}},{"type":"Feature","id":125813,"geometry":{"type":"LineString","coordinates":[[144.963002762631,-37.8216568742484],[144.963835138878,-37.8214274076489]]},"properties":{"OBJECTID":125813,"ufi":39399573,"pfi":5679813,"ezi_road_name":"RIVERSIDE QUAY","road_name":"RIVERSIDE","road_type":"QUAY","class_code":5,"direction_code":"B","left_locality":"SOUTHBANK","right_locality":"SOUTHBANK"}},{"type":"Feature","id":818090,"geometry":{"type":"LineString","coordinates":[[144.962612978239,-37.8213330503425],[144.963002762631,-37.8216568742484]]},"properties":{"OBJECTID":818090,"ufi":62821409,"pfi":11667188,"ezi_road_name":"SOUTHBANK BOULEVARD","road_name":"SOUTHBANK","road_type":"BOULEVARD","class_code":3,"direction_code":"B","left_locality":"SOUTHBANK","right_locality":"SOUTHBANK"}},{"type":"Feature","id":1127893,"geometry":{"type":"LineString","coordinates":[[144.961434852117,-37.8265593729969],[144.96215431193,-37.8259392011789]]},"properties":{"OBJECTID":1127893,"ufi":73134992,"pfi":16231720,"ezi_road_name":"KAVANAGH STREET","road_name":"KAVANAGH","road_type":"STREET","class_code":5,"direction_code":"B","left_locality":"SOUTHBANK","right_locality":"SOUTHBANK"}},{"type":"Feature","id":1127894,"geometry":{"type":"LineString","coordinates":[[144.96215431193,-37.8259392011789],[144.962600821339,-37.826269251095]]},"properties":{"OBJECTID":1127894,"ufi":73134993,"pfi":21007679,"ezi_road_name":"BALSTON STREET","road_name":"BALSTON","road_type":"STREET","class_code":5,"direction_code":"B","left_locality":"SOUTHBANK","right_locality":"SOUTHBANK"}},{"type":"Feature","id":143597,"geometry":{"type":"LineString","coordinates":[[144.965274665765,-37.8230346608006],[144.966101329625,-37.8231747146755]]},"properties":{"OBJECTID":143597,"ufi":15424329,"pfi":5680548,"ezi_road_name":"SOUTHBANK BOULEVARD","road_name":"SOUTHBANK","road_type":"BOULEVARD","class_code":3,"direction_code":"F","left_locality":"SOUTHBANK","right_locality":"SOUTHBANK"}},{"type":"Feature","id":143590,"geometry":{"type":"LineString","coordinates":[[144.96511923656,-37.8257822621739],[144.965104410764,-37.8257633282592],[144.964926079909,-37.8255806431213],[144.964621433348,-37.8253574747541]]},"properties":{"OBJECTID":143590,"ufi":15363728,"pfi":10128192,"ezi_road_name":"POWER STREET","road_name":"POWER","road_type":"STREET","class_code":2,"direction_code":"F","left_locality":"SOUTHBANK","right_locality":"SOUTHBANK"}},{"type":"Feature","id":186387,"geometry":{"type":"LineString","coordinates":[[144.964807232797,-37.8256244060811],[144.964770024578,-37.8255423678944],[144.964704610157,-37.8254421129881],[144.964621433348,-37.8253574747541]]},"properties":{"OBJECTID":186387,"ufi":47126663,"pfi":10128179,"ezi_road_name":"WEST GATE IN-POWER RAMP OF","road_name":"WEST GATE IN-POWER","road_type":"RAMP","class_code":0,"direction_code":"F","left_locality":"SOUTHBANK","right_locality":"SOUTHBANK"}},{"type":"Feature","id":410723,"geometry":{"type":"LineString","coordinates":[[144.962600821339,-37.826269251095],[144.962894354841,-37.826030793125],[144.963178730019,-37.8261005100144],[144.963382278381,-37.8263261737692],[144.963080068949,-37.8266275290814]]},"properties":{"OBJECTID":410723,"ufi":59597384,"pfi":21007715,"ezi_road_name":"BALE CIRCUIT","road_name":"BALE","road_type":"CIRCUIT","class_code":5,"direction_code":"B","left_locality":"SOUTHBANK","right_locality":"SOUTHBANK"}},{"type":"Feature","id":818094,"geometry":{"type":"LineString","coordinates":[[144.963835138878,-37.8214274076489],[144.964508168367,-37.8220820342185]]},"properties":{"OBJECTID":818094,"ufi":62821413,"pfi":5680014,"ezi_road_name":"COOK STREET","road_name":"COOK","road_type":"STREET","class_code":5,"direction_code":"B","left_locality":"SOUTHBANK","right_locality":"SOUTHBANK"}},{"type":"Feature","id":136611,"geometry":{"type":"LineString","coordinates":[[144.959760461598,-37.8233929608767],[144.959686984798,-37.8234313642337],[144.959475560007,-37.8235675061412],[144.959247441824,-37.8237592419882],[144.958812827008,-37.8241266026764]]},"properties":{"OBJECTID":136611,"ufi":43912761,"pfi":10128164,"ezi_road_name":"WHITEMAN STREET","road_name":"WHITEMAN","road_type":"STREET","class_code":5,"direction_code":"F","left_locality":"SOUTHBANK","right_locality":"SOUTHBANK"}},{"type":"Feature","id":318273,"geometry":{"type":"LineString","coordinates":[[144.959762267212,-37.8232448280827],[144.959760461598,-37.8233929608767]]},"properties":{"OBJECTID":318273,"ufi":12577661,"pfi":10128168,"ezi_road_name":"WHITEMAN STREET","road_name":"WHITEMAN","road_type":"STREET","class_code":5,"direction_code":"B","left_locality":"SOUTHBANK","right_locality":"SOUTHBANK"}},{"type":"Feature","id":368620,"geometry":{"type":"LineString","coordinates":[[144.961398329313,-37.8209685077901],[144.96139898688,-37.8209919162948],[144.96141008826,-37.8214964810207],[144.961404389348,-37.8215347711187],[144.961401531807,-37.821568558069],[144.961336645596,-37.8217143099728]]},"properties":{"OBJECTID":368620,"ufi":58129698,"pfi":11832343,"ezi_road_name":"QUEENS BRIDGE STREET","road_name":"QUEENS BRIDGE","road_type":"STREET","class_code":3,"direction_code":"B","left_locality":"SOUTHBANK","right_locality":"SOUTHBANK"}},{"type":"Feature","id":475840,"geometry":{"type":"LineString","coordinates":[[144.961336645596,-37.8217143099728],[144.961614893365,-37.8215586342982],[144.962172232422,-37.8212548222168]]},"properties":{"OBJECTID":475840,"ufi":60852308,"pfi":11832342,"ezi_road_name":"QUEENSBRIDGE SQUARE","road_name":"QUEENSBRIDGE","road_type":"SQUARE","class_code":5,"direction_code":"B","left_locality":"SOUTHBANK","right_locality":"SOUTHBANK"}},{"type":"Feature","id":320873,"geometry":{"type":"LineString","coordinates":[[144.958728276675,-37.8240127418279],[144.958995812933,-37.8237774469692],[144.959201147146,-37.8236061740812],[144.959268283637,-37.8235509920422],[144.959499508194,-37.8233926387258],[144.959669171206,-37.8232880531435],[144.959762267212,-37.8232448280827]]},"properties":{"OBJECTID":320873,"ufi":43912754,"pfi":10128167,"ezi_road_name":"WHITEMAN STREET","road_name":"WHITEMAN","road_type":"STREET","class_code":5,"direction_code":"F","left_locality":"SOUTHBANK","right_locality":"SOUTHBANK"}},{"type":"Feature","id":1127891,"geometry":{"type":"LineString","coordinates":[[144.96017593062,-37.8252191301083],[144.960066284952,-37.8252359872637],[144.959976165962,-37.8252087378052]]},"properties":{"OBJECTID":1127891,"ufi":73134986,"pfi":5681648,"ezi_road_name":"WALKER STREET","road_name":"WALKER","road_type":"STREET","class_code":5,"direction_code":"B","left_locality":"SOUTHBANK","right_locality":"SOUTHBANK"}},{"type":"Feature","id":1128252,"geometry":{"type":"LineString","coordinates":[[144.96017593062,-37.8252191301083],[144.96014873143,-37.8253171856661]]},"properties":{"OBJECTID":1128252,"ufi":73135011,"pfi":16231712,"ezi_road_name":"QUEENS BRIDGE STREET","road_name":"QUEENS BRIDGE","road_type":"STREET","class_code":3,"direction_code":"B","left_locality":"SOUTHBANK","right_locality":"SOUTHBANK"}},{"type":"Feature","id":1128257,"geometry":{"type":"LineString","coordinates":[[144.959976165962,-37.8252087378052],[144.959356350874,-37.8246642708945],[144.959322765561,-37.8245743937073],[144.959364214726,-37.8244462590642],[144.959529868556,-37.8239644422901]]},"properties":{"OBJECTID":1128257,"ufi":73135016,"pfi":24041439,"ezi_road_name":"WALKER STREET","road_name":"WALKER","road_type":"STREET","class_code":5,"direction_code":"B","left_locality":"SOUTHBANK","right_locality":"SOUTHBANK"}},{"type":"Feature","id":1127895,"geometry":{"type":"LineString","coordinates":[[144.962600821339,-37.826269251095],[144.963080068949,-37.8266275290814]]},"properties":{"OBJECTID":1127895,"ufi":73134994,"pfi":21007680,"ezi_road_name":"BALSTON STREET","road_name":"BALSTON","road_type":"STREET","class_code":5,"direction_code":"B","left_locality":"SOUTHBANK","right_locality":"SOUTHBANK"}},{"type":"Feature","id":136578,"geometry":{"type":"LineString","coordinates":[[144.96014873143,-37.8253171856661],[144.96023690916,-37.8254490312345],[144.960423757841,-37.8256575298477]]},"properties":{"OBJECTID":136578,"ufi":43912798,"pfi":16231718,"ezi_road_name":"QUEENS BRIDGE STREET","road_name":"QUEENS BRIDGE","road_type":"STREET","class_code":3,"direction_code":"F","left_locality":"SOUTHBANK","right_locality":"SOUTHBANK"}},{"type":"Feature","id":152559,"geometry":{"type":"LineString","coordinates":[[144.96011246734,-37.8254356098358],[144.96014873143,-37.8253171856661]]},"properties":{"OBJECTID":152559,"ufi":45114534,"pfi":16231717,"ezi_road_name":"QUEENS BRIDGE STREET","road_name":"QUEENS BRIDGE","road_type":"STREET","class_code":3,"direction_code":"F","left_locality":"SOUTHBANK","right_locality":"SOUTHBANK"}},{"type":"Feature","id":186233,"geometry":{"type":"LineString","coordinates":[[144.964730699928,-37.8263187929749],[144.964776749366,-37.8262489968214],[144.964785035426,-37.8262365391455],[144.96482108931,-37.8261650641028],[144.964846522412,-37.8260663760365],[144.964860100448,-37.8259855062744],[144.964863808693,-37.8258503927224],[144.964854934237,-37.8257601203353],[144.964823583932,-37.8256604511132],[144.964807232797,-37.8256244060811]]},"properties":{"OBJECTID":186233,"ufi":47121774,"pfi":10128181,"ezi_road_name":"WEST GATE IN-POWER RAMP OF","road_name":"WEST GATE IN-POWER","road_type":"RAMP","class_code":0,"direction_code":"F","left_locality":"SOUTHBANK","right_locality":"SOUTHBANK"}},{"type":"Feature","id":74408,"geometry":{"type":"LineString","coordinates":[[144.966039925284,-37.8233776388392],[144.96536556,-37.825606107184]]},"properties":{"OBJECTID":74408,"ufi":15424334,"pfi":11633620,"ezi_road_name":"MOORE STREET","road_name":"MOORE","road_type":"STREET","class_code":5,"direction_code":"B","left_locality":"SOUTHBANK","right_locality":"SOUTHBANK"}},{"type":"Feature","id":1127516,"geometry":{"type":"LineString","coordinates":[[144.959976165962,-37.8252087378052],[144.959917637128,-37.8252657790853]]},"properties":{"OBJECTID":1127516,"ufi":73136514,"pfi":16231698,"ezi_road_name":"HAIG LANE","road_name":"HAIG","road_type":"LANE","class_code":5,"direction_code":"B","left_locality":"SOUTHBANK","right_locality":"SOUTHBANK"}},{"type":"Feature","id":230357,"geometry":{"type":"LineString","coordinates":[[144.963835138878,-37.8214274076489],[144.965471170437,-37.8210003740948]]},"properties":{"OBJECTID":230357,"ufi":50724061,"pfi":5679717,"ezi_road_name":"RIVERSIDE QUAY","road_name":"RIVERSIDE","road_type":"QUAY","class_code":5,"direction_code":"B","left_locality":"SOUTHBANK","right_locality":"SOUTHBANK"}},{"type":"Feature","id":152786,"geometry":{"type":"LineString","coordinates":[[144.960423757841,-37.8256575298477],[144.960332171903,-37.8257398701794]]},"properties":{"OBJECTID":152786,"ufi":45114491,"pfi":16231679,"ezi_road_name":"CITY ROAD","road_name":"CITY","road_type":"ROAD","class_code":2,"direction_code":"B","left_locality":"SOUTHBANK","right_locality":"SOUTHBANK"}},{"type":"Feature","id":320939,"geometry":{"type":"LineString","coordinates":[[144.960423757841,-37.8256575298477],[144.961057776192,-37.8262894202163]]},"properties":{"OBJECTID":320939,"ufi":47650372,"pfi":16231719,"ezi_road_name":"KINGS WAY","road_name":"KINGS","road_type":"WAY","class_code":5,"direction_code":"F","left_locality":"SOUTHBANK","right_locality":"SOUTHBANK"}},{"type":"Feature","id":1127515,"geometry":{"type":"LineString","coordinates":[[144.959917637128,-37.8252657790853],[144.960063106712,-37.8253812182003],[144.96011246734,-37.8254356098358]]},"properties":{"OBJECTID":1127515,"ufi":73136513,"pfi":16231700,"ezi_road_name":"KINGS WAY","road_name":"KINGS","road_type":"WAY","class_code":2,"direction_code":"F","left_locality":"SOUTHBANK","right_locality":"SOUTHBANK"}},{"type":"Feature","id":1127518,"geometry":{"type":"LineString","coordinates":[[144.96011246734,-37.8254356098358],[144.96019427332,-37.8255257548986],[144.960277003666,-37.8256914951392]]},"properties":{"OBJECTID":1127518,"ufi":73136516,"pfi":16231701,"ezi_road_name":"KINGS WAY","road_name":"KINGS","road_type":"WAY","class_code":2,"direction_code":"F","left_locality":"SOUTHBANK","right_locality":"SOUTHBANK"}},{"type":"Feature","id":1127521,"geometry":{"type":"LineString","coordinates":[[144.960080172906,-37.8255227711862],[144.96011246734,-37.8254356098358]]},"properties":{"OBJECTID":1127521,"ufi":73136519,"pfi":16231714,"ezi_road_name":"QUEENS BRIDGE STREET","road_name":"QUEENS BRIDGE","road_type":"STREET","class_code":3,"direction_code":"F","left_locality":"SOUTHBANK","right_locality":"SOUTHBANK"}},{"type":"Feature","id":1127514,"geometry":{"type":"LineString","coordinates":[[144.959917637128,-37.8252657790853],[144.959849115435,-37.8253166889707]]},"properties":{"OBJECTID":1127514,"ufi":73136512,"pfi":16231731,"ezi_road_name":"HAIG LANE","road_name":"HAIG","road_type":"LANE","class_code":5,"direction_code":"B","left_locality":"SOUTHBANK","right_locality":"SOUTHBANK"}},{"type":"Feature","id":1127517,"geometry":{"type":"LineString","coordinates":[[144.959485469323,-37.8248717343346],[144.959917637128,-37.8252657790853]]},"properties":{"OBJECTID":1127517,"ufi":73136515,"pfi":16231699,"ezi_road_name":"KINGS WAY","road_name":"KINGS","road_type":"WAY","class_code":2,"direction_code":"F","left_locality":"SOUTHBANK","right_locality":"SOUTHBANK"}},{"type":"Feature","id":1127520,"geometry":{"type":"LineString","coordinates":[[144.960080172906,-37.8255227711862],[144.960277003666,-37.8256914951392]]},"properties":{"OBJECTID":1127520,"ufi":73136518,"pfi":16231687,"ezi_road_name":"KINGS WAY","road_name":"KINGS","road_type":"WAY","class_code":2,"direction_code":"F","left_locality":"SOUTHBANK","right_locality":"SOUTHBANK"}},{"type":"Feature","id":1127522,"geometry":{"type":"LineString","coordinates":[[144.960003737953,-37.8256942333365],[144.960080172906,-37.8255227711862]]},"properties":{"OBJECTID":1127522,"ufi":73136520,"pfi":16231715,"ezi_road_name":"QUEENS BRIDGE STREET","road_name":"QUEENS BRIDGE","road_type":"STREET","class_code":3,"direction_code":"F","left_locality":"SOUTHBANK","right_locality":"SOUTHBANK"}},{"type":"Feature","id":1127523,"geometry":{"type":"LineString","coordinates":[[144.959849115435,-37.8253166889707],[144.960080172906,-37.8255227711862]]},"properties":{"OBJECTID":1127523,"ufi":73136521,"pfi":16231683,"ezi_road_name":"KINGS WAY","road_name":"KINGS","road_type":"WAY","class_code":2,"direction_code":"F","left_locality":"SOUTHBANK","right_locality":"SOUTHBANK"}},{"type":"Feature","id":1127519,"geometry":{"type":"LineString","coordinates":[[144.960277003666,-37.8256914951392],[144.960332171903,-37.8257398701794]]},"properties":{"OBJECTID":1127519,"ufi":73136517,"pfi":16231688,"ezi_road_name":"KINGS WAY","road_name":"KINGS","road_type":"WAY","class_code":2,"direction_code":"F","left_locality":"SOUTHBANK","right_locality":"SOUTHBANK"}},{"type":"Feature","id":152787,"geometry":{"type":"LineString","coordinates":[[144.960332171903,-37.8257398701794],[144.960817177714,-37.8262245958958],[144.961695969014,-37.8271116160506]]},"properties":{"OBJECTID":152787,"ufi":45114492,"pfi":16231680,"ezi_road_name":"KINGS WAY","road_name":"KINGS","road_type":"WAY","class_code":2,"direction_code":"F","left_locality":"SOUTHBANK","right_locality":"SOUTHBANK"}},{"type":"Feature","id":1127170,"geometry":{"type":"LineString","coordinates":[[144.960332171903,-37.8257398701794],[144.960184879637,-37.8258686007353]]},"properties":{"OBJECTID":1127170,"ufi":73136503,"pfi":16231707,"ezi_road_name":"CITY ROAD","road_name":"CITY","road_type":"ROAD","class_code":2,"direction_code":"B","left_locality":"SOUTHBANK","right_locality":"SOUTHBANK"}},{"type":"Feature","id":1127175,"geometry":{"type":"LineString","coordinates":[[144.959849115435,-37.8253166889707],[144.959729911692,-37.8254055058746]]},"properties":{"OBJECTID":1127175,"ufi":73136509,"pfi":16231682,"ezi_road_name":"HAIG LANE","road_name":"HAIG","road_type":"LANE","class_code":5,"direction_code":"B","left_locality":"SOUTHBANK","right_locality":"SOUTHBANK"}},{"type":"Feature","id":1127917,"geometry":{"type":"LineString","coordinates":[[144.958928300946,-37.8245208940794],[144.958943785207,-37.8245393422558],[144.959108979099,-37.8247032731774],[144.959323221006,-37.8248878607133],[144.959849115435,-37.8253166889707]]},"properties":{"OBJECTID":1127917,"ufi":73136551,"pfi":24041703,"ezi_road_name":"KINGS WAY","road_name":"KINGS","road_type":"WAY","class_code":2,"direction_code":"F","left_locality":"SOUTHBANK","right_locality":"SOUTHBANK"}},{"type":"Feature","id":1127176,"geometry":{"type":"LineString","coordinates":[[144.958928300946,-37.8245208940794],[144.958953362146,-37.8245153338681],[144.959004944308,-37.8245120357742],[144.95905653186,-37.8245197928227],[144.959133178815,-37.8245662662679],[144.959246689934,-37.8246677932061],[144.959485469323,-37.8248717343346]]},"properties":{"OBJECTID":1127176,"ufi":73136510,"pfi":16231697,"ezi_road_name":"UNNAMED","road_name":"UNNAMED","road_type":null,"class_code":5,"direction_code":"F","left_locality":"SOUTHBANK","right_locality":"SOUTHBANK"}},{"type":"Feature","id":1127177,"geometry":{"type":"LineString","coordinates":[[144.958903449952,-37.8242668027804],[144.959078869368,-37.8244479187562],[144.959485469323,-37.8248717343346]]},"properties":{"OBJECTID":1127177,"ufi":73136511,"pfi":16231702,"ezi_road_name":"KINGS WAY","road_name":"KINGS","road_type":"WAY","class_code":2,"direction_code":"F","left_locality":"SOUTHBANK","right_locality":"SOUTHBANK"}},{"type":"Feature","id":74750,"geometry":{"type":"LineString","coordinates":[[144.967318409393,-37.8236221297273],[144.966039925284,-37.8233776388392]]},"properties":{"OBJECTID":74750,"ufi":15424559,"pfi":11633711,"ezi_road_name":"SOUTHBANK BOULEVARD","road_name":"SOUTHBANK","road_type":"BOULEVARD","class_code":3,"direction_code":"F","left_locality":"SOUTHBANK","right_locality":"SOUTHBANK"}},{"type":"Feature","id":112440,"geometry":{"type":"LineString","coordinates":[[144.966101329625,-37.8231747146755],[144.966039925284,-37.8233776388392]]},"properties":{"OBJECTID":112440,"ufi":35117684,"pfi":11633619,"ezi_road_name":"MOORE STREET","road_name":"MOORE","road_type":"STREET","class_code":5,"direction_code":"B","left_locality":"SOUTHBANK","right_locality":"SOUTHBANK"}},{"type":"Feature","id":182879,"geometry":{"type":"LineString","coordinates":[[144.961057776192,-37.8262894202163],[144.961339012656,-37.8265197969568],[144.961434852117,-37.8265593729969]]},"properties":{"OBJECTID":182879,"ufi":47650634,"pfi":17225709,"ezi_road_name":"KINGS WAY","road_name":"KINGS","road_type":"WAY","class_code":5,"direction_code":"F","left_locality":"SOUTHBANK","right_locality":"SOUTHBANK"}},{"type":"Feature","id":186435,"geometry":{"type":"LineString","coordinates":[[144.961057776192,-37.8262894202163],[144.961209251013,-37.8265091962281],[144.961758026431,-37.8270636577049],[144.961907423449,-37.8271526612459]]},"properties":{"OBJECTID":186435,"ufi":47650373,"pfi":16231726,"ezi_road_name":"KINGS-CITYLINK IN RAMP ON","road_name":"KINGS-CITYLINK IN","road_type":"RAMP","class_code":0,"direction_code":"F","left_locality":"SOUTHBANK","right_locality":"SOUTHBANK"}},{"type":"Feature","id":840934,"geometry":{"type":"LineString","coordinates":[[144.965455685278,-37.8262450140834],[144.965409477736,-37.8261672168981],[144.965351207617,-37.8260873179214],[144.965245327686,-37.8259432797238],[144.96511923656,-37.8257822621739]]},"properties":{"OBJECTID":840934,"ufi":63456845,"pfi":10128193,"ezi_road_name":"POWER STREET","road_name":"POWER","road_type":"STREET","class_code":2,"direction_code":"F","left_locality":"SOUTHBANK","right_locality":"SOUTHBANK"}},{"type":"Feature","id":74409,"geometry":{"type":"LineString","coordinates":[[144.966765031907,-37.8227256982054],[144.966355996619,-37.8229324362195],[144.966213052199,-37.8230515532247],[144.966101329625,-37.8231747146755]]},"properties":{"OBJECTID":74409,"ufi":15424335,"pfi":5680547,"ezi_road_name":"KAVANAGH STREET","road_name":"KAVANAGH","road_type":"STREET","class_code":5,"direction_code":"B","left_locality":"SOUTHBANK","right_locality":"SOUTHBANK"}},{"type":"Feature","id":491360,"geometry":{"type":"LineString","coordinates":[[144.966101329625,-37.8231747146755],[144.967391938296,-37.8233757797301]]},"properties":{"OBJECTID":491360,"ufi":15424325,"pfi":5680705,"ezi_road_name":"SOUTHBANK BOULEVARD","road_name":"SOUTHBANK","road_type":"BOULEVARD","class_code":3,"direction_code":"F","left_locality":"SOUTHBANK","right_locality":"SOUTHBANK"}},{"type":"Feature","id":1127173,"geometry":{"type":"LineString","coordinates":[[144.960003737953,-37.8256942333365],[144.959729911692,-37.8254055058746]]},"properties":{"OBJECTID":1127173,"ufi":73136507,"pfi":5681597,"ezi_road_name":"KINGS WAY","road_name":"KINGS","road_type":"WAY","class_code":2,"direction_code":"F","left_locality":"SOUTHBANK","right_locality":"SOUTHBANK"}},{"type":"Feature","id":1127174,"geometry":{"type":"LineString","coordinates":[[144.959729911692,-37.8254055058746],[144.959675992114,-37.825447483676]]},"properties":{"OBJECTID":1127174,"ufi":73136508,"pfi":5681544,"ezi_road_name":"HAIG LANE","road_name":"HAIG","road_type":"LANE","class_code":5,"direction_code":"B","left_locality":"SOUTHBANK","right_locality":"SOUTHBANK"}},{"type":"Feature","id":1127524,"geometry":{"type":"LineString","coordinates":[[144.959729911692,-37.8254055058746],[144.958851511159,-37.8245706386516]]},"properties":{"OBJECTID":1127524,"ufi":73136523,"pfi":24041685,"ezi_road_name":"KINGS WAY","road_name":"KINGS","road_type":"WAY","class_code":2,"direction_code":"F","left_locality":"SOUTHBANK","right_locality":"SOUTHBANK"}},{"type":"Feature","id":1126804,"geometry":{"type":"LineString","coordinates":[[144.960184879637,-37.8258686007353],[144.960003737953,-37.8256942333365]]},"properties":{"OBJECTID":1126804,"ufi":73136505,"pfi":5681725,"ezi_road_name":"KINGS WAY","road_name":"KINGS","road_type":"WAY","class_code":2,"direction_code":"F","left_locality":"SOUTHBANK","right_locality":"SOUTHBANK"}},{"type":"Feature","id":1127172,"geometry":{"type":"LineString","coordinates":[[144.959980152686,-37.8257445192223],[144.960003737953,-37.8256942333365]]},"properties":{"OBJECTID":1127172,"ufi":73136506,"pfi":16231716,"ezi_road_name":"QUEENS BRIDGE STREET","road_name":"QUEENS BRIDGE","road_type":"STREET","class_code":3,"direction_code":"F","left_locality":"SOUTHBANK","right_locality":"SOUTHBANK"}},{"type":"Feature","id":1127169,"geometry":{"type":"LineString","coordinates":[[144.960722585115,-37.8263894483331],[144.960184879637,-37.8258686007353]]},"properties":{"OBJECTID":1127169,"ufi":73136502,"pfi":16231706,"ezi_road_name":"KINGS WAY","road_name":"KINGS","road_type":"WAY","class_code":2,"direction_code":"F","left_locality":"SOUTHBANK","right_locality":"SOUTHBANK"}},{"type":"Feature","id":1127171,"geometry":{"type":"LineString","coordinates":[[144.960144319804,-37.8259048336812],[144.960184879637,-37.8258686007353]]},"properties":{"OBJECTID":1127171,"ufi":73136504,"pfi":16231711,"ezi_road_name":"CITY ROAD","road_name":"CITY","road_type":"ROAD","class_code":2,"direction_code":"B","left_locality":"SOUTHBANK","right_locality":"SOUTHBANK"}},{"type":"Feature","id":840930,"geometry":{"type":"LineString","coordinates":[[144.965230712995,-37.825761039926],[144.965395748784,-37.8259589467838],[144.965493016566,-37.8261066760683],[144.965570906789,-37.8262296486456]]},"properties":{"OBJECTID":840930,"ufi":63456838,"pfi":10128198,"ezi_road_name":"POWER STREET","road_name":"POWER","road_type":"STREET","class_code":2,"direction_code":"F","left_locality":"SOUTHBANK","right_locality":"SOUTHBANK"}},{"type":"Feature","id":12950,"geometry":{"type":"LineString","coordinates":[[144.959980152686,-37.8257445192223],[144.959675992114,-37.825447483676]]},"properties":{"OBJECTID":12950,"ufi":73135002,"pfi":16231705,"ezi_road_name":"KINGS WAY","road_name":"KINGS","road_type":"WAY","class_code":2,"direction_code":"F","left_locality":"SOUTHBANK","right_locality":"SOUTHBANK"}},{"type":"Feature","id":1127897,"geometry":{"type":"LineString","coordinates":[[144.959675992114,-37.825447483676],[144.959514876572,-37.825296863013]]},"properties":{"OBJECTID":1127897,"ufi":73135000,"pfi":16231693,"ezi_road_name":"KINGS WAY","road_name":"KINGS","road_type":"WAY","class_code":2,"direction_code":"F","left_locality":"SOUTHBANK","right_locality":"SOUTHBANK"}},{"type":"Feature","id":1208885,"geometry":{"type":"LineString","coordinates":[[144.959675992114,-37.825447483676],[144.959349114945,-37.8256989689487],[144.958826361026,-37.8261357750107]]},"properties":{"OBJECTID":1208885,"ufi":76810019,"pfi":5682020,"ezi_road_name":"HAIG LANE","road_name":"HAIG","road_type":"LANE","class_code":5,"direction_code":"B","left_locality":"SOUTHBANK","right_locality":"SOUTHBANK"}},{"type":"Feature","id":482847,"geometry":{"type":"LineString","coordinates":[[144.959703494934,-37.8262702231864],[144.959980152686,-37.8257445192223]]},"properties":{"OBJECTID":482847,"ufi":45114530,"pfi":16231713,"ezi_road_name":"QUEENS BRIDGE STREET","road_name":"QUEENS BRIDGE","road_type":"STREET","class_code":3,"direction_code":"F","left_locality":"SOUTHBANK","right_locality":"SOUTHBANK"}},{"type":"Feature","id":1128249,"geometry":{"type":"LineString","coordinates":[[144.960144319804,-37.8259048336812],[144.959980152686,-37.8257445192223]]},"properties":{"OBJECTID":1128249,"ufi":73135004,"pfi":16231709,"ezi_road_name":"KINGS WAY","road_name":"KINGS","road_type":"WAY","class_code":2,"direction_code":"F","left_locality":"SOUTHBANK","right_locality":"SOUTHBANK"}},{"type":"Feature","id":136613,"geometry":{"type":"LineString","coordinates":[[144.959514876572,-37.825296863013],[144.959385184998,-37.8252243702523],[144.959169192275,-37.8250197063391],[144.959042227087,-37.8249042091835]]},"properties":{"OBJECTID":136613,"ufi":43912765,"pfi":16231689,"ezi_road_name":"UNNAMED","road_name":"UNNAMED","road_type":null,"class_code":5,"direction_code":"F","left_locality":"SOUTHBANK","right_locality":"SOUTHBANK"}},{"type":"Feature","id":1127909,"geometry":{"type":"LineString","coordinates":[[144.959514876572,-37.825296863013],[144.958896826674,-37.8247061923519]]},"properties":{"OBJECTID":1127909,"ufi":73136542,"pfi":24041694,"ezi_road_name":"KINGS WAY","road_name":"KINGS","road_type":"WAY","class_code":2,"direction_code":"F","left_locality":"SOUTHBANK","right_locality":"SOUTHBANK"}},{"type":"Feature","id":152708,"geometry":{"type":"LineString","coordinates":[[144.960075668753,-37.825962674096],[144.960144319804,-37.8259048336812]]},"properties":{"OBJECTID":152708,"ufi":45114528,"pfi":16231710,"ezi_road_name":"CITY ROAD","road_name":"CITY","road_type":"ROAD","class_code":2,"direction_code":"B","left_locality":"SOUTHBANK","right_locality":"SOUTHBANK"}},{"type":"Feature","id":1127168,"geometry":{"type":"LineString","coordinates":[[144.960722585115,-37.8263894483331],[144.960462951337,-37.8262342997863],[144.960144319804,-37.8259048336812]]},"properties":{"OBJECTID":1127168,"ufi":73136501,"pfi":16231708,"ezi_road_name":"KINGS WAY","road_name":"KINGS","road_type":"WAY","class_code":2,"direction_code":"F","left_locality":"SOUTHBANK","right_locality":"SOUTHBANK"}},{"type":"Feature","id":1127166,"geometry":{"type":"LineString","coordinates":[[144.958214926321,-37.8227444320856],[144.958427943825,-37.8226239337209],[144.958543132099,-37.822415681281],[144.961398329313,-37.8209685077901]]},"properties":{"OBJECTID":1127166,"ufi":73136499,"pfi":6306668,"ezi_road_name":"YARRA PROMENADE","road_name":"YARRA","road_type":"PROMENADE","class_code":9,"direction_code":"B","left_locality":"SOUTHBANK","right_locality":"SOUTHBANK"}},{"type":"Feature","id":152565,"geometry":{"type":"LineString","coordinates":[[144.963377396935,-37.8267639318839],[144.963512869169,-37.8267128959872],[144.963958397617,-37.8265227749523],[144.964130294738,-37.826453179086],[144.964342336671,-37.8263793520792],[144.964431231257,-37.8263606907867],[144.9646593171,-37.8263250881496],[144.964730699928,-37.8263187929749]]},"properties":{"OBJECTID":152565,"ufi":45114545,"pfi":6256620,"ezi_road_name":"KINGS-CITYLINK IN RAMP ON","road_name":"KINGS-CITYLINK IN","road_type":"RAMP","class_code":0,"direction_code":"F","left_locality":"SOUTHBANK","right_locality":"SOUTHBANK"}},{"type":"Feature","id":182881,"geometry":{"type":"LineString","coordinates":[[144.961434852117,-37.8265593729969],[144.961468723993,-37.8266518078308],[144.961831223855,-37.8270663213487]]},"properties":{"OBJECTID":182881,"ufi":47650635,"pfi":17225710,"ezi_road_name":"KAVANAGH STREET","road_name":"KAVANAGH","road_type":"STREET","class_code":5,"direction_code":"B","left_locality":"SOUTHBANK","right_locality":"SOUTHBANK"}},{"type":"Feature","id":368582,"geometry":{"type":"LineString","coordinates":[[144.961398329313,-37.8209685077901],[144.962157221573,-37.8208148039631]]},"properties":{"OBJECTID":368582,"ufi":58128685,"pfi":16774134,"ezi_road_name":"SOUTHBANK PROMENADE","road_name":"SOUTHBANK","road_type":"PROMENADE","class_code":9,"direction_code":"B","left_locality":"SOUTHBANK","right_locality":"SOUTHBANK"}},{"type":"Feature","id":136525,"geometry":{"type":"LineString","coordinates":[[144.959703494934,-37.8262702231864],[144.959744383551,-37.8262353321905],[144.960075668753,-37.825962674096]]},"properties":{"OBJECTID":136525,"ufi":43912783,"pfi":16231704,"ezi_road_name":"CITY ROAD","road_name":"CITY","road_type":"ROAD","class_code":2,"direction_code":"B","left_locality":"SOUTHBANK","right_locality":"SOUTHBANK"}},{"type":"Feature","id":1128256,"geometry":{"type":"LineString","coordinates":[[144.960529696162,-37.8268011861433],[144.960370046672,-37.8264254709953],[144.960276348794,-37.8262451049066],[144.960194008317,-37.8261143329016],[144.960075668753,-37.825962674096]]},"properties":{"OBJECTID":1128256,"ufi":73135015,"pfi":5682351,"ezi_road_name":"MORAY STREET","road_name":"MORAY","road_type":"STREET","class_code":3,"direction_code":"B","left_locality":"SOUTHBANK","right_locality":"SOUTHBANK"}},{"type":"Feature","id":369130,"geometry":{"type":"LineString","coordinates":[[144.961393013981,-37.82045658433],[144.961396190424,-37.8209085722483],[144.961399009337,-37.8209491177823],[144.961398329313,-37.8209685077901]]},"properties":{"OBJECTID":369130,"ufi":58128338,"pfi":5679452,"ezi_road_name":"QUEENS BRIDGE STREET","road_name":"QUEENS BRIDGE","road_type":"STREET","class_code":3,"direction_code":"B","left_locality":"SOUTHBANK","right_locality":"SOUTHBANK"}},{"type":"Feature","id":1128254,"geometry":{"type":"LineString","coordinates":[[144.958812827008,-37.8241266026764],[144.958903449952,-37.8242668027804]]},"properties":{"OBJECTID":1128254,"ufi":73135013,"pfi":10128127,"ezi_road_name":"KINGS WAY","road_name":"KINGS","road_type":"WAY","class_code":2,"direction_code":"F","left_locality":"SOUTHBANK","right_locality":"SOUTHBANK"}},{"type":"Feature","id":282565,"geometry":{"type":"LineString","coordinates":[[144.962157221573,-37.8208148039631],[144.962734132225,-37.8203316521169],[144.963037278599,-37.8200840329887]]},"properties":{"OBJECTID":282565,"ufi":54676524,"pfi":16774139,"ezi_road_name":"UNNAMED","road_name":"UNNAMED","road_type":null,"class_code":9,"direction_code":"B","left_locality":"SOUTHBANK","right_locality":"SOUTHBANK"}},{"type":"Feature","id":801726,"geometry":{"type":"LineString","coordinates":[[144.962157221573,-37.8208148039631],[144.962561652097,-37.8207328952556],[144.965092130794,-37.8201420780768]]},"properties":{"OBJECTID":801726,"ufi":62504812,"pfi":16774135,"ezi_road_name":"SOUTHBANK PROMENADE","road_name":"SOUTHBANK","road_type":"PROMENADE","class_code":9,"direction_code":"B","left_locality":"SOUTHBANK","right_locality":"SOUTHBANK"}},{"type":"Feature","id":870376,"geometry":{"type":"LineString","coordinates":[[144.961907423449,-37.8271526612459],[144.961988659897,-37.8271163487338],[144.962505632258,-37.8269090207418],[144.962677708144,-37.8268489147653],[144.962826579648,-37.8268064339801],[144.96300926284,-37.8267735590721],[144.963168743448,-37.8267582909528],[144.963339083789,-37.8267612348803],[144.963377396935,-37.8267639318839]]},"properties":{"OBJECTID":870376,"ufi":64819634,"pfi":16231724,"ezi_road_name":"WEST GATE IN-KINGS RAMP OF","road_name":"WEST GATE IN-KINGS","road_type":"RAMP","class_code":0,"direction_code":"F","left_locality":"SOUTHBANK","right_locality":"SOUTHBANK"}},{"type":"Feature","id":1127167,"geometry":{"type":"LineString","coordinates":[[144.961498163582,-37.8271696038149],[144.960722585115,-37.8263894483331]]},"properties":{"OBJECTID":1127167,"ufi":73136500,"pfi":16231681,"ezi_road_name":"KINGS WAY","road_name":"KINGS","road_type":"WAY","class_code":2,"direction_code":"F","left_locality":"SOUTHBANK","right_locality":"SOUTHBANK"}},{"type":"Feature","id":1121940,"geometry":{"type":"LineString","coordinates":[[144.958851511159,-37.8245706386516],[144.958876662191,-37.8245462747783],[144.958918497632,-37.8245230710482],[144.958928300946,-37.8245208940794]]},"properties":{"OBJECTID":1121940,"ufi":73144963,"pfi":24041684,"ezi_road_name":"UNNAMED","road_name":"UNNAMED","road_type":null,"class_code":5,"direction_code":"F","left_locality":"SOUTHBANK","right_locality":"SOUTHBANK"}},{"type":"Feature","id":1127918,"geometry":{"type":"LineString","coordinates":[[144.958682091592,-37.824220497316],[144.95884176893,-37.8244178441942],[144.958928300946,-37.8245208940794]]},"properties":{"OBJECTID":1127918,"ufi":73136552,"pfi":16231695,"ezi_road_name":"KINGS WAY","road_name":"KINGS","road_type":"WAY","class_code":2,"direction_code":"F","left_locality":"SOUTHBANK","right_locality":"SOUTHBANK"}},{"type":"Feature","id":186232,"geometry":{"type":"LineString","coordinates":[[144.964426109063,-37.8266010769643],[144.964445810015,-37.8265911439364],[144.964515433043,-37.8265382758538],[144.964584811729,-37.8264944176462],[144.964666521589,-37.8264147219562],[144.964730699928,-37.8263187929749]]},"properties":{"OBJECTID":186232,"ufi":47121773,"pfi":10128182,"ezi_road_name":"WEST GATE IN-POWER RAMP OF","road_name":"WEST GATE IN-POWER","road_type":"RAMP","class_code":0,"direction_code":"F","left_locality":"SOUTHBANK","right_locality":"SOUTHBANK"}},{"type":"Feature","id":397993,"geometry":{"type":"LineString","coordinates":[[144.964730699928,-37.8263187929749],[144.965063559877,-37.826286967992],[144.965356899343,-37.8262594201985],[144.965455685278,-37.8262450140834]]},"properties":{"OBJECTID":397993,"ufi":45114231,"pfi":10128142,"ezi_road_name":"KINGS-CITYLINK IN RAMP ON","road_name":"KINGS-CITYLINK IN","road_type":"RAMP","class_code":0,"direction_code":"F","left_locality":"SOUTHBANK","right_locality":"SOUTHBANK"}},{"type":"Feature","id":152560,"geometry":{"type":"LineString","coordinates":[[144.962770619097,-37.8270022129358],[144.962783730907,-37.8269953693377],[144.963377396935,-37.8267639318839]]},"properties":{"OBJECTID":152560,"ufi":45114535,"pfi":16231722,"ezi_road_name":"KINGS-CITYLINK IN RAMP ON","road_name":"KINGS-CITYLINK IN","road_type":"RAMP","class_code":0,"direction_code":"F","left_locality":"SOUTHBANK","right_locality":"SOUTHBANK"}},{"type":"Feature","id":186093,"geometry":{"type":"LineString","coordinates":[[144.963377396935,-37.8267639318839],[144.963509169906,-37.8267731886865],[144.963656065116,-37.8268027691509],[144.963813659262,-37.8268559570511]]},"properties":{"OBJECTID":186093,"ufi":47121788,"pfi":5682382,"ezi_road_name":"WEST GATE IN-KINGS RAMP OF","road_name":"WEST GATE IN-KINGS","road_type":"RAMP","class_code":0,"direction_code":"F","left_locality":"SOUTHBANK","right_locality":"SOUTHBANK"}},{"type":"Feature","id":1127920,"geometry":{"type":"LineString","coordinates":[[144.958812827008,-37.8241266026764],[144.958682091592,-37.824220497316]]},"properties":{"OBJECTID":1127920,"ufi":73136554,"pfi":5681039,"ezi_road_name":"WHITEMAN STREET","road_name":"WHITEMAN","road_type":"STREET","class_code":5,"direction_code":"F","left_locality":"SOUTHBANK","right_locality":"SOUTHBANK"}},{"type":"Feature","id":1128255,"geometry":{"type":"LineString","coordinates":[[144.958728276675,-37.8240127418279],[144.958812827008,-37.8241266026764]]},"properties":{"OBJECTID":1128255,"ufi":73135014,"pfi":10128169,"ezi_road_name":"KINGS WAY","road_name":"KINGS","road_type":"WAY","class_code":2,"direction_code":"F","left_locality":"SOUTHBANK","right_locality":"SOUTHBANK"}},{"type":"Feature","id":136612,"geometry":{"type":"LineString","coordinates":[[144.959042227087,-37.8249042091835],[144.958923824641,-37.8249820240203]]},"properties":{"OBJECTID":136612,"ufi":43912762,"pfi":16231686,"ezi_road_name":"UNNAMED","road_name":"UNNAMED","road_type":null,"class_code":5,"direction_code":"B","left_locality":"SOUTHBANK","right_locality":"SOUTHBANK"}},{"type":"Feature","id":1131486,"geometry":{"type":"LineString","coordinates":[[144.959042227087,-37.8249042091835],[144.95884449891,-37.824724319756],[144.958829170058,-37.8246933469898],[144.958820825607,-37.8246634846896],[144.958822156012,-37.8246393656491]]},"properties":{"OBJECTID":1131486,"ufi":73136660,"pfi":16231690,"ezi_road_name":"UNNAMED","road_name":"UNNAMED","road_type":null,"class_code":5,"direction_code":"F","left_locality":"SOUTHBANK","right_locality":"SOUTHBANK"}},{"type":"Feature","id":1127533,"geometry":{"type":"LineString","coordinates":[[144.958851511159,-37.8245706386516],[144.95881853131,-37.8245392989719],[144.958695897799,-37.8243977639677],[144.958604388218,-37.8242797021445]]},"properties":{"OBJECTID":1127533,"ufi":73136532,"pfi":24041692,"ezi_road_name":"KINGS WAY","road_name":"KINGS","road_type":"WAY","class_code":2,"direction_code":"F","left_locality":"SOUTHBANK","right_locality":"SOUTHBANK"}},{"type":"Feature","id":1131457,"geometry":{"type":"LineString","coordinates":[[144.958822156012,-37.8246393656491],[144.958832014124,-37.824601553994],[144.958851511159,-37.8245706386516]]},"properties":{"OBJECTID":1131457,"ufi":73136659,"pfi":24041693,"ezi_road_name":"UNNAMED","road_name":"UNNAMED","road_type":null,"class_code":5,"direction_code":"F","left_locality":"SOUTHBANK","right_locality":"SOUTHBANK"}},{"type":"Feature","id":1131487,"geometry":{"type":"LineString","coordinates":[[144.958896826674,-37.8247061923519],[144.958822156012,-37.8246393656491]]},"properties":{"OBJECTID":1131487,"ufi":73136661,"pfi":24041695,"ezi_road_name":"KINGS WAY","road_name":"KINGS","road_type":"WAY","class_code":2,"direction_code":"F","left_locality":"SOUTHBANK","right_locality":"SOUTHBANK"}},{"type":"Feature","id":1127919,"geometry":{"type":"LineString","coordinates":[[144.95860511765,-37.8241085389873],[144.958728276675,-37.8240127418279]]},"properties":{"OBJECTID":1127919,"ufi":73136553,"pfi":10128163,"ezi_road_name":"WHITEMAN STREET","road_name":"WHITEMAN","road_type":"STREET","class_code":5,"direction_code":"F","left_locality":"SOUTHBANK","right_locality":"SOUTHBANK"}},{"type":"Feature","id":1131485,"geometry":{"type":"LineString","coordinates":[[144.958822156012,-37.8246393656491],[144.9586251932,-37.8244752798987],[144.958526866304,-37.8243387706871]]},"properties":{"OBJECTID":1131485,"ufi":73136658,"pfi":16231692,"ezi_road_name":"KINGS WAY","road_name":"KINGS","road_type":"WAY","class_code":2,"direction_code":"F","left_locality":"SOUTHBANK","right_locality":"SOUTHBANK"}},{"type":"Feature","id":870375,"geometry":{"type":"LineString","coordinates":[[144.963813659262,-37.8268559570511],[144.963951309909,-37.826807875787],[144.964192511156,-37.8267129293362],[144.964342121974,-37.8266434166668],[144.964426109063,-37.8266010769643]]},"properties":{"OBJECTID":870375,"ufi":64819633,"pfi":10128180,"ezi_road_name":"WEST GATE IN-POWER RAMP OF","road_name":"WEST GATE IN-POWER","road_type":"RAMP","class_code":0,"direction_code":"F","left_locality":"SOUTHBANK","right_locality":"SOUTHBANK"}},{"type":"Feature","id":1127528,"geometry":{"type":"LineString","coordinates":[[144.958682091592,-37.824220497316],[144.958604388218,-37.8242797021445]]},"properties":{"OBJECTID":1127528,"ufi":73136527,"pfi":24041688,"ezi_road_name":"WHITEMAN STREET","road_name":"WHITEMAN","road_type":"STREET","class_code":5,"direction_code":"F","left_locality":"SOUTHBANK","right_locality":"SOUTHBANK"}},{"type":"Feature","id":1127532,"geometry":{"type":"LineString","coordinates":[[144.95860511765,-37.8241085389873],[144.958682091592,-37.824220497316]]},"properties":{"OBJECTID":1127532,"ufi":73136531,"pfi":10128159,"ezi_road_name":"KINGS WAY","road_name":"KINGS","road_type":"WAY","class_code":2,"direction_code":"F","left_locality":"SOUTHBANK","right_locality":"SOUTHBANK"}},{"type":"Feature","id":187942,"geometry":{"type":"LineString","coordinates":[[144.965843193339,-37.8218697852123],[144.965798657562,-37.821765716189]]},"properties":{"OBJECTID":187942,"ufi":48859443,"pfi":17483925,"ezi_road_name":"SOUTHGATE AVENUE","road_name":"SOUTHGATE","road_type":"AVENUE","class_code":5,"direction_code":"B","left_locality":"SOUTHBANK","right_locality":"SOUTHBANK"}},{"type":"Feature","id":840605,"geometry":{"type":"LineString","coordinates":[[144.965843193339,-37.8218697852123],[144.966896938726,-37.8214045513531],[144.967220858641,-37.8212719761825]]},"properties":{"OBJECTID":840605,"ufi":63456801,"pfi":17483923,"ezi_road_name":"CITY ROAD","road_name":"CITY","road_type":"ROAD","class_code":2,"direction_code":"F","left_locality":"SOUTHBANK","right_locality":"SOUTHBANK"}},{"type":"Feature","id":1127527,"geometry":{"type":"LineString","coordinates":[[144.958532215771,-37.8241736830566],[144.95860511765,-37.8241085389873]]},"properties":{"OBJECTID":1127527,"ufi":73136526,"pfi":24041687,"ezi_road_name":"WHITEMAN STREET","road_name":"WHITEMAN","road_type":"STREET","class_code":5,"direction_code":"F","left_locality":"SOUTHBANK","right_locality":"SOUTHBANK"}},{"type":"Feature","id":1127538,"geometry":{"type":"LineString","coordinates":[[144.958214926321,-37.8227444320856],[144.958295862732,-37.823286944063],[144.95833267659,-37.8234920158244],[144.958360030291,-37.823592144236],[144.95860511765,-37.8241085389873]]},"properties":{"OBJECTID":1127538,"ufi":73136538,"pfi":10128158,"ezi_road_name":"KINGS WAY","road_name":"KINGS","road_type":"WAY","class_code":2,"direction_code":"F","left_locality":"SOUTHBANK","right_locality":"SOUTHBANK"}},{"type":"Feature","id":186103,"geometry":{"type":"LineString","coordinates":[[144.96291913397,-37.827200288885],[144.963607170714,-37.8269280827911],[144.963813659262,-37.8268559570511]]},"properties":{"OBJECTID":186103,"ufi":47121802,"pfi":5682567,"ezi_road_name":"WEST GATE IN-POWER RAMP OF","road_name":"WEST GATE IN-POWER","road_type":"RAMP","class_code":0,"direction_code":"F","left_locality":"SOUTHBANK","right_locality":"SOUTHBANK"}},{"type":"Feature","id":186104,"geometry":{"type":"LineString","coordinates":[[144.963813659262,-37.8268559570511],[144.963919447564,-37.8269021111469]]},"properties":{"OBJECTID":186104,"ufi":47121804,"pfi":5682408,"ezi_road_name":"WEST GATE IN-KINGS RAMP OF","road_name":"WEST GATE IN-KINGS","road_type":"RAMP","class_code":0,"direction_code":"F","left_locality":"SOUTHBANK","right_locality":"SOUTHBANK"}},{"type":"Feature","id":840606,"geometry":{"type":"LineString","coordinates":[[144.965798657562,-37.821765716189],[144.966832534012,-37.8213092431488],[144.967865315416,-37.8208865488711]]},"properties":{"OBJECTID":840606,"ufi":63456802,"pfi":17483924,"ezi_road_name":"CITY ROAD","road_name":"CITY","road_type":"ROAD","class_code":2,"direction_code":"F","left_locality":"SOUTHBANK","right_locality":"SOUTHBANK"}},{"type":"Feature","id":872612,"geometry":{"type":"LineString","coordinates":[[144.965798657562,-37.821765716189],[144.965471170437,-37.8210003740948]]},"properties":{"OBJECTID":872612,"ufi":64819881,"pfi":17483941,"ezi_road_name":"SOUTHGATE AVENUE","road_name":"SOUTHGATE","road_type":"AVENUE","class_code":5,"direction_code":"B","left_locality":"SOUTHBANK","right_locality":"SOUTHBANK"}},{"type":"Feature","id":136579,"geometry":{"type":"LineString","coordinates":[[144.962559588667,-37.827112321341],[144.962770619097,-37.8270022129358]]},"properties":{"OBJECTID":136579,"ufi":43912801,"pfi":16231721,"ezi_road_name":"KINGS-CITYLINK IN RAMP ON","road_name":"KINGS-CITYLINK IN","road_type":"RAMP","class_code":0,"direction_code":"F","left_locality":"SOUTHBANK","right_locality":"SOUTHBANK"}},{"type":"Feature","id":186434,"geometry":{"type":"LineString","coordinates":[[144.961907423449,-37.8271526612459],[144.962095783096,-37.8271734978096],[144.96232543111,-37.827133096895],[144.962580608346,-37.8270589711391],[144.962770619097,-37.8270022129358]]},"properties":{"OBJECTID":186434,"ufi":47650371,"pfi":16231725,"ezi_road_name":"KINGS-CITYLINK IN RAMP ON","road_name":"KINGS-CITYLINK IN","road_type":"RAMP","class_code":0,"direction_code":"F","left_locality":"SOUTHBANK","right_locality":"SOUTHBANK"}},{"type":"Feature","id":1127529,"geometry":{"type":"LineString","coordinates":[[144.958604388218,-37.8242797021445],[144.958526866304,-37.8243387706871]]},"properties":{"OBJECTID":1127529,"ufi":73136528,"pfi":24041689,"ezi_road_name":"WHITEMAN STREET","road_name":"WHITEMAN","road_type":"STREET","class_code":5,"direction_code":"F","left_locality":"SOUTHBANK","right_locality":"SOUTHBANK"}},{"type":"Feature","id":1127910,"geometry":{"type":"LineString","coordinates":[[144.958604388218,-37.8242797021445],[144.958581811758,-37.8242505818926],[144.958532215771,-37.8241736830566]]},"properties":{"OBJECTID":1127910,"ufi":73136544,"pfi":24041696,"ezi_road_name":"KINGS WAY","road_name":"KINGS","road_type":"WAY","class_code":2,"direction_code":"F","left_locality":"SOUTHBANK","right_locality":"SOUTHBANK"}},{"type":"Feature","id":1127526,"geometry":{"type":"LineString","coordinates":[[144.958462613405,-37.8242287638703],[144.958529568436,-37.8241760523307],[144.958532215771,-37.8241736830566]]},"properties":{"OBJECTID":1127526,"ufi":73136525,"pfi":24041686,"ezi_road_name":"WHITEMAN STREET","road_name":"WHITEMAN","road_type":"STREET","class_code":5,"direction_code":"F","left_locality":"SOUTHBANK","right_locality":"SOUTHBANK"}},{"type":"Feature","id":1127914,"geometry":{"type":"LineString","coordinates":[[144.958532215771,-37.8241736830566],[144.958462055551,-37.8240649078194],[144.958256485081,-37.8236113902141],[144.958235820237,-37.8235349689705],[144.958213452186,-37.8233353171313],[144.958119562967,-37.8227797902226]]},"properties":{"OBJECTID":1127914,"ufi":73136548,"pfi":24041700,"ezi_road_name":"KINGS WAY","road_name":"KINGS","road_type":"WAY","class_code":2,"direction_code":"F","left_locality":"SOUTHBANK","right_locality":"SOUTHBANK"}},{"type":"Feature","id":153583,"geometry":{"type":"LineString","coordinates":[[144.963919447564,-37.8269021111469],[144.964451961678,-37.8267463882319],[144.96483128968,-37.8266506611946],[144.965363521723,-37.826531271144],[144.96559109912,-37.8264890172331]]},"properties":{"OBJECTID":153583,"ufi":45115315,"pfi":10128134,"ezi_road_name":"BURNLEY TUNNEL","road_name":"BURNLEY","road_type":"TUNNEL","class_code":0,"direction_code":"F","left_locality":"SOUTHBANK","right_locality":"SOUTHBANK"}},{"type":"Feature","id":152462,"geometry":{"type":"LineString","coordinates":[[144.963092524989,-37.8271482017409],[144.963539836593,-37.8270142248859],[144.963862724344,-37.8269184918102],[144.963919447564,-37.8269021111469]]},"properties":{"OBJECTID":152462,"ufi":45115318,"pfi":6256877,"ezi_road_name":"BURNLEY TUNNEL","road_name":"BURNLEY","road_type":"TUNNEL","class_code":0,"direction_code":"F","left_locality":"SOUTHBANK","right_locality":"SOUTHBANK"}},{"type":"Feature","id":320938,"geometry":{"type":"LineString","coordinates":[[144.963919447564,-37.8269021111469],[144.963993279199,-37.826934768166],[144.964042779066,-37.8269646600578],[144.964080561309,-37.8269874032325],[144.964118717251,-37.8270109041982]]},"properties":{"OBJECTID":320938,"ufi":47121796,"pfi":5682458,"ezi_road_name":"WEST GATE IN-KINGS RAMP OF","road_name":"WEST GATE IN-KINGS","road_type":"RAMP","class_code":0,"direction_code":"F","left_locality":"SOUTHBANK","right_locality":"SOUTHBANK"}},{"type":"Feature","id":869486,"geometry":{"type":"LineString","coordinates":[[144.958526866304,-37.8243387706871],[144.958027606923,-37.8247560489113],[144.957902045803,-37.8248577189214],[144.957629932629,-37.8250575908654],[144.957408756626,-37.8251890409596],[144.957236569349,-37.825264843878],[144.957150461337,-37.8252984481816],[144.957051173244,-37.8253362268396]]},"properties":{"OBJECTID":869486,"ufi":64819975,"pfi":10128160,"ezi_road_name":"WHITEMAN STREET","road_name":"WHITEMAN","road_type":"STREET","class_code":5,"direction_code":"F","left_locality":"SOUTHBANK","right_locality":"SOUTHBANK"}},{"type":"Feature","id":1128253,"geometry":{"type":"LineString","coordinates":[[144.958526866304,-37.8243387706871],[144.958462613405,-37.8242287638703]]},"properties":{"OBJECTID":1128253,"ufi":73135012,"pfi":10128171,"ezi_road_name":"KINGS WAY","road_name":"KINGS","road_type":"WAY","class_code":2,"direction_code":"F","left_locality":"SOUTHBANK","right_locality":"SOUTHBANK"}},{"type":"Feature","id":152586,"geometry":{"type":"LineString","coordinates":[[144.965455685278,-37.8262450140834],[144.965570906789,-37.8262296486456]]},"properties":{"OBJECTID":152586,"ufi":45114229,"pfi":10128133,"ezi_road_name":"KINGS-CITYLINK IN RAMP ON","road_name":"KINGS-CITYLINK IN","road_type":"RAMP","class_code":0,"direction_code":"F","left_locality":"SOUTHBANK","right_locality":"SOUTHBANK"}},{"type":"Feature","id":840939,"geometry":{"type":"LineString","coordinates":[[144.96559109912,-37.8264890172331],[144.965531947754,-37.8263743106924],[144.965455685278,-37.8262450140834]]},"properties":{"OBJECTID":840939,"ufi":63456851,"pfi":10128194,"ezi_road_name":"POWER STREET","road_name":"POWER","road_type":"STREET","class_code":2,"direction_code":"F","left_locality":"SOUTHBANK","right_locality":"SOUTHBANK"}},{"type":"Feature","id":136610,"geometry":{"type":"LineString","coordinates":[[144.956977090081,-37.8251764887324],[144.957058801737,-37.8251441190193],[144.957184471554,-37.8250933828588],[144.957332843594,-37.8250300780914],[144.95756783389,-37.8249150670066],[144.957761355256,-37.8247945636711],[144.957928188574,-37.8246623458277],[144.958462613405,-37.8242287638703]]},"properties":{"OBJECTID":136610,"ufi":43912757,"pfi":10128161,"ezi_road_name":"WHITEMAN STREET","road_name":"WHITEMAN","road_type":"STREET","class_code":5,"direction_code":"F","left_locality":"SOUTHBANK","right_locality":"SOUTHBANK"}},{"type":"Feature","id":152783,"geometry":{"type":"LineString","coordinates":[[144.961845945446,-37.8271801306558],[144.961898195954,-37.8272040062009],[144.962019903302,-37.8272194338759],[144.962198065274,-37.8272124888327],[144.962559588667,-37.827112321341]]},"properties":{"OBJECTID":152783,"ufi":45114479,"pfi":16231665,"ezi_road_name":"KINGS-CITYLINK IN RAMP ON","road_name":"KINGS-CITYLINK IN","road_type":"RAMP","class_code":0,"direction_code":"F","left_locality":"SOUTHBANK","right_locality":"SOUTHBANK"}},{"type":"Feature","id":186272,"geometry":{"type":"LineString","coordinates":[[144.962351931411,-37.8272723546865],[144.962443265821,-37.8271901849369],[144.962559588667,-37.827112321341]]},"properties":{"OBJECTID":186272,"ufi":47650378,"pfi":17225628,"ezi_road_name":"KINGS-CITYLINK IN RAMP ON","road_name":"KINGS-CITYLINK IN","road_type":"RAMP","class_code":0,"direction_code":"F","left_locality":"SOUTHBANK","right_locality":"SOUTHBANK"}},{"type":"Feature","id":151168,"geometry":{"type":"LineString","coordinates":[[144.965570906789,-37.8262296486456],[144.96579062303,-37.8262137638093],[144.965927085206,-37.8262012969032],[144.966374722001,-37.8261568602064]]},"properties":{"OBJECTID":151168,"ufi":45115895,"pfi":14310743,"ezi_road_name":"KINGS-CITYLINK IN RAMP ON","road_name":"KINGS-CITYLINK IN","road_type":"RAMP","class_code":0,"direction_code":"F","left_locality":"SOUTHBANK","right_locality":"SOUTHBANK"}},{"type":"Feature","id":840935,"geometry":{"type":"LineString","coordinates":[[144.965570906789,-37.8262296486456],[144.965582156392,-37.8262488350427],[144.965669550791,-37.8264030391418],[144.965705154619,-37.8264679839297]]},"properties":{"OBJECTID":840935,"ufi":63456846,"pfi":5682120,"ezi_road_name":"POWER STREET","road_name":"POWER","road_type":"STREET","class_code":2,"direction_code":"F","left_locality":"SOUTHBANK","right_locality":"SOUTHBANK"}},{"type":"Feature","id":144053,"geometry":{"type":"LineString","coordinates":[[144.96291913397,-37.827200288885],[144.963092524989,-37.8271482017409]]},"properties":{"OBJECTID":144053,"ufi":44230220,"pfi":6256878,"ezi_road_name":"BURNLEY TUNNEL","road_name":"BURNLEY","road_type":"TUNNEL","class_code":0,"direction_code":"F","left_locality":"SOUTHBANK","right_locality":"SOUTHBANK"}},{"type":"Feature","id":621489,"geometry":{"type":"LineString","coordinates":[[144.959119059994,-37.8267689178991],[144.959703494934,-37.8262702231864]]},"properties":{"OBJECTID":621489,"ufi":43912782,"pfi":16231703,"ezi_road_name":"CITY ROAD","road_name":"CITY","road_type":"ROAD","class_code":2,"direction_code":"B","left_locality":"SOUTHBANK","right_locality":"SOUTHBANK"}},{"type":"Feature","id":152782,"geometry":{"type":"LineString","coordinates":[[144.961695969014,-37.8271116160506],[144.961845945446,-37.8271801306558]]},"properties":{"OBJECTID":152782,"ufi":45114478,"pfi":16231664,"ezi_road_name":"KINGS-CITYLINK IN RAMP ON","road_name":"KINGS-CITYLINK IN","road_type":"RAMP","class_code":0,"direction_code":"F","left_locality":"SOUTHBANK","right_locality":"SOUTHBANK"}},{"type":"Feature","id":186343,"geometry":{"type":"LineString","coordinates":[[144.961695969014,-37.8271116160506],[144.96178869222,-37.827205728271]]},"properties":{"OBJECTID":186343,"ufi":47650778,"pfi":16231669,"ezi_road_name":"KINGS WAY","road_name":"KINGS","road_type":"WAY","class_code":2,"direction_code":"F","left_locality":"SOUTHBANK","right_locality":"SOUTHBANK"}},{"type":"Feature","id":397438,"geometry":{"type":"LineString","coordinates":[[144.961845945446,-37.8271801306558],[144.961907423449,-37.8271526612459]]},"properties":{"OBJECTID":397438,"ufi":47121785,"pfi":16231723,"ezi_road_name":"WEST GATE IN-KINGS RAMP OF","road_name":"WEST GATE IN-KINGS","road_type":"RAMP","class_code":0,"direction_code":"F","left_locality":"SOUTHBANK","right_locality":"SOUTHBANK"}},{"type":"Feature","id":1228906,"geometry":{"type":"LineString","coordinates":[[144.962795868045,-37.8272385710569],[144.96291913397,-37.827200288885]]},"properties":{"OBJECTID":1228906,"ufi":35268389,"pfi":5682583,"ezi_road_name":"WEST GATE FREEWAY","road_name":"WEST GATE","road_type":"FREEWAY","class_code":0,"direction_code":"F","left_locality":"SOUTHBANK","right_locality":"SOUTHBANK"}},{"type":"Feature","id":230355,"geometry":{"type":"LineString","coordinates":[[144.966986984054,-37.8219871448417],[144.966765031907,-37.8227256982054]]},"properties":{"OBJECTID":230355,"ufi":50724059,"pfi":5680328,"ezi_road_name":"FANNING STREET","road_name":"FANNING","road_type":"STREET","class_code":5,"direction_code":"B","left_locality":"SOUTHBANK","right_locality":"SOUTHBANK"}},{"type":"Feature","id":230356,"geometry":{"type":"LineString","coordinates":[[144.967699508873,-37.8223407028223],[144.966765031907,-37.8227256982054]]},"properties":{"OBJECTID":230356,"ufi":50724060,"pfi":5680327,"ezi_road_name":"KAVANAGH STREET","road_name":"KAVANAGH","road_type":"STREET","class_code":5,"direction_code":"B","left_locality":"SOUTHBANK","right_locality":"SOUTHBANK"}},{"type":"Feature","id":321117,"geometry":{"type":"LineString","coordinates":[[144.965658055948,-37.8266266911],[144.965560436925,-37.8266460427195],[144.964779014019,-37.8268242231223],[144.964506017801,-37.8268960239195],[144.964240108392,-37.8269731611654],[144.964118717251,-37.8270109041982]]},"properties":{"OBJECTID":321117,"ufi":45114112,"pfi":10128257,"ezi_road_name":"WEST GATE FREEWAY","road_name":"WEST GATE","road_type":"FREEWAY","class_code":0,"direction_code":"F","left_locality":"SOUTHBANK","right_locality":"SOUTHBANK"}},{"type":"Feature","id":483578,"geometry":{"type":"LineString","coordinates":[[144.964118717251,-37.8270109041982],[144.962971574023,-37.8273757929642]]},"properties":{"OBJECTID":483578,"ufi":45115787,"pfi":5682659,"ezi_road_name":"WEST GATE FREEWAY","road_name":"WEST GATE","road_type":"FREEWAY","class_code":0,"direction_code":"F","left_locality":"SOUTHBANK","right_locality":"SOUTHBANK"}},{"type":"Feature","id":488834,"geometry":{"type":"LineString","coordinates":[[144.964118717251,-37.8270109041982],[144.964234364564,-37.827106940131]]},"properties":{"OBJECTID":488834,"ufi":47121795,"pfi":14272745,"ezi_road_name":"WEST GATE IN-KINGS RAMP OF","road_name":"WEST GATE IN-KINGS","road_type":"RAMP","class_code":0,"direction_code":"F","left_locality":"SOUTHBANK","right_locality":"SOUTHBANK"}},{"type":"Feature","id":27760,"geometry":{"type":"LineString","coordinates":[[144.959299006918,-37.8271587512903],[144.960529696162,-37.8268011861433]]},"properties":{"OBJECTID":27760,"ufi":1393643,"pfi":5682546,"ezi_road_name":"CATHERINE STREET","road_name":"CATHERINE","road_type":"STREET","class_code":5,"direction_code":"B","left_locality":"SOUTHBANK","right_locality":"SOUTHBANK"}},{"type":"Feature","id":137773,"geometry":{"type":"LineString","coordinates":[[144.960529696162,-37.8268011861433],[144.960587005982,-37.8269253269008],[144.960684065356,-37.8271334452829]]},"properties":{"OBJECTID":137773,"ufi":43912651,"pfi":5682522,"ezi_road_name":"MORAY STREET","road_name":"MORAY","road_type":"STREET","class_code":3,"direction_code":"B","left_locality":"SOUTHBANK","right_locality":"SOUTHBANK"}},{"type":"Feature","id":1229583,"geometry":{"type":"LineString","coordinates":[[144.96178869222,-37.827205728271],[144.961845945446,-37.8271801306558]]},"properties":{"OBJECTID":1229583,"ufi":47650785,"pfi":16231668,"ezi_road_name":"WEST GATE IN-KINGS RAMP OF","road_name":"WEST GATE IN-KINGS","road_type":"RAMP","class_code":0,"direction_code":"F","left_locality":"SOUTHBANK","right_locality":"SOUTHBANK"}},{"type":"Feature","id":488840,"geometry":{"type":"LineString","coordinates":[[144.962250323868,-37.8274039051388],[144.962394825068,-37.8273605852809],[144.962795868045,-37.8272385710569]]},"properties":{"OBJECTID":488840,"ufi":47650782,"pfi":16231677,"ezi_road_name":"WEST GATE FREEWAY","road_name":"WEST GATE","road_type":"FREEWAY","class_code":0,"direction_code":"F","left_locality":"SOUTHBANK","right_locality":"SOUTHBANK"}},{"type":"Feature","id":485076,"geometry":{"type":"LineString","coordinates":[[144.961378834973,-37.8199761202945],[144.961373933765,-37.8200098157082],[144.961393013981,-37.82045658433]]},"properties":{"OBJECTID":485076,"ufi":58128337,"pfi":10084978,"ezi_road_name":"QUEENS BRIDGE STREET","road_name":"QUEENS BRIDGE","road_type":"STREET","class_code":3,"direction_code":"B","left_locality":"MELBOURNE","right_locality":"MELBOURNE"}},{"type":"Feature","id":186269,"geometry":{"type":"LineString","coordinates":[[144.96178869222,-37.827205728271],[144.961875399407,-37.827293756015]]},"properties":{"OBJECTID":186269,"ufi":47650375,"pfi":17225625,"ezi_road_name":"KINGS WAY","road_name":"KINGS","road_type":"WAY","class_code":2,"direction_code":"F","left_locality":"SOUTHBANK","right_locality":"SOUTHBANK"}},{"type":"Feature","id":186347,"geometry":{"type":"LineString","coordinates":[[144.961609844833,-37.8272876077989],[144.961692093682,-37.8272488999246],[144.96178869222,-37.827205728271]]},"properties":{"OBJECTID":186347,"ufi":47650784,"pfi":16231667,"ezi_road_name":"WEST GATE IN-KINGS RAMP OF","road_name":"WEST GATE IN-KINGS","road_type":"RAMP","class_code":0,"direction_code":"F","left_locality":"SOUTHBANK","right_locality":"SOUTHBANK"}},{"type":"Feature","id":182882,"geometry":{"type":"LineString","coordinates":[[144.961875399407,-37.827293756015],[144.961989163852,-37.8273118387917],[144.962108958686,-37.8273118771071],[144.962262044187,-37.8272960861639],[144.962351931411,-37.8272723546865]]},"properties":{"OBJECTID":182882,"ufi":47650636,"pfi":17225711,"ezi_road_name":"KINGS WAY","road_name":"KINGS","road_type":"WAY","class_code":2,"direction_code":"F","left_locality":"SOUTHBANK","right_locality":"SOUTHBANK"}},{"type":"Feature","id":186271,"geometry":{"type":"LineString","coordinates":[[144.962250323868,-37.8274039051388],[144.962312666948,-37.8273076709196],[144.962351931411,-37.8272723546865]]},"properties":{"OBJECTID":186271,"ufi":47650377,"pfi":17225627,"ezi_road_name":"KINGS-CITYLINK IN RAMP ON","road_name":"KINGS-CITYLINK IN","road_type":"RAMP","class_code":0,"direction_code":"F","left_locality":"SOUTHBANK","right_locality":"SOUTHBANK"}},{"type":"Feature","id":345480,"geometry":{"type":"LineString","coordinates":[[144.961609844833,-37.8272876077989],[144.961498163582,-37.8271696038149]]},"properties":{"OBJECTID":345480,"ufi":45114444,"pfi":5682594,"ezi_road_name":"KINGS WAY","road_name":"KINGS","road_type":"WAY","class_code":2,"direction_code":"F","left_locality":"SOUTHBANK","right_locality":"SOUTHBANK"}},{"type":"Feature","id":152893,"geometry":{"type":"LineString","coordinates":[[144.961553375836,-37.8273133756678],[144.961296709193,-37.827143591102],[144.961076834849,-37.8270647901438],[144.960860796311,-37.827081704351],[144.960684065356,-37.8271334452829]]},"properties":{"OBJECTID":152893,"ufi":45114440,"pfi":5682629,"ezi_road_name":"KINGS IN-MORAY RAMP OF","road_name":"KINGS IN-MORAY","road_type":"RAMP","class_code":2,"direction_code":"F","left_locality":"SOUTHBANK","right_locality":"SOUTHBANK"}},{"type":"Feature","id":150916,"geometry":{"type":"LineString","coordinates":[[144.964234364564,-37.827106940131],[144.962971574023,-37.8273757929642]]},"properties":{"OBJECTID":150916,"ufi":45115920,"pfi":14272743,"ezi_road_name":"POWER-WEST GATE OUT RAMP ON","road_name":"POWER-WEST GATE OUT","road_type":"RAMP","class_code":0,"direction_code":"F","left_locality":"SOUTHBANK","right_locality":"SOUTHBANK"}},{"type":"Feature","id":186095,"geometry":{"type":"LineString","coordinates":[[144.964234364564,-37.827106940131],[144.964238406982,-37.8271102388185],[144.964338131657,-37.8272020797812],[144.964389047269,-37.8272687062]]},"properties":{"OBJECTID":186095,"ufi":47121790,"pfi":14272744,"ezi_road_name":"WEST GATE IN-KINGS RAMP OF","road_name":"WEST GATE IN-KINGS","road_type":"RAMP","class_code":0,"direction_code":"F","left_locality":"SOUTHBANK","right_locality":"SOUTHBANK"}},{"type":"Feature","id":321466,"geometry":{"type":"LineString","coordinates":[[144.965515607399,-37.8268102818732],[144.965415402126,-37.8268467889528],[144.96513889619,-37.8269221502477],[144.96482258231,-37.8269817041354],[144.964234364564,-37.827106940131]]},"properties":{"OBJECTID":321466,"ufi":45115894,"pfi":14310741,"ezi_road_name":"POWER-WEST GATE OUT RAMP ON","road_name":"POWER-WEST GATE OUT","road_type":"RAMP","class_code":0,"direction_code":"F","left_locality":"SOUTHBANK","right_locality":"SOUTHBANK"}},{"type":"Feature","id":186270,"geometry":{"type":"LineString","coordinates":[[144.961875399407,-37.827293756015],[144.961887251779,-37.8273057792704],[144.962054074317,-37.8274627498029]]},"properties":{"OBJECTID":186270,"ufi":47650376,"pfi":17225626,"ezi_road_name":"KINGS WAY","road_name":"KINGS","road_type":"WAY","class_code":2,"direction_code":"F","left_locality":"SOUTHBANK","right_locality":"SOUTHBANK"}},{"type":"Feature","id":872038,"geometry":{"type":"LineString","coordinates":[[144.967318409393,-37.8236221297273],[144.967231730053,-37.8239111380637],[144.966603095305,-37.8260067447777],[144.966581522264,-37.8260639621209],[144.966569716604,-37.8260954480315]]},"properties":{"OBJECTID":872038,"ufi":64819801,"pfi":14310647,"ezi_road_name":"STURT STREET","road_name":"STURT","road_type":"STREET","class_code":4,"direction_code":"B","left_locality":"SOUTHBANK","right_locality":"SOUTHBANK"}},{"type":"Feature","id":328108,"geometry":{"type":"LineString","coordinates":[[144.96559109912,-37.8264890172331],[144.965705154619,-37.8264679839297]]},"properties":{"OBJECTID":328108,"ufi":45115316,"pfi":10128135,"ezi_road_name":"BURNLEY TUNNEL","road_name":"BURNLEY","road_type":"TUNNEL","class_code":0,"direction_code":"F","left_locality":"SOUTHBANK","right_locality":"SOUTHBANK"}},{"type":"Feature","id":871216,"geometry":{"type":"LineString","coordinates":[[144.965658055948,-37.8266266911],[144.96559109912,-37.8264890172331]]},"properties":{"OBJECTID":871216,"ufi":63456850,"pfi":10128195,"ezi_road_name":"POWER STREET","road_name":"POWER","road_type":"STREET","class_code":2,"direction_code":"F","left_locality":"SOUTHBANK","right_locality":"SOUTHBANK"}},{"type":"Feature","id":314438,"geometry":{"type":"LineString","coordinates":[[144.965471170437,-37.8210003740948],[144.965941872374,-37.8208707281687]]},"properties":{"OBJECTID":314438,"ufi":56721757,"pfi":5679502,"ezi_road_name":"UNNAMED","road_name":"UNNAMED","road_type":null,"class_code":5,"direction_code":"B","left_locality":"SOUTHBANK","right_locality":"SOUTHBANK"}},{"type":"Feature","id":872609,"geometry":{"type":"LineString","coordinates":[[144.965471170437,-37.8210003740948],[144.965324225819,-37.8206569422124]]},"properties":{"OBJECTID":872609,"ufi":64819874,"pfi":5679503,"ezi_road_name":"SOUTHGATE AVENUE","road_name":"SOUTHGATE","road_type":"AVENUE","class_code":5,"direction_code":"B","left_locality":"SOUTHBANK","right_locality":"SOUTHBANK"}},{"type":"Feature","id":152766,"geometry":{"type":"LineString","coordinates":[[144.961761067228,-37.8274516738149],[144.961609844833,-37.8272876077989]]},"properties":{"OBJECTID":152766,"ufi":45114443,"pfi":5682689,"ezi_road_name":"KINGS WAY","road_name":"KINGS","road_type":"WAY","class_code":2,"direction_code":"F","left_locality":"SOUTHBANK","right_locality":"SOUTHBANK"}},{"type":"Feature","id":186238,"geometry":{"type":"LineString","coordinates":[[144.961553375836,-37.8273133756678],[144.961609844833,-37.8272876077989]]},"properties":{"OBJECTID":186238,"ufi":47121781,"pfi":5682628,"ezi_road_name":"WEST GATE IN-KINGS RAMP OF","road_name":"WEST GATE IN-KINGS","road_type":"RAMP","class_code":0,"direction_code":"F","left_locality":"SOUTHBANK","right_locality":"SOUTHBANK"}},{"type":"Feature","id":487546,"geometry":{"type":"LineString","coordinates":[[144.962971574023,-37.8273757929642],[144.962464672674,-37.82752072381],[144.962200187993,-37.8276002529819]]},"properties":{"OBJECTID":487546,"ufi":45114480,"pfi":16231666,"ezi_road_name":"WEST GATE FREEWAY","road_name":"WEST GATE","road_type":"FREEWAY","class_code":0,"direction_code":"F","left_locality":"SOUTHBANK","right_locality":"SOUTHBANK"}}]}