{"type":"FeatureCollection","crs":{"type":"name","properties":{"name":"EPSG:4326"}},"features":[{"type":"Feature","id":153768,"geometry":{"type":"LineString","coordinates":[[144.997792939737,-37.8264693888464],[144.997934054288,-37.8256726647971]]},"properties":{"OBJECTID":153768,"ufi":45108401,"pfi":5682156,"ezi_road_name":"CHURCH STREET","road_name":"CHURCH","road_type":"STREET","class_code":3,"direction_code":"B","left_locality":"CREMORNE","right_locality":"RICHMOND"}},{"type":"Feature","id":316691,"geometry":{"type":"LineString","coordinates":[[144.997338819801,-37.8256059972019],[144.997934054288,-37.8256726647971]]},"properties":{"OBJECTID":316691,"ufi":1392810,"pfi":5681714,"ezi_road_name":"SWAN STREET","road_name":"SWAN","road_type":"STREET","class_code":3,"direction_code":"B","left_locality":"RICHMOND","right_locality":"CREMORNE"}},{"type":"Feature","id":27526,"geometry":{"type":"LineString","coordinates":[[144.997934054288,-37.8256726647971],[144.998052976859,-37.8250168113023]]},"properties":{"OBJECTID":27526,"ufi":1392809,"pfi":5681713,"ezi_road_name":"CHURCH STREET","road_name":"CHURCH","road_type":"STREET","class_code":3,"direction_code":"B","left_locality":"RICHMOND","right_locality":"RICHMOND"}},{"type":"Feature","id":171062,"geometry":{"type":"LineString","coordinates":[[144.997934054288,-37.8256726647971],[144.998421366075,-37.8257262097115]]},"properties":{"OBJECTID":171062,"ufi":46235661,"pfi":5681731,"ezi_road_name":"SWAN STREET","road_name":"SWAN","road_type":"STREET","class_code":3,"direction_code":"B","left_locality":"RICHMOND","right_locality":"RICHMOND"}},{"type":"Feature","id":170788,"geometry":{"type":"LineString","coordinates":[[144.998421366075,-37.8257262097115],[144.998477014012,-37.8257323906975]]},"properties":{"OBJECTID":170788,"ufi":46235662,"pfi":16760936,"ezi_road_name":"SWAN STREET","road_name":"SWAN","road_type":"STREET","class_code":3,"direction_code":"B","left_locality":"RICHMOND","right_locality":"RICHMOND"}},{"type":"Feature","id":171100,"geometry":{"type":"LineString","coordinates":[[144.998556675713,-37.8250721391257],[144.99852489242,-37.8251540579184],[144.998421366075,-37.8257262097115]]},"properties":{"OBJECTID":171100,"ufi":46235660,"pfi":5681730,"ezi_road_name":"ST CRISPIN STREET","road_name":"ST CRISPIN","road_type":"STREET","class_code":5,"direction_code":"F","left_locality":"RICHMOND","right_locality":"RICHMOND"}},{"type":"Feature","id":170789,"geometry":{"type":"LineString","coordinates":[[144.998477014012,-37.8257323906975],[144.998392492425,-37.8262180112135],[144.998362193149,-37.8264154833081],[144.999280124046,-37.8265010867406],[144.9993912169,-37.8265198821032]]},"properties":{"OBJECTID":170789,"ufi":46235664,"pfi":5682193,"ezi_road_name":"LITTLE LESNEY STREET","road_name":"LITTLE LESNEY","road_type":"STREET","class_code":5,"direction_code":"F","left_locality":"RICHMOND","right_locality":"RICHMOND"}},{"type":"Feature","id":178643,"geometry":{"type":"LineString","coordinates":[[144.998477014012,-37.8257323906975],[144.999313833327,-37.8258252828144]]},"properties":{"OBJECTID":178643,"ufi":46907942,"pfi":16998283,"ezi_road_name":"SWAN STREET","road_name":"SWAN","road_type":"STREET","class_code":3,"direction_code":"B","left_locality":"RICHMOND","right_locality":"RICHMOND"}},{"type":"Feature","id":53434,"geometry":{"type":"LineString","coordinates":[[144.997338819801,-37.8256059972019],[144.99766219893,-37.8238106439418]]},"properties":{"OBJECTID":53434,"ufi":1392769,"pfi":5681674,"ezi_road_name":"DICKMANN STREET","road_name":"DICKMANN","road_type":"STREET","class_code":5,"direction_code":"B","left_locality":"RICHMOND","right_locality":"RICHMOND"}},{"type":"Feature","id":147716,"geometry":{"type":"LineString","coordinates":[[144.997338819801,-37.8256059972019],[144.996739680337,-37.8255388846505]]},"properties":{"OBJECTID":147716,"ufi":1392770,"pfi":5681675,"ezi_road_name":"SWAN STREET","road_name":"SWAN","road_type":"STREET","class_code":3,"direction_code":"B","left_locality":"CREMORNE","right_locality":"RICHMOND"}},{"type":"Feature","id":824717,"geometry":{"type":"LineString","coordinates":[[144.99743989105,-37.8259838969956],[144.997227205025,-37.8259653491325]]},"properties":{"OBJECTID":824717,"ufi":62818404,"pfi":19239829,"ezi_road_name":"MILTON PLACE","road_name":"MILTON","road_type":"PLACE","class_code":5,"direction_code":"B","left_locality":"CREMORNE","right_locality":"CREMORNE"}},{"type":"Feature","id":269012,"geometry":{"type":"LineString","coordinates":[[144.997227205025,-37.8259653491325],[144.997067643569,-37.8259514431991],[144.996673849997,-37.8259047158944]]},"properties":{"OBJECTID":269012,"ufi":54201812,"pfi":19239830,"ezi_road_name":"MILTON PLACE","road_name":"MILTON","road_type":"PLACE","class_code":5,"direction_code":"B","left_locality":"CREMORNE","right_locality":"CREMORNE"}},{"type":"Feature","id":718650,"geometry":{"type":"LineString","coordinates":[[144.997317515356,-37.8261375772857],[144.997321252347,-37.8261156022996],[144.997227205025,-37.8259653491325]]},"properties":{"OBJECTID":718650,"ufi":61556577,"pfi":19239900,"ezi_road_name":"UNNAMED","road_name":"UNNAMED","road_type":null,"class_code":6,"direction_code":"B","left_locality":"CREMORNE","right_locality":"CREMORNE"}},{"type":"Feature","id":718649,"geometry":{"type":"LineString","coordinates":[[144.996402368338,-37.8261642772043],[144.997018152686,-37.826246907179],[144.997239746405,-37.8262600481555],[144.997303415399,-37.8262206493438],[144.997317515356,-37.8261375772857]]},"properties":{"OBJECTID":718649,"ufi":61556576,"pfi":19239899,"ezi_road_name":"UNNAMED","road_name":"UNNAMED","road_type":null,"class_code":6,"direction_code":"B","left_locality":"CREMORNE","right_locality":"CREMORNE"}},{"type":"Feature","id":718651,"geometry":{"type":"LineString","coordinates":[[144.996429863074,-37.8260228659414],[144.997317515356,-37.8261375772857]]},"properties":{"OBJECTID":718651,"ufi":61556578,"pfi":19239901,"ezi_road_name":"UNNAMED","road_name":"UNNAMED","road_type":null,"class_code":6,"direction_code":"B","left_locality":"CREMORNE","right_locality":"CREMORNE"}},{"type":"Feature","id":482017,"geometry":{"type":"LineString","coordinates":[[144.998052976859,-37.8250168113023],[144.998556675713,-37.8250721391257]]},"properties":{"OBJECTID":482017,"ufi":46235659,"pfi":5681412,"ezi_road_name":"CHARLOTTE STREET","road_name":"CHARLOTTE","road_type":"STREET","class_code":5,"direction_code":"B","left_locality":"RICHMOND","right_locality":"RICHMOND"}},{"type":"Feature","id":988413,"geometry":{"type":"LineString","coordinates":[[144.998052976859,-37.8250168113023],[144.998170433379,-37.8243689212058]]},"properties":{"OBJECTID":988413,"ufi":1392474,"pfi":5681380,"ezi_road_name":"CHURCH STREET","road_name":"CHURCH","road_type":"STREET","class_code":3,"direction_code":"B","left_locality":"RICHMOND","right_locality":"RICHMOND"}},{"type":"Feature","id":824718,"geometry":{"type":"LineString","coordinates":[[144.998751010953,-37.8260971367783],[144.999453092857,-37.826175997663]]},"properties":{"OBJECTID":824718,"ufi":62818405,"pfi":5681987,"ezi_road_name":"WILTSHIRE STREET","road_name":"WILTSHIRE","road_type":"STREET","class_code":5,"direction_code":"B","left_locality":"RICHMOND","right_locality":"RICHMOND"}},{"type":"Feature","id":171098,"geometry":{"type":"LineString","coordinates":[[144.998675729438,-37.8244233299076],[144.998556675713,-37.8250721391257]]},"properties":{"OBJECTID":171098,"ufi":46235657,"pfi":5681411,"ezi_road_name":"ST CRISPIN STREET","road_name":"ST CRISPIN","road_type":"STREET","class_code":5,"direction_code":"B","left_locality":"RICHMOND","right_locality":"RICHMOND"}},{"type":"Feature","id":171099,"geometry":{"type":"LineString","coordinates":[[144.998556675713,-37.8250721391257],[145.000386693067,-37.8252722510316]]},"properties":{"OBJECTID":171099,"ufi":46235658,"pfi":5681488,"ezi_road_name":"CHARLOTTE STREET","road_name":"CHARLOTTE","road_type":"STREET","class_code":5,"direction_code":"B","left_locality":"RICHMOND","right_locality":"RICHMOND"}},{"type":"Feature","id":319801,"geometry":{"type":"LineString","coordinates":[[144.997777591122,-37.8265559749474],[144.997786078404,-37.8265081226736],[144.997786702734,-37.8265045550385],[144.997792939737,-37.8264693888464]]},"properties":{"OBJECTID":319801,"ufi":45108402,"pfi":5682205,"ezi_road_name":"CHURCH STREET","road_name":"CHURCH","road_type":"STREET","class_code":3,"direction_code":"B","left_locality":"CREMORNE","right_locality":"RICHMOND"}},{"type":"Feature","id":153769,"geometry":{"type":"LineString","coordinates":[[144.997758731891,-37.8266624546599],[144.997777591122,-37.8265559749474]]},"properties":{"OBJECTID":153769,"ufi":45108403,"pfi":5682280,"ezi_road_name":"CHURCH STREET","road_name":"CHURCH","road_type":"STREET","class_code":3,"direction_code":"B","left_locality":"CREMORNE","right_locality":"RICHMOND"}},{"type":"Feature","id":466700,"geometry":{"type":"LineString","coordinates":[[144.999313833327,-37.8258252828144],[144.999355727158,-37.825603637198],[144.999346992839,-37.825581327849],[144.999328091387,-37.8255655698849],[144.999302396875,-37.8255590277176],[144.999031439832,-37.8255290408846]]},"properties":{"OBJECTID":466700,"ufi":46907944,"pfi":16998285,"ezi_road_name":"YAN LANE","road_name":"YAN","road_type":"LANE","class_code":5,"direction_code":"B","left_locality":"RICHMOND","right_locality":"RICHMOND"}},{"type":"Feature","id":27318,"geometry":{"type":"LineString","coordinates":[[144.997074989094,-37.8237406857607],[144.996759540292,-37.8254501729225],[144.996739680337,-37.8255388846505]]},"properties":{"OBJECTID":27318,"ufi":1392727,"pfi":5681632,"ezi_road_name":"DOCKER STREET","road_name":"DOCKER","road_type":"STREET","class_code":5,"direction_code":"B","left_locality":"RICHMOND","right_locality":"RICHMOND"}},{"type":"Feature","id":27319,"geometry":{"type":"LineString","coordinates":[[144.996528551991,-37.8255152363365],[144.996739680337,-37.8255388846505]]},"properties":{"OBJECTID":27319,"ufi":1392728,"pfi":5681633,"ezi_road_name":"SWAN STREET","road_name":"SWAN","road_type":"STREET","class_code":3,"direction_code":"B","left_locality":"RICHMOND","right_locality":"CREMORNE"}},{"type":"Feature","id":53439,"geometry":{"type":"LineString","coordinates":[[144.996673849997,-37.8259047158944],[144.996720115929,-37.8256276331691],[144.996739680337,-37.8255388846505]]},"properties":{"OBJECTID":53439,"ufi":1392927,"pfi":5681831,"ezi_road_name":"SHAKESPEARE PLACE","road_name":"SHAKESPEARE","road_type":"PLACE","class_code":5,"direction_code":"B","left_locality":"CREMORNE","right_locality":"CREMORNE"}},{"type":"Feature","id":31208,"geometry":{"type":"LineString","coordinates":[[144.999332497623,-37.8268462241507],[144.999220554064,-37.8268309603038],[144.997758731891,-37.8266624546599]]},"properties":{"OBJECTID":31208,"ufi":1393468,"pfi":5682371,"ezi_road_name":"LESNEY STREET","road_name":"LESNEY","road_type":"STREET","class_code":5,"direction_code":"F","left_locality":"RICHMOND","right_locality":"RICHMOND"}},{"type":"Feature","id":156600,"geometry":{"type":"LineString","coordinates":[[144.997721671894,-37.8268716572662],[144.997758731891,-37.8266624546599]]},"properties":{"OBJECTID":156600,"ufi":1393483,"pfi":5682386,"ezi_road_name":"CHURCH STREET","road_name":"CHURCH","road_type":"STREET","class_code":3,"direction_code":"B","left_locality":"CREMORNE","right_locality":"RICHMOND"}},{"type":"Feature","id":1268529,"geometry":{"type":"LineString","coordinates":[[144.999313833327,-37.8258252828144],[144.999512219071,-37.8258473040083]]},"properties":{"OBJECTID":1268529,"ufi":46907943,"pfi":16998284,"ezi_road_name":"SWAN STREET","road_name":"SWAN","road_type":"STREET","class_code":3,"direction_code":"B","left_locality":"RICHMOND","right_locality":"RICHMOND"}},{"type":"Feature","id":269014,"geometry":{"type":"LineString","coordinates":[[144.996429863074,-37.8260228659414],[144.996528551991,-37.8255152363365]]},"properties":{"OBJECTID":269014,"ufi":54201814,"pfi":19239832,"ezi_road_name":"ROYAL PLACE","road_name":"ROYAL","road_type":"PLACE","class_code":5,"direction_code":"B","left_locality":"CREMORNE","right_locality":"CREMORNE"}},{"type":"Feature","id":27262,"geometry":{"type":"LineString","coordinates":[[144.996177731127,-37.8254759329182],[144.996528551991,-37.8255152363365]]},"properties":{"OBJECTID":27262,"ufi":1392713,"pfi":5681618,"ezi_road_name":"SWAN STREET","road_name":"SWAN","road_type":"STREET","class_code":3,"direction_code":"B","left_locality":"RICHMOND","right_locality":"CREMORNE"}},{"type":"Feature","id":994580,"geometry":{"type":"LineString","coordinates":[[144.996116413922,-37.8265942517772],[144.99629476993,-37.826706756947],[144.997721671894,-37.8268716572662]]},"properties":{"OBJECTID":994580,"ufi":1393484,"pfi":5682387,"ezi_road_name":"ADOLPH STREET","road_name":"ADOLPH","road_type":"STREET","class_code":5,"direction_code":"F","left_locality":"CREMORNE","right_locality":"CREMORNE"}},{"type":"Feature","id":483279,"geometry":{"type":"LineString","coordinates":[[144.997684656812,-37.8270806251285],[144.997721671894,-37.8268716572662]]},"properties":{"OBJECTID":483279,"ufi":1393595,"pfi":5682498,"ezi_road_name":"CHURCH STREET","road_name":"CHURCH","road_type":"STREET","class_code":3,"direction_code":"B","left_locality":"CREMORNE","right_locality":"RICHMOND"}},{"type":"Feature","id":269013,"geometry":{"type":"LineString","coordinates":[[144.996402368338,-37.8261642772043],[144.996429863074,-37.8260228659414]]},"properties":{"OBJECTID":269013,"ufi":54201813,"pfi":19239831,"ezi_road_name":"ROYAL PLACE","road_name":"ROYAL","road_type":"PLACE","class_code":5,"direction_code":"B","left_locality":"CREMORNE","right_locality":"CREMORNE"}},{"type":"Feature","id":173890,"geometry":{"type":"LineString","coordinates":[[144.999512219071,-37.8258473040083],[144.999453092857,-37.826175997663]]},"properties":{"OBJECTID":173890,"ufi":1393083,"pfi":5681986,"ezi_road_name":"BRIGHTON STREET","road_name":"BRIGHTON","road_type":"STREET","class_code":5,"direction_code":"B","left_locality":"RICHMOND","right_locality":"RICHMOND"}},{"type":"Feature","id":321856,"geometry":{"type":"LineString","coordinates":[[144.999512219071,-37.8258473040083],[145.000262722863,-37.8259303409152]]},"properties":{"OBJECTID":321856,"ufi":1392944,"pfi":5681848,"ezi_road_name":"SWAN STREET","road_name":"SWAN","road_type":"STREET","class_code":3,"direction_code":"B","left_locality":"RICHMOND","right_locality":"RICHMOND"}},{"type":"Feature","id":328624,"geometry":{"type":"LineString","coordinates":[[144.996215916713,-37.8262067257196],[144.996402368338,-37.8261642772043]]},"properties":{"OBJECTID":328624,"ufi":57401241,"pfi":19239828,"ezi_road_name":"ROYAL PLACE","road_name":"ROYAL","road_type":"PLACE","class_code":5,"direction_code":"B","left_locality":"CREMORNE","right_locality":"CREMORNE"}},{"type":"Feature","id":27461,"geometry":{"type":"LineString","coordinates":[[144.999453092857,-37.826175997663],[144.9993912169,-37.8265198821032]]},"properties":{"OBJECTID":27461,"ufi":1393289,"pfi":5682192,"ezi_road_name":"BRIGHTON STREET","road_name":"BRIGHTON","road_type":"STREET","class_code":5,"direction_code":"B","left_locality":"RICHMOND","right_locality":"RICHMOND"}},{"type":"Feature","id":29324,"geometry":{"type":"LineString","coordinates":[[144.998258065831,-37.8238816167543],[144.998170433379,-37.8243689212058]]},"properties":{"OBJECTID":29324,"ufi":1392171,"pfi":5681077,"ezi_road_name":"CHURCH STREET","road_name":"CHURCH","road_type":"STREET","class_code":3,"direction_code":"B","left_locality":"RICHMOND","right_locality":"RICHMOND"}},{"type":"Feature","id":171097,"geometry":{"type":"LineString","coordinates":[[144.998170433379,-37.8243689212058],[144.998675729438,-37.8244233299076]]},"properties":{"OBJECTID":171097,"ufi":46235656,"pfi":5681102,"ezi_road_name":"ELM GROVE","road_name":"ELM","road_type":"GROVE","class_code":5,"direction_code":"B","left_locality":"RICHMOND","right_locality":"RICHMOND"}},{"type":"Feature","id":171096,"geometry":{"type":"LineString","coordinates":[[144.998675729438,-37.8244233299076],[145.000399445551,-37.8246082679626],[145.00051281833,-37.8246027709098]]},"properties":{"OBJECTID":171096,"ufi":46235655,"pfi":5681190,"ezi_road_name":"ELM GROVE","road_name":"ELM","road_type":"GROVE","class_code":5,"direction_code":"B","left_locality":"RICHMOND","right_locality":"RICHMOND"}},{"type":"Feature","id":27260,"geometry":{"type":"LineString","coordinates":[[144.996177731127,-37.8254759329182],[144.996511961904,-37.8236736091207]]},"properties":{"OBJECTID":27260,"ufi":1392696,"pfi":5681601,"ezi_road_name":"WAVERLEY STREET","road_name":"WAVERLEY","road_type":"STREET","class_code":5,"direction_code":"F","left_locality":"RICHMOND","right_locality":"RICHMOND"}},{"type":"Feature","id":147715,"geometry":{"type":"LineString","coordinates":[[144.995626527563,-37.8254141866816],[144.996177731127,-37.8254759329182]]},"properties":{"OBJECTID":147715,"ufi":1392697,"pfi":5681602,"ezi_road_name":"SWAN STREET","road_name":"SWAN","road_type":"STREET","class_code":3,"direction_code":"B","left_locality":"RICHMOND","right_locality":"CREMORNE"}},{"type":"Feature","id":27966,"geometry":{"type":"LineString","coordinates":[[144.997684656812,-37.8270806251285],[144.999253649796,-37.8272845510746]]},"properties":{"OBJECTID":27966,"ufi":1393714,"pfi":5682617,"ezi_road_name":"SHAMROCK STREET","road_name":"SHAMROCK","road_type":"STREET","class_code":5,"direction_code":"F","left_locality":"RICHMOND","right_locality":"RICHMOND"}},{"type":"Feature","id":145708,"geometry":{"type":"LineString","coordinates":[[144.997672613998,-37.8271486139879],[144.997684656812,-37.8270806251285]]},"properties":{"OBJECTID":145708,"ufi":1393632,"pfi":5682535,"ezi_road_name":"CHURCH STREET","road_name":"CHURCH","road_type":"STREET","class_code":3,"direction_code":"B","left_locality":"CREMORNE","right_locality":"RICHMOND"}},{"type":"Feature","id":319802,"geometry":{"type":"LineString","coordinates":[[144.9993912169,-37.8265198821032],[145.000397887872,-37.8266332828413]]},"properties":{"OBJECTID":319802,"ufi":45183372,"pfi":5682268,"ezi_road_name":"LITTLE LESNEY STREET","road_name":"LITTLE LESNEY","road_type":"STREET","class_code":5,"direction_code":"F","left_locality":"RICHMOND","right_locality":"RICHMOND"}},{"type":"Feature","id":328787,"geometry":{"type":"LineString","coordinates":[[144.996215916713,-37.8262067257196],[144.995489167071,-37.8261154752889]]},"properties":{"OBJECTID":328787,"ufi":57401277,"pfi":19431972,"ezi_road_name":"RAILWAY PLACE","road_name":"RAILWAY","road_type":"PLACE","class_code":5,"direction_code":"B","left_locality":"CREMORNE","right_locality":"CREMORNE"}},{"type":"Feature","id":175031,"geometry":{"type":"LineString","coordinates":[[144.997672613998,-37.8271486139879],[144.996050443444,-37.8269633353295]]},"properties":{"OBJECTID":175031,"ufi":1393633,"pfi":5682536,"ezi_road_name":"PEARSON STREET","road_name":"PEARSON","road_type":"STREET","class_code":5,"direction_code":"F","left_locality":"CREMORNE","right_locality":"CREMORNE"}},{"type":"Feature","id":28035,"geometry":{"type":"LineString","coordinates":[[144.997672613998,-37.8271486139879],[144.997627635351,-37.8274024966921]]},"properties":{"OBJECTID":28035,"ufi":1393770,"pfi":5682673,"ezi_road_name":"CHURCH STREET","road_name":"CHURCH","road_type":"STREET","class_code":3,"direction_code":"B","left_locality":"RICHMOND","right_locality":"CREMORNE"}},{"type":"Feature","id":451941,"geometry":{"type":"LineString","coordinates":[[144.999283764918,-37.8271171001447],[144.999332497623,-37.8268462241507]]},"properties":{"OBJECTID":451941,"ufi":1393620,"pfi":5682523,"ezi_road_name":"BRIGHTON STREET","road_name":"BRIGHTON","road_type":"STREET","class_code":5,"direction_code":"B","left_locality":"RICHMOND","right_locality":"RICHMOND"}},{"type":"Feature","id":481520,"geometry":{"type":"LineString","coordinates":[[145.000913418437,-37.8270460190447],[145.000695649745,-37.826994654822],[144.999444636117,-37.8268605946709],[144.999332497623,-37.8268462241507]]},"properties":{"OBJECTID":481520,"ufi":1393575,"pfi":5682478,"ezi_road_name":"LESNEY STREET","road_name":"LESNEY","road_type":"STREET","class_code":5,"direction_code":"F","left_locality":"RICHMOND","right_locality":"RICHMOND"}},{"type":"Feature","id":30956,"geometry":{"type":"LineString","coordinates":[[144.996116413922,-37.8265942517772],[144.995974781043,-37.8265049041388],[144.995890941277,-37.8264688879014],[144.995778260201,-37.8264553240679]]},"properties":{"OBJECTID":30956,"ufi":1393339,"pfi":5682242,"ezi_road_name":"RAILWAY CRESCENT","road_name":"RAILWAY","road_type":"CRESCENT","class_code":5,"direction_code":"B","left_locality":"CREMORNE","right_locality":"CREMORNE"}},{"type":"Feature","id":31268,"geometry":{"type":"LineString","coordinates":[[144.996116413922,-37.8265942517772],[144.996050443444,-37.8269633353295]]},"properties":{"OBJECTID":31268,"ufi":1393519,"pfi":5682422,"ezi_road_name":"WALNUT STREET","road_name":"WALNUT","road_type":"STREET","class_code":5,"direction_code":"F","left_locality":"CREMORNE","right_locality":"CREMORNE"}},{"type":"Feature","id":320136,"geometry":{"type":"LineString","coordinates":[[144.997627635351,-37.8274024966921],[144.997400527773,-37.8274066638493],[144.996533057941,-37.8273034420263]]},"properties":{"OBJECTID":320136,"ufi":51580546,"pfi":18434845,"ezi_road_name":"CHAPEL STREET","road_name":"CHAPEL","road_type":"STREET","class_code":5,"direction_code":"F","left_locality":"CREMORNE","right_locality":"CREMORNE"}},{"type":"Feature","id":908855,"geometry":{"type":"LineString","coordinates":[[144.99757203233,-37.8277164937752],[144.997583632275,-37.8276466762383],[144.997627635351,-37.8274024966921]]},"properties":{"OBJECTID":908855,"ufi":66343919,"pfi":5682837,"ezi_road_name":"CHURCH STREET","road_name":"CHURCH","road_type":"STREET","class_code":3,"direction_code":"B","left_locality":"CREMORNE","right_locality":"RICHMOND"}},{"type":"Feature","id":27965,"geometry":{"type":"LineString","coordinates":[[144.999283764918,-37.8271171001447],[144.999253649796,-37.8272845510746]]},"properties":{"OBJECTID":27965,"ufi":1393713,"pfi":5682616,"ezi_road_name":"BRIGHTON STREET","road_name":"BRIGHTON","road_type":"STREET","class_code":5,"direction_code":"B","left_locality":"RICHMOND","right_locality":"RICHMOND"}},{"type":"Feature","id":315803,"geometry":{"type":"LineString","coordinates":[[144.999283764918,-37.8271171001447],[144.99988845058,-37.8271986881472],[145.00027383682,-37.8272322681551],[145.000624907416,-37.8272742796852],[145.000867619629,-37.8272967772616]]},"properties":{"OBJECTID":315803,"ufi":1393724,"pfi":5682627,"ezi_road_name":"LITTLE JAMES STREET","road_name":"LITTLE JAMES","road_type":"STREET","class_code":5,"direction_code":"B","left_locality":"RICHMOND","right_locality":"RICHMOND"}},{"type":"Feature","id":147340,"geometry":{"type":"LineString","coordinates":[[144.998258065831,-37.8238816167543],[144.99766219893,-37.8238106439418]]},"properties":{"OBJECTID":147340,"ufi":1391953,"pfi":5680861,"ezi_road_name":"GIPPS STREET","road_name":"GIPPS","road_type":"STREET","class_code":5,"direction_code":"B","left_locality":"RICHMOND","right_locality":"RICHMOND"}},{"type":"Feature","id":344401,"geometry":{"type":"LineString","coordinates":[[144.998644020705,-37.8216480759155],[144.998258065831,-37.8238816167543]]},"properties":{"OBJECTID":344401,"ufi":57755389,"pfi":5680860,"ezi_road_name":"CHURCH STREET","road_name":"CHURCH","road_type":"STREET","class_code":3,"direction_code":"B","left_locality":"RICHMOND","right_locality":"RICHMOND"}},{"type":"Feature","id":29227,"geometry":{"type":"LineString","coordinates":[[144.995626527563,-37.8254141866816],[144.995954150334,-37.8236071426599]]},"properties":{"OBJECTID":29227,"ufi":1392675,"pfi":5681580,"ezi_road_name":"CLIFTON STREET","road_name":"CLIFTON","road_type":"STREET","class_code":5,"direction_code":"B","left_locality":"RICHMOND","right_locality":"RICHMOND"}},{"type":"Feature","id":29228,"geometry":{"type":"LineString","coordinates":[[144.995252309179,-37.8253722578211],[144.995626527563,-37.8254141866816]]},"properties":{"OBJECTID":29228,"ufi":1392676,"pfi":5681581,"ezi_road_name":"SWAN STREET","road_name":"SWAN","road_type":"STREET","class_code":3,"direction_code":"B","left_locality":"RICHMOND","right_locality":"CREMORNE"}},{"type":"Feature","id":27787,"geometry":{"type":"LineString","coordinates":[[145.000386693067,-37.8252722510316],[145.000262722863,-37.8259303409152]]},"properties":{"OBJECTID":27787,"ufi":1392943,"pfi":5681847,"ezi_road_name":"CHARLES STREET","road_name":"CHARLES","road_type":"STREET","class_code":5,"direction_code":"B","left_locality":"RICHMOND","right_locality":"RICHMOND"}},{"type":"Feature","id":1246493,"geometry":{"type":"LineString","coordinates":[[145.000262722863,-37.8259303409152],[145.000521471801,-37.8259589652323]]},"properties":{"OBJECTID":1246493,"ufi":1392967,"pfi":5681870,"ezi_road_name":"SWAN STREET","road_name":"SWAN","road_type":"STREET","class_code":3,"direction_code":"B","left_locality":"RICHMOND","right_locality":"RICHMOND"}},{"type":"Feature","id":244630,"geometry":{"type":"LineString","coordinates":[[144.995778260201,-37.8264553240679],[144.995711878295,-37.8268309397269]]},"properties":{"OBJECTID":244630,"ufi":51580542,"pfi":18434841,"ezi_road_name":"CHESTNUT STREET","road_name":"CHESTNUT","road_type":"STREET","class_code":5,"direction_code":"F","left_locality":"CREMORNE","right_locality":"CREMORNE"}},{"type":"Feature","id":283784,"geometry":{"type":"LineString","coordinates":[[144.995778260201,-37.8264553240679],[144.995430524151,-37.8264159558713]]},"properties":{"OBJECTID":283784,"ufi":54741152,"pfi":19431970,"ezi_road_name":"RAILWAY CRESCENT","road_name":"RAILWAY","road_type":"CRESCENT","class_code":5,"direction_code":"B","left_locality":"CREMORNE","right_locality":"CREMORNE"}},{"type":"Feature","id":28107,"geometry":{"type":"LineString","coordinates":[[144.99766219893,-37.8238106439418],[144.997074989094,-37.8237406857607]]},"properties":{"OBJECTID":28107,"ufi":1391919,"pfi":5680827,"ezi_road_name":"GIPPS STREET","road_name":"GIPPS","road_type":"STREET","class_code":5,"direction_code":"B","left_locality":"RICHMOND","right_locality":"RICHMOND"}},{"type":"Feature","id":484295,"geometry":{"type":"LineString","coordinates":[[144.999253649796,-37.8272845510746],[144.999222989397,-37.8274549199807]]},"properties":{"OBJECTID":484295,"ufi":1393791,"pfi":5682694,"ezi_road_name":"BRIGHTON STREET","road_name":"BRIGHTON","road_type":"STREET","class_code":5,"direction_code":"B","left_locality":"RICHMOND","right_locality":"RICHMOND"}},{"type":"Feature","id":489126,"geometry":{"type":"LineString","coordinates":[[144.996040331109,-37.8270199360428],[144.996533057941,-37.8273034420263]]},"properties":{"OBJECTID":489126,"ufi":51580658,"pfi":18434934,"ezi_road_name":"BURNLEY TUNNEL","road_name":"BURNLEY","road_type":"TUNNEL","class_code":0,"direction_code":"F","left_locality":"CREMORNE","right_locality":"CREMORNE"}},{"type":"Feature","id":244633,"geometry":{"type":"LineString","coordinates":[[144.996533057941,-37.8273034420263],[144.996000982204,-37.8272401207065]]},"properties":{"OBJECTID":244633,"ufi":51580547,"pfi":18434846,"ezi_road_name":"CHAPEL STREET","road_name":"CHAPEL","road_type":"STREET","class_code":5,"direction_code":"F","left_locality":"CREMORNE","right_locality":"CREMORNE"}},{"type":"Feature","id":249683,"geometry":{"type":"LineString","coordinates":[[144.996533057941,-37.8273034420263],[144.99657760809,-37.8273290757855],[144.997153283559,-37.8276658133086]]},"properties":{"OBJECTID":249683,"ufi":51580659,"pfi":18434935,"ezi_road_name":"BURNLEY TUNNEL","road_name":"BURNLEY","road_type":"TUNNEL","class_code":0,"direction_code":"F","left_locality":"CREMORNE","right_locality":"CREMORNE"}},{"type":"Feature","id":250315,"geometry":{"type":"LineString","coordinates":[[144.996050443444,-37.8269633353295],[144.996040331109,-37.8270199360428]]},"properties":{"OBJECTID":250315,"ufi":51580544,"pfi":18434843,"ezi_road_name":"WALNUT STREET","road_name":"WALNUT","road_type":"STREET","class_code":5,"direction_code":"F","left_locality":"CREMORNE","right_locality":"CREMORNE"}},{"type":"Feature","id":283251,"geometry":{"type":"LineString","coordinates":[[144.995430524151,-37.8264159558713],[144.995489167071,-37.8261154752889]]},"properties":{"OBJECTID":283251,"ufi":54741247,"pfi":19432037,"ezi_road_name":"UNNAMED","road_name":"UNNAMED","road_type":null,"class_code":9,"direction_code":"B","left_locality":"CREMORNE","right_locality":"CREMORNE"}},{"type":"Feature","id":283786,"geometry":{"type":"LineString","coordinates":[[144.995489167071,-37.8261154752889],[144.995125621571,-37.8260698251967]]},"properties":{"OBJECTID":283786,"ufi":54741155,"pfi":19431973,"ezi_road_name":"RAILWAY PLACE","road_name":"RAILWAY","road_type":"PLACE","class_code":5,"direction_code":"B","left_locality":"CREMORNE","right_locality":"CREMORNE"}},{"type":"Feature","id":148989,"geometry":{"type":"LineString","coordinates":[[145.000386693067,-37.8252722510316],[145.00051281833,-37.8246027709098]]},"properties":{"OBJECTID":148989,"ufi":1392581,"pfi":5681487,"ezi_road_name":"CHARLES STREET","road_name":"CHARLES","road_type":"STREET","class_code":5,"direction_code":"B","left_locality":"RICHMOND","right_locality":"RICHMOND"}},{"type":"Feature","id":244632,"geometry":{"type":"LineString","coordinates":[[144.996040331109,-37.8270199360428],[144.996000982204,-37.8272401207065]]},"properties":{"OBJECTID":244632,"ufi":51580545,"pfi":18434844,"ezi_road_name":"WALNUT STREET","road_name":"WALNUT","road_type":"STREET","class_code":5,"direction_code":"F","left_locality":"CREMORNE","right_locality":"CREMORNE"}},{"type":"Feature","id":316193,"geometry":{"type":"LineString","coordinates":[[144.995711878295,-37.8268309397269],[144.996040331109,-37.8270199360428]]},"properties":{"OBJECTID":316193,"ufi":51580657,"pfi":18434933,"ezi_road_name":"BURNLEY TUNNEL","road_name":"BURNLEY","road_type":"TUNNEL","class_code":0,"direction_code":"F","left_locality":"CREMORNE","right_locality":"CREMORNE"}},{"type":"Feature","id":148994,"geometry":{"type":"LineString","coordinates":[[144.999222989397,-37.8274549199807],[145.000807090247,-37.8276282189051]]},"properties":{"OBJECTID":148994,"ufi":1393899,"pfi":5682802,"ezi_road_name":"JAMES STREET","road_name":"JAMES","road_type":"STREET","class_code":5,"direction_code":"B","left_locality":"RICHMOND","right_locality":"RICHMOND"}},{"type":"Feature","id":328629,"geometry":{"type":"LineString","coordinates":[[144.999222989397,-37.8274549199807],[144.999162191419,-37.8277803518091]]},"properties":{"OBJECTID":328629,"ufi":57401248,"pfi":5682755,"ezi_road_name":"BRIGHTON STREET","road_name":"BRIGHTON","road_type":"STREET","class_code":5,"direction_code":"B","left_locality":"RICHMOND","right_locality":"RICHMOND"}},{"type":"Feature","id":244443,"geometry":{"type":"LineString","coordinates":[[144.997153283559,-37.8276658133086],[144.99757203233,-37.8277164937752]]},"properties":{"OBJECTID":244443,"ufi":51580559,"pfi":18434858,"ezi_road_name":"HUTCHINGS STREET","road_name":"HUTCHINGS","road_type":"STREET","class_code":5,"direction_code":"B","left_locality":"CREMORNE","right_locality":"CREMORNE"}},{"type":"Feature","id":1230520,"geometry":{"type":"LineString","coordinates":[[144.997541037758,-37.8278914680194],[144.99757203233,-37.8277164937752]]},"properties":{"OBJECTID":1230520,"ufi":51580528,"pfi":18434831,"ezi_road_name":"CHURCH STREET","road_name":"CHURCH","road_type":"STREET","class_code":3,"direction_code":"B","left_locality":"CREMORNE","right_locality":"RICHMOND"}},{"type":"Feature","id":28100,"geometry":{"type":"LineString","coordinates":[[144.997074989094,-37.8237406857607],[144.997334743246,-37.8223818379511]]},"properties":{"OBJECTID":28100,"ufi":1391895,"pfi":5680803,"ezi_road_name":"DOCKER STREET","road_name":"DOCKER","road_type":"STREET","class_code":5,"direction_code":"B","left_locality":"RICHMOND","right_locality":"RICHMOND"}},{"type":"Feature","id":147333,"geometry":{"type":"LineString","coordinates":[[144.997074989094,-37.8237406857607],[144.996511961904,-37.8236736091207]]},"properties":{"OBJECTID":147333,"ufi":1391896,"pfi":5680804,"ezi_road_name":"GIPPS STREET","road_name":"GIPPS","road_type":"STREET","class_code":5,"direction_code":"B","left_locality":"RICHMOND","right_locality":"RICHMOND"}},{"type":"Feature","id":30960,"geometry":{"type":"LineString","coordinates":[[145.000521471801,-37.8259589652323],[145.000397887872,-37.8266332828413]]},"properties":{"OBJECTID":30960,"ufi":1393364,"pfi":5682267,"ezi_road_name":"HARVEY STREET","road_name":"HARVEY","road_type":"STREET","class_code":5,"direction_code":"B","left_locality":"RICHMOND","right_locality":"RICHMOND"}},{"type":"Feature","id":175891,"geometry":{"type":"LineString","coordinates":[[145.000521471801,-37.8259589652323],[145.001074136923,-37.8260198332897]]},"properties":{"OBJECTID":175891,"ufi":1392988,"pfi":5681891,"ezi_road_name":"SWAN STREET","road_name":"SWAN","road_type":"STREET","class_code":3,"direction_code":"B","left_locality":"RICHMOND","right_locality":"RICHMOND"}},{"type":"Feature","id":244442,"geometry":{"type":"LineString","coordinates":[[144.995953304121,-37.8275086892369],[144.996053106051,-37.8275326498209],[144.997153283559,-37.8276658133086]]},"properties":{"OBJECTID":244442,"ufi":51580558,"pfi":18434857,"ezi_road_name":"HUTCHINGS STREET","road_name":"HUTCHINGS","road_type":"STREET","class_code":5,"direction_code":"B","left_locality":"CREMORNE","right_locality":"CREMORNE"}},{"type":"Feature","id":249684,"geometry":{"type":"LineString","coordinates":[[144.997153283559,-37.8276658133086],[144.997422767364,-37.8278234401101],[144.997541037758,-37.8278914680194]]},"properties":{"OBJECTID":249684,"ufi":51580660,"pfi":18434936,"ezi_road_name":"BURNLEY TUNNEL","road_name":"BURNLEY","road_type":"TUNNEL","class_code":0,"direction_code":"F","left_locality":"CREMORNE","right_locality":"CREMORNE"}},{"type":"Feature","id":244631,"geometry":{"type":"LineString","coordinates":[[144.995711878295,-37.8268309397269],[144.995646506993,-37.8272008160783]]},"properties":{"OBJECTID":244631,"ufi":51580543,"pfi":18434842,"ezi_road_name":"CHESTNUT STREET","road_name":"CHESTNUT","road_type":"STREET","class_code":5,"direction_code":"F","left_locality":"CREMORNE","right_locality":"CREMORNE"}},{"type":"Feature","id":249682,"geometry":{"type":"LineString","coordinates":[[144.995054907988,-37.8264717133449],[144.99563412731,-37.8267862018501],[144.995711878295,-37.8268309397269]]},"properties":{"OBJECTID":249682,"ufi":51580656,"pfi":18434932,"ezi_road_name":"BURNLEY TUNNEL","road_name":"BURNLEY","road_type":"TUNNEL","class_code":0,"direction_code":"F","left_locality":"CREMORNE","right_locality":"CREMORNE"}},{"type":"Feature","id":283785,"geometry":{"type":"LineString","coordinates":[[144.995430524151,-37.8264159558713],[144.995069057352,-37.8263750273428]]},"properties":{"OBJECTID":283785,"ufi":54741153,"pfi":19431971,"ezi_road_name":"RAILWAY CRESCENT","road_name":"RAILWAY","road_type":"CRESCENT","class_code":5,"direction_code":"B","left_locality":"CREMORNE","right_locality":"CREMORNE"}},{"type":"Feature","id":28006,"geometry":{"type":"LineString","coordinates":[[144.995125621571,-37.8260698251967],[144.995252309179,-37.8253722578211]]},"properties":{"OBJECTID":28006,"ufi":1393015,"pfi":5681918,"ezi_road_name":"GREEN STREET","road_name":"GREEN","road_type":"STREET","class_code":5,"direction_code":"B","left_locality":"CREMORNE","right_locality":"CREMORNE"}},{"type":"Feature","id":147219,"geometry":{"type":"LineString","coordinates":[[144.99506561411,-37.8253513469541],[144.995252309179,-37.8253722578211]]},"properties":{"OBJECTID":147219,"ufi":1392642,"pfi":5681547,"ezi_road_name":"SWAN STREET","road_name":"SWAN","road_type":"STREET","class_code":3,"direction_code":"B","left_locality":"RICHMOND","right_locality":"CREMORNE"}},{"type":"Feature","id":155980,"geometry":{"type":"LineString","coordinates":[[145.000397887872,-37.8266332828413],[145.000975150664,-37.8267079007442]]},"properties":{"OBJECTID":155980,"ufi":45183371,"pfi":5682306,"ezi_road_name":"LITTLE LESNEY STREET","road_name":"LITTLE LESNEY","road_type":"STREET","class_code":5,"direction_code":"F","left_locality":"RICHMOND","right_locality":"RICHMOND"}},{"type":"Feature","id":27767,"geometry":{"type":"LineString","coordinates":[[144.996000982204,-37.8272401207065],[144.995646506993,-37.8272008160783]]},"properties":{"OBJECTID":27767,"ufi":1393679,"pfi":5682582,"ezi_road_name":"CHAPEL STREET","road_name":"CHAPEL","road_type":"STREET","class_code":5,"direction_code":"F","left_locality":"CREMORNE","right_locality":"CREMORNE"}},{"type":"Feature","id":112336,"geometry":{"type":"LineString","coordinates":[[144.995953304121,-37.8275086892369],[144.996000982204,-37.8272401207065]]},"properties":{"OBJECTID":112336,"ufi":35839080,"pfi":14388159,"ezi_road_name":"WALNUT STREET","road_name":"WALNUT","road_type":"STREET","class_code":5,"direction_code":"B","left_locality":"CREMORNE","right_locality":"CREMORNE"}},{"type":"Feature","id":1271298,"geometry":{"type":"LineString","coordinates":[[144.999137928821,-37.8236856677354],[144.999392581441,-37.8236308426752],[144.99957452532,-37.8236534052246]]},"properties":{"OBJECTID":1271298,"ufi":57755390,"pfi":5680777,"ezi_road_name":"MCGRATH COURT","road_name":"MCGRATH","road_type":"COURT","class_code":5,"direction_code":"B","left_locality":"RICHMOND","right_locality":"RICHMOND"}},{"type":"Feature","id":244626,"geometry":{"type":"LineString","coordinates":[[144.997525154645,-37.8279811346908],[144.997541037758,-37.8278914680194]]},"properties":{"OBJECTID":244626,"ufi":51580527,"pfi":18434830,"ezi_road_name":"CHURCH STREET","road_name":"CHURCH","road_type":"STREET","class_code":3,"direction_code":"B","left_locality":"CREMORNE","right_locality":"RICHMOND"}},{"type":"Feature","id":249685,"geometry":{"type":"LineString","coordinates":[[144.997541037758,-37.8278914680194],[144.997738255692,-37.828004880131]]},"properties":{"OBJECTID":249685,"ufi":51580661,"pfi":18434937,"ezi_road_name":"BURNLEY TUNNEL","road_name":"BURNLEY","road_type":"TUNNEL","class_code":0,"direction_code":"F","left_locality":"RICHMOND","right_locality":"RICHMOND"}},{"type":"Feature","id":29223,"geometry":{"type":"LineString","coordinates":[[144.994513072057,-37.8252895147558],[144.99506561411,-37.8253513469541]]},"properties":{"OBJECTID":29223,"ufi":1392631,"pfi":5681536,"ezi_road_name":"SWAN STREET","road_name":"SWAN","road_type":"STREET","class_code":3,"direction_code":"B","left_locality":"RICHMOND","right_locality":"CREMORNE"}},{"type":"Feature","id":147714,"geometry":{"type":"LineString","coordinates":[[144.99506561411,-37.8253513469541],[144.995398667196,-37.8235409621007]]},"properties":{"OBJECTID":147714,"ufi":1392630,"pfi":5681535,"ezi_road_name":"DANDO STREET","road_name":"DANDO","road_type":"STREET","class_code":5,"direction_code":"F","left_locality":"RICHMOND","right_locality":"RICHMOND"}},{"type":"Feature","id":28095,"geometry":{"type":"LineString","coordinates":[[144.996776043242,-37.8223157719569],[144.996511961904,-37.8236736091207]]},"properties":{"OBJECTID":28095,"ufi":1391863,"pfi":5680771,"ezi_road_name":"WAVERLEY STREET","road_name":"WAVERLEY","road_type":"STREET","class_code":5,"direction_code":"B","left_locality":"RICHMOND","right_locality":"RICHMOND"}},{"type":"Feature","id":52924,"geometry":{"type":"LineString","coordinates":[[144.995954150334,-37.8236071426599],[144.996511961904,-37.8236736091207]]},"properties":{"OBJECTID":52924,"ufi":1391864,"pfi":5680772,"ezi_road_name":"GIPPS STREET","road_name":"GIPPS","road_type":"STREET","class_code":5,"direction_code":"B","left_locality":"RICHMOND","right_locality":"RICHMOND"}},{"type":"Feature","id":328630,"geometry":{"type":"LineString","coordinates":[[144.999162191419,-37.8277803518091],[144.999107309745,-37.8280978268599]]},"properties":{"OBJECTID":328630,"ufi":57401249,"pfi":5683040,"ezi_road_name":"BRIGHTON STREET","road_name":"BRIGHTON","road_type":"STREET","class_code":5,"direction_code":"B","left_locality":"RICHMOND","right_locality":"RICHMOND"}},{"type":"Feature","id":485913,"geometry":{"type":"LineString","coordinates":[[145.000751136883,-37.8279502087019],[144.999162191419,-37.8277803518091]]},"properties":{"OBJECTID":485913,"ufi":57401250,"pfi":5682974,"ezi_road_name":"LITTLE ROSE STREET","road_name":"LITTLE ROSE","road_type":"STREET","class_code":5,"direction_code":"B","left_locality":"RICHMOND","right_locality":"RICHMOND"}},{"type":"Feature","id":28764,"geometry":{"type":"LineString","coordinates":[[145.001291379203,-37.8246724671515],[145.000626225244,-37.8245978152598],[145.00051281833,-37.8246027709098]]},"properties":{"OBJECTID":28764,"ufi":1392309,"pfi":5681215,"ezi_road_name":"MCNAMARA STREET","road_name":"MCNAMARA","road_type":"STREET","class_code":5,"direction_code":"B","left_locality":"RICHMOND","right_locality":"RICHMOND"}},{"type":"Feature","id":1232525,"geometry":{"type":"LineString","coordinates":[[145.000666156257,-37.8237887981159],[145.00051281833,-37.8246027709098]]},"properties":{"OBJECTID":1232525,"ufi":1392279,"pfi":5681185,"ezi_road_name":"CHARLES STREET","road_name":"CHARLES","road_type":"STREET","class_code":5,"direction_code":"B","left_locality":"RICHMOND","right_locality":"RICHMOND"}},{"type":"Feature","id":908856,"geometry":{"type":"LineString","coordinates":[[144.997499568829,-37.8281255818617],[144.997525154645,-37.8279811346908]]},"properties":{"OBJECTID":908856,"ufi":66343920,"pfi":5683055,"ezi_road_name":"CHURCH STREET","road_name":"CHURCH","road_type":"STREET","class_code":3,"direction_code":"B","left_locality":"CREMORNE","right_locality":"RICHMOND"}},{"type":"Feature","id":1230518,"geometry":{"type":"LineString","coordinates":[[144.997738255692,-37.828004880131],[144.997525154645,-37.8279811346908]]},"properties":{"OBJECTID":1230518,"ufi":51580560,"pfi":18434859,"ezi_road_name":"SANDERS PLACE","road_name":"SANDERS","road_type":"PLACE","class_code":5,"direction_code":"B","left_locality":"RICHMOND","right_locality":"RICHMOND"}},{"type":"Feature","id":249686,"geometry":{"type":"LineString","coordinates":[[144.997738255692,-37.828004880131],[144.997954307704,-37.8281291316801],[144.998636058936,-37.8284608257271]]},"properties":{"OBJECTID":249686,"ufi":51580662,"pfi":18434938,"ezi_road_name":"BURNLEY TUNNEL","road_name":"BURNLEY","road_type":"TUNNEL","class_code":0,"direction_code":"F","left_locality":"RICHMOND","right_locality":"RICHMOND"}},{"type":"Feature","id":881833,"geometry":{"type":"LineString","coordinates":[[144.998636058936,-37.8284608257271],[144.998683048012,-37.8281101486998],[144.997738255692,-37.828004880131]]},"properties":{"OBJECTID":881833,"ufi":64903288,"pfi":18434883,"ezi_road_name":"SANDERS PLACE","road_name":"SANDERS","road_type":"PLACE","class_code":5,"direction_code":"B","left_locality":"RICHMOND","right_locality":"RICHMOND"}},{"type":"Feature","id":244333,"geometry":{"type":"LineString","coordinates":[[144.995646506993,-37.8272008160783],[144.995615620219,-37.8274128468231],[144.995475662698,-37.8281675453442]]},"properties":{"OBJECTID":244333,"ufi":51580600,"pfi":18434882,"ezi_road_name":"CHESTNUT STREET","road_name":"CHESTNUT","road_type":"STREET","class_code":5,"direction_code":"F","left_locality":"CREMORNE","right_locality":"CREMORNE"}},{"type":"Feature","id":322359,"geometry":{"type":"LineString","coordinates":[[144.995646506993,-37.8272008160783],[144.994960469899,-37.8271171583276]]},"properties":{"OBJECTID":322359,"ufi":35839089,"pfi":5682561,"ezi_road_name":"CHAPEL STREET","road_name":"CHAPEL","road_type":"STREET","class_code":5,"direction_code":"B","left_locality":"CREMORNE","right_locality":"CREMORNE"}},{"type":"Feature","id":244441,"geometry":{"type":"LineString","coordinates":[[144.995054907988,-37.8264717133449],[144.995069057352,-37.8263750273428]]},"properties":{"OBJECTID":244441,"ufi":51580557,"pfi":18434856,"ezi_road_name":"GREEN STREET","road_name":"GREEN","road_type":"STREET","class_code":5,"direction_code":"F","left_locality":"CREMORNE","right_locality":"CREMORNE"}},{"type":"Feature","id":1250034,"geometry":{"type":"LineString","coordinates":[[144.995069057352,-37.8263750273428],[144.994826177154,-37.8263475278319]]},"properties":{"OBJECTID":1250034,"ufi":51580550,"pfi":18434849,"ezi_road_name":"RAILWAY CRESCENT","road_name":"RAILWAY","road_type":"CRESCENT","class_code":5,"direction_code":"B","left_locality":"CREMORNE","right_locality":"CREMORNE"}},{"type":"Feature","id":1231783,"geometry":{"type":"LineString","coordinates":[[144.995876208008,-37.8279381749084],[144.995948384048,-37.827533601319],[144.995953304121,-37.8275086892369]]},"properties":{"OBJECTID":1231783,"ufi":51580601,"pfi":5682957,"ezi_road_name":"WALNUT STREET","road_name":"WALNUT","road_type":"STREET","class_code":5,"direction_code":"B","left_locality":"CREMORNE","right_locality":"CREMORNE"}},{"type":"Feature","id":244440,"geometry":{"type":"LineString","coordinates":[[144.994960469899,-37.8271171583276],[144.995054907988,-37.8264717133449]]},"properties":{"OBJECTID":244440,"ufi":51580556,"pfi":18434855,"ezi_road_name":"GREEN STREET","road_name":"GREEN","road_type":"STREET","class_code":5,"direction_code":"F","left_locality":"CREMORNE","right_locality":"CREMORNE"}},{"type":"Feature","id":249681,"geometry":{"type":"LineString","coordinates":[[144.994826177154,-37.8263475278319],[144.995054907988,-37.8264717133449]]},"properties":{"OBJECTID":249681,"ufi":51580655,"pfi":18434931,"ezi_road_name":"BURNLEY TUNNEL","road_name":"BURNLEY","road_type":"TUNNEL","class_code":0,"direction_code":"F","left_locality":"CREMORNE","right_locality":"CREMORNE"}},{"type":"Feature","id":344400,"geometry":{"type":"LineString","coordinates":[[144.99957452532,-37.8236534052246],[144.999614883931,-37.8234410117249],[144.999550342673,-37.8234329927269],[144.999571335403,-37.8233022398646]]},"properties":{"OBJECTID":344400,"ufi":57755388,"pfi":15570166,"ezi_road_name":"UNNAMED","road_name":"UNNAMED","road_type":null,"class_code":9,"direction_code":"B","left_locality":"RICHMOND","right_locality":"RICHMOND"}},{"type":"Feature","id":344402,"geometry":{"type":"LineString","coordinates":[[144.99957452532,-37.8236534052246],[144.999714805337,-37.8236708041479]]},"properties":{"OBJECTID":344402,"ufi":57755392,"pfi":20221786,"ezi_road_name":"MCGRATH COURT","road_name":"MCGRATH","road_type":"COURT","class_code":5,"direction_code":"B","left_locality":"RICHMOND","right_locality":"RICHMOND"}},{"type":"Feature","id":486132,"geometry":{"type":"LineString","coordinates":[[144.999714805337,-37.8236708041479],[145.000666156257,-37.8237887981159]]},"properties":{"OBJECTID":486132,"ufi":57755391,"pfi":20221785,"ezi_road_name":"PARKER STREET","road_name":"PARKER","road_type":"STREET","class_code":5,"direction_code":"B","left_locality":"RICHMOND","right_locality":"RICHMOND"}},{"type":"Feature","id":27951,"geometry":{"type":"LineString","coordinates":[[144.997499568829,-37.8281255818617],[144.995876208008,-37.8279381749084]]},"properties":{"OBJECTID":27951,"ufi":1394153,"pfi":5683056,"ezi_road_name":"HILL STREET","road_name":"HILL","road_type":"STREET","class_code":5,"direction_code":"B","left_locality":"CREMORNE","right_locality":"CREMORNE"}},{"type":"Feature","id":148938,"geometry":{"type":"LineString","coordinates":[[144.997461269157,-37.8283354238692],[144.997499568829,-37.8281255818617]]},"properties":{"OBJECTID":148938,"ufi":1394279,"pfi":5683182,"ezi_road_name":"CHURCH STREET","road_name":"CHURCH","road_type":"STREET","class_code":3,"direction_code":"B","left_locality":"CREMORNE","right_locality":"RICHMOND"}},{"type":"Feature","id":727602,"geometry":{"type":"LineString","coordinates":[[145.001291379203,-37.8246724671515],[145.001063708381,-37.8259301209519],[145.001074136923,-37.8260198332897]]},"properties":{"OBJECTID":727602,"ufi":1392987,"pfi":5681890,"ezi_road_name":"MARY STREET","road_name":"MARY","road_type":"STREET","class_code":5,"direction_code":"F","left_locality":"RICHMOND","right_locality":"RICHMOND"}},{"type":"Feature","id":147004,"geometry":{"type":"LineString","coordinates":[[145.001730545783,-37.8260920861481],[145.001074136923,-37.8260198332897]]},"properties":{"OBJECTID":147004,"ufi":1393028,"pfi":5681931,"ezi_road_name":"SWAN STREET","road_name":"SWAN","road_type":"STREET","class_code":3,"direction_code":"B","left_locality":"RICHMOND","right_locality":"RICHMOND"}},{"type":"Feature","id":448128,"geometry":{"type":"LineString","coordinates":[[145.000975150664,-37.8267079007442],[145.001084428921,-37.8261095639668],[145.001074136923,-37.8260198332897]]},"properties":{"OBJECTID":448128,"ufi":1393402,"pfi":5682305,"ezi_road_name":"MARY STREET","road_name":"MARY","road_type":"STREET","class_code":5,"direction_code":"B","left_locality":"RICHMOND","right_locality":"RICHMOND"}},{"type":"Feature","id":320137,"geometry":{"type":"LineString","coordinates":[[144.994826177154,-37.8263475278319],[144.99437696202,-37.826296654845],[144.99434557668,-37.8262855801011]]},"properties":{"OBJECTID":320137,"ufi":51580551,"pfi":18434850,"ezi_road_name":"RAILWAY CRESCENT","road_name":"RAILWAY","road_type":"CRESCENT","class_code":5,"direction_code":"B","left_locality":"CREMORNE","right_locality":"CREMORNE"}},{"type":"Feature","id":623437,"geometry":{"type":"LineString","coordinates":[[144.991136811554,-37.8250916153271],[144.991480241978,-37.8251543126528],[144.992088840702,-37.8252871618375],[144.992596447228,-37.8254400318375],[144.993112028099,-37.8256023862398],[144.993755178723,-37.8258332582693],[144.994137876305,-37.8259934930649],[144.994438187596,-37.8261368556662],[144.994826177154,-37.8263475278319]]},"properties":{"OBJECTID":623437,"ufi":51580654,"pfi":18434930,"ezi_road_name":"BURNLEY TUNNEL","road_name":"BURNLEY","road_type":"TUNNEL","class_code":0,"direction_code":"F","left_locality":"CREMORNE","right_locality":"CREMORNE"}},{"type":"Feature","id":52845,"geometry":{"type":"LineString","coordinates":[[144.999107309745,-37.8280978268599],[144.999047851154,-37.8284282680087]]},"properties":{"OBJECTID":52845,"ufi":1394334,"pfi":5683237,"ezi_road_name":"BRIGHTON STREET","road_name":"BRIGHTON","road_type":"STREET","class_code":5,"direction_code":"B","left_locality":"RICHMOND","right_locality":"RICHMOND"}},{"type":"Feature","id":493605,"geometry":{"type":"LineString","coordinates":[[144.999107309745,-37.8280978268599],[145.000695172739,-37.8282660361876]]},"properties":{"OBJECTID":493605,"ufi":1394238,"pfi":5683141,"ezi_road_name":"ROSE STREET","road_name":"ROSE","road_type":"STREET","class_code":5,"direction_code":"F","left_locality":"RICHMOND","right_locality":"RICHMOND"}},{"type":"Feature","id":27873,"geometry":{"type":"LineString","coordinates":[[144.996204882706,-37.8222482349144],[144.995954150334,-37.8236071426599]]},"properties":{"OBJECTID":27873,"ufi":1391844,"pfi":5680752,"ezi_road_name":"CLIFTON STREET","road_name":"CLIFTON","road_type":"STREET","class_code":5,"direction_code":"B","left_locality":"RICHMOND","right_locality":"RICHMOND"}},{"type":"Feature","id":1246495,"geometry":{"type":"LineString","coordinates":[[144.995398667196,-37.8235409621007],[144.995954150334,-37.8236071426599]]},"properties":{"OBJECTID":1246495,"ufi":1391845,"pfi":5680753,"ezi_road_name":"GIPPS STREET","road_name":"GIPPS","road_type":"STREET","class_code":5,"direction_code":"B","left_locality":"RICHMOND","right_locality":"RICHMOND"}},{"type":"Feature","id":881550,"geometry":{"type":"LineString","coordinates":[[145.000975150664,-37.8267079007442],[145.000969722144,-37.8267376607513]]},"properties":{"OBJECTID":881550,"ufi":64903274,"pfi":6289584,"ezi_road_name":"MARY STREET","road_name":"MARY","road_type":"STREET","class_code":5,"direction_code":"B","left_locality":"RICHMOND","right_locality":"RICHMOND"}},{"type":"Feature","id":156807,"geometry":{"type":"LineString","coordinates":[[145.000969722144,-37.8267376607513],[145.000955432643,-37.8268158667458]]},"properties":{"OBJECTID":156807,"ufi":45178580,"pfi":6289585,"ezi_road_name":"MARY STREET","road_name":"MARY","road_type":"STREET","class_code":5,"direction_code":"B","left_locality":"RICHMOND","right_locality":"RICHMOND"}},{"type":"Feature","id":882022,"geometry":{"type":"LineString","coordinates":[[145.000955432643,-37.8268158667458],[145.000939360885,-37.8269039311419]]},"properties":{"OBJECTID":882022,"ufi":64903309,"pfi":6288385,"ezi_road_name":"MARY STREET","road_name":"MARY","road_type":"STREET","class_code":5,"direction_code":"B","left_locality":"RICHMOND","right_locality":"RICHMOND"}},{"type":"Feature","id":156965,"geometry":{"type":"LineString","coordinates":[[145.000939360885,-37.8269039311419],[145.000932194125,-37.826943196903]]},"properties":{"OBJECTID":156965,"ufi":45178568,"pfi":6289590,"ezi_road_name":"MARY STREET","road_name":"MARY","road_type":"STREET","class_code":5,"direction_code":"B","left_locality":"RICHMOND","right_locality":"RICHMOND"}},{"type":"Feature","id":249564,"geometry":{"type":"LineString","coordinates":[[144.998636058936,-37.8284608257271],[144.997461269157,-37.8283354238692]]},"properties":{"OBJECTID":249564,"ufi":51580682,"pfi":5683266,"ezi_road_name":"ALBERT STREET","road_name":"ALBERT","road_type":"STREET","class_code":5,"direction_code":"B","left_locality":"RICHMOND","right_locality":"RICHMOND"}},{"type":"Feature","id":27328,"geometry":{"type":"LineString","coordinates":[[144.997461269157,-37.8283354238692],[144.997448272332,-37.8284062326847]]},"properties":{"OBJECTID":27328,"ufi":1394317,"pfi":5683220,"ezi_road_name":"CHURCH STREET","road_name":"CHURCH","road_type":"STREET","class_code":3,"direction_code":"B","left_locality":"RICHMOND","right_locality":"CREMORNE"}},{"type":"Feature","id":50812,"geometry":{"type":"LineString","coordinates":[[145.000932194125,-37.826943196903],[145.000913418437,-37.8270460190447]]},"properties":{"OBJECTID":50812,"ufi":7696523,"pfi":6289591,"ezi_road_name":"MARY STREET","road_name":"MARY","road_type":"STREET","class_code":5,"direction_code":"B","left_locality":"RICHMOND","right_locality":"RICHMOND"}},{"type":"Feature","id":27968,"geometry":{"type":"LineString","coordinates":[[145.000867619629,-37.8272967772616],[145.000913418437,-37.8270460190447]]},"properties":{"OBJECTID":27968,"ufi":1393723,"pfi":5682626,"ezi_road_name":"MARY STREET","road_name":"MARY","road_type":"STREET","class_code":5,"direction_code":"B","left_locality":"RICHMOND","right_locality":"RICHMOND"}},{"type":"Feature","id":121762,"geometry":{"type":"LineString","coordinates":[[145.000913418437,-37.8270460190447],[145.001074029125,-37.8272199653264],[145.001271263229,-37.8274323912326]]},"properties":{"OBJECTID":121762,"ufi":38507617,"pfi":14960586,"ezi_road_name":"UNNAMED","road_name":"UNNAMED","road_type":null,"class_code":9,"direction_code":"B","left_locality":"RICHMOND","right_locality":"RICHMOND"}},{"type":"Feature","id":148993,"geometry":{"type":"LineString","coordinates":[[145.002263070676,-37.8272326342812],[145.001130334629,-37.8270995636721],[145.000913418437,-37.8270460190447]]},"properties":{"OBJECTID":148993,"ufi":1393676,"pfi":5682579,"ezi_road_name":"MADDEN GROVE","road_name":"MADDEN","road_type":"GROVE","class_code":5,"direction_code":"B","left_locality":"RICHMOND","right_locality":"RICHMOND"}},{"type":"Feature","id":1259610,"geometry":{"type":"LineString","coordinates":[[144.994513072057,-37.8252895147558],[144.99439984211,-37.8259480408642]]},"properties":{"OBJECTID":1259610,"ufi":62818403,"pfi":5681872,"ezi_road_name":"BYRON STREET","road_name":"BYRON","road_type":"STREET","class_code":5,"direction_code":"B","left_locality":"CREMORNE","right_locality":"CREMORNE"}},{"type":"Feature","id":29219,"geometry":{"type":"LineString","coordinates":[[144.994513072057,-37.8252895147558],[144.994844139866,-37.823474895725]]},"properties":{"OBJECTID":29219,"ufi":1392594,"pfi":5681500,"ezi_road_name":"STANLEY STREET","road_name":"STANLEY","road_type":"STREET","class_code":5,"direction_code":"B","left_locality":"RICHMOND","right_locality":"RICHMOND"}},{"type":"Feature","id":29220,"geometry":{"type":"LineString","coordinates":[[144.994121996786,-37.8252458062339],[144.994513072057,-37.8252895147558]]},"properties":{"OBJECTID":29220,"ufi":1392595,"pfi":5681501,"ezi_road_name":"SWAN STREET","road_name":"SWAN","road_type":"STREET","class_code":3,"direction_code":"B","left_locality":"RICHMOND","right_locality":"CREMORNE"}},{"type":"Feature","id":27329,"geometry":{"type":"LineString","coordinates":[[144.995826779108,-37.8282146706854],[144.997448272332,-37.8284062326847]]},"properties":{"OBJECTID":27329,"ufi":1394318,"pfi":5683221,"ezi_road_name":"WILLIAM STREET","road_name":"WILLIAM","road_type":"STREET","class_code":5,"direction_code":"F","left_locality":"CREMORNE","right_locality":"CREMORNE"}},{"type":"Feature","id":244331,"geometry":{"type":"LineString","coordinates":[[144.994178310374,-37.8272285579361],[144.994518664069,-37.8271152099097],[144.994763137879,-37.8271069046537],[144.994960469899,-37.8271171583276]]},"properties":{"OBJECTID":244331,"ufi":51580598,"pfi":5682576,"ezi_road_name":"DUNN STREET","road_name":"DUNN","road_type":"STREET","class_code":5,"direction_code":"B","left_locality":"CREMORNE","right_locality":"CREMORNE"}},{"type":"Feature","id":244332,"geometry":{"type":"LineString","coordinates":[[144.994654246795,-37.8287276897756],[144.994953764874,-37.8271731189115],[144.994960469899,-37.8271171583276]]},"properties":{"OBJECTID":244332,"ufi":51580599,"pfi":5683425,"ezi_road_name":"GREEN STREET","road_name":"GREEN","road_type":"STREET","class_code":5,"direction_code":"F","left_locality":"CREMORNE","right_locality":"CREMORNE"}},{"type":"Feature","id":316684,"geometry":{"type":"LineString","coordinates":[[144.997448272332,-37.8284062326847],[144.99739782564,-37.8286807847171]]},"properties":{"OBJECTID":316684,"ufi":1394500,"pfi":5683403,"ezi_road_name":"CHURCH STREET","road_name":"CHURCH","road_type":"STREET","class_code":3,"direction_code":"B","left_locality":"RICHMOND","right_locality":"CREMORNE"}},{"type":"Feature","id":28198,"geometry":{"type":"LineString","coordinates":[[144.995826779108,-37.8282146706854],[144.995876208008,-37.8279381749084]]},"properties":{"OBJECTID":28198,"ufi":1394197,"pfi":5683100,"ezi_road_name":"WALNUT STREET","road_name":"WALNUT","road_type":"STREET","class_code":5,"direction_code":"B","left_locality":"CREMORNE","right_locality":"CREMORNE"}},{"type":"Feature","id":145709,"geometry":{"type":"LineString","coordinates":[[145.000867619629,-37.8272967772616],[145.000807090247,-37.8276282189051]]},"properties":{"OBJECTID":145709,"ufi":1393898,"pfi":5682801,"ezi_road_name":"MARY STREET","road_name":"MARY","road_type":"STREET","class_code":5,"direction_code":"B","left_locality":"RICHMOND","right_locality":"RICHMOND"}},{"type":"Feature","id":244510,"geometry":{"type":"LineString","coordinates":[[144.998636058936,-37.8284608257271],[144.999016542172,-37.8286096930612]]},"properties":{"OBJECTID":244510,"ufi":51580483,"pfi":6258381,"ezi_road_name":"BURNLEY TUNNEL","road_name":"BURNLEY","road_type":"TUNNEL","class_code":0,"direction_code":"F","left_locality":"RICHMOND","right_locality":"RICHMOND"}},{"type":"Feature","id":249565,"geometry":{"type":"LineString","coordinates":[[144.999034343187,-37.828503338908],[144.998636058936,-37.8284608257271]]},"properties":{"OBJECTID":249565,"ufi":51580683,"pfi":5683296,"ezi_road_name":"ALBERT STREET","road_name":"ALBERT","road_type":"STREET","class_code":5,"direction_code":"B","left_locality":"RICHMOND","right_locality":"RICHMOND"}},{"type":"Feature","id":345474,"geometry":{"type":"LineString","coordinates":[[144.998636058936,-37.8284608257271],[144.998578788642,-37.8288084848698],[144.99739782564,-37.8286807847171]]},"properties":{"OBJECTID":345474,"ufi":51580681,"pfi":5683468,"ezi_road_name":"GIBBONS STREET","road_name":"GIBBONS","road_type":"STREET","class_code":5,"direction_code":"B","left_locality":"RICHMOND","right_locality":"RICHMOND"}},{"type":"Feature","id":1266210,"geometry":{"type":"LineString","coordinates":[[145.001424479884,-37.8239371682364],[145.001291379203,-37.8246724671515]]},"properties":{"OBJECTID":1266210,"ufi":1392308,"pfi":5681214,"ezi_road_name":"MARY STREET","road_name":"MARY","road_type":"STREET","class_code":5,"direction_code":"F","left_locality":"RICHMOND","right_locality":"RICHMOND"}},{"type":"Feature","id":71859,"geometry":{"type":"LineString","coordinates":[[144.993971475975,-37.8261390772893],[144.994362474889,-37.8261903271594],[144.99434557668,-37.8262855801011]]},"properties":{"OBJECTID":71859,"ufi":15224751,"pfi":5682060,"ezi_road_name":"WHITE STREET","road_name":"WHITE","road_type":"STREET","class_code":5,"direction_code":"B","left_locality":"CREMORNE","right_locality":"CREMORNE"}},{"type":"Feature","id":328789,"geometry":{"type":"LineString","coordinates":[[145.000666156257,-37.8237887981159],[145.000792401894,-37.8231186772627]]},"properties":{"OBJECTID":328789,"ufi":57401282,"pfi":5680817,"ezi_road_name":"CHARLES STREET","road_name":"CHARLES","road_type":"STREET","class_code":5,"direction_code":"B","left_locality":"RICHMOND","right_locality":"RICHMOND"}},{"type":"Feature","id":52117,"geometry":{"type":"LineString","coordinates":[[145.000637674273,-37.8286010367543],[144.999047851154,-37.8284282680087]]},"properties":{"OBJECTID":52117,"ufi":1394451,"pfi":5683354,"ezi_road_name":"DAVIS STREET","road_name":"DAVIS","road_type":"STREET","class_code":5,"direction_code":"B","left_locality":"RICHMOND","right_locality":"RICHMOND"}},{"type":"Feature","id":244334,"geometry":{"type":"LineString","coordinates":[[144.999047851154,-37.8284282680087],[144.999041192841,-37.8284667950426],[144.999034343187,-37.828503338908]]},"properties":{"OBJECTID":244334,"ufi":51580604,"pfi":6258334,"ezi_road_name":"BRIGHTON STREET","road_name":"BRIGHTON","road_type":"STREET","class_code":5,"direction_code":"B","left_locality":"RICHMOND","right_locality":"RICHMOND"}},{"type":"Feature","id":881832,"geometry":{"type":"LineString","coordinates":[[144.994178310374,-37.8272285579361],[144.99434557668,-37.8262855801011]]},"properties":{"OBJECTID":881832,"ufi":64903287,"pfi":18434881,"ezi_road_name":"WHITE STREET","road_name":"WHITE","road_type":"STREET","class_code":5,"direction_code":"F","left_locality":"CREMORNE","right_locality":"CREMORNE"}},{"type":"Feature","id":27810,"geometry":{"type":"LineString","coordinates":[[144.995398667196,-37.8235409621007],[144.994844139866,-37.823474895725]]},"properties":{"OBJECTID":27810,"ufi":1391812,"pfi":5680720,"ezi_road_name":"GIPPS STREET","road_name":"GIPPS","road_type":"STREET","class_code":5,"direction_code":"B","left_locality":"RICHMOND","right_locality":"RICHMOND"}},{"type":"Feature","id":329926,"geometry":{"type":"LineString","coordinates":[[144.995647581379,-37.8221823249116],[144.995398667196,-37.8235409621007]]},"properties":{"OBJECTID":329926,"ufi":1391811,"pfi":5680719,"ezi_road_name":"DANDO STREET","road_name":"DANDO","road_type":"STREET","class_code":5,"direction_code":"B","left_locality":"RICHMOND","right_locality":"RICHMOND"}},{"type":"Feature","id":245049,"geometry":{"type":"LineString","coordinates":[[144.999034343187,-37.828503338908],[144.999016542172,-37.8286096930612]]},"properties":{"OBJECTID":245049,"ufi":51580480,"pfi":18434802,"ezi_road_name":"BRIGHTON STREET","road_name":"BRIGHTON","road_type":"STREET","class_code":5,"direction_code":"B","left_locality":"RICHMOND","right_locality":"RICHMOND"}},{"type":"Feature","id":729203,"geometry":{"type":"LineString","coordinates":[[145.000807090247,-37.8276282189051],[145.000751136883,-37.8279502087019]]},"properties":{"OBJECTID":729203,"ufi":57401247,"pfi":5682973,"ezi_road_name":"MARY STREET","road_name":"MARY","road_type":"STREET","class_code":5,"direction_code":"B","left_locality":"RICHMOND","right_locality":"RICHMOND"}},{"type":"Feature","id":52118,"geometry":{"type":"LineString","coordinates":[[144.99739782564,-37.8286807847171],[144.997331848874,-37.8290398492154]]},"properties":{"OBJECTID":52118,"ufi":1394682,"pfi":5683584,"ezi_road_name":"CHURCH STREET","road_name":"CHURCH","road_type":"STREET","class_code":3,"direction_code":"B","left_locality":"RICHMOND","right_locality":"CREMORNE"}},{"type":"Feature","id":28199,"geometry":{"type":"LineString","coordinates":[[144.995475662698,-37.8281675453442],[144.995826779108,-37.8282146706854]]},"properties":{"OBJECTID":28199,"ufi":1394198,"pfi":5683101,"ezi_road_name":"WILLIAM STREET","road_name":"WILLIAM","road_type":"STREET","class_code":5,"direction_code":"B","left_locality":"CREMORNE","right_locality":"CREMORNE"}},{"type":"Feature","id":28007,"geometry":{"type":"LineString","coordinates":[[145.002050236429,-37.824008257298],[145.001964706035,-37.8244774270667],[145.001998002989,-37.8246447328476],[145.001730545783,-37.8260920861481]]},"properties":{"OBJECTID":28007,"ufi":1393027,"pfi":5681930,"ezi_road_name":"BELL STREET","road_name":"BELL","road_type":"STREET","class_code":5,"direction_code":"F","left_locality":"RICHMOND","right_locality":"RICHMOND"}},{"type":"Feature","id":28057,"geometry":{"type":"LineString","coordinates":[[145.001730545783,-37.8260920861481],[145.002448136201,-37.826171064115]]},"properties":{"OBJECTID":28057,"ufi":1393080,"pfi":5681983,"ezi_road_name":"SWAN STREET","road_name":"SWAN","road_type":"STREET","class_code":3,"direction_code":"B","left_locality":"RICHMOND","right_locality":"RICHMOND"}},{"type":"Feature","id":147345,"geometry":{"type":"LineString","coordinates":[[144.994121996786,-37.8252458062339],[144.994016581284,-37.8258839619909]]},"properties":{"OBJECTID":147345,"ufi":1392915,"pfi":5681819,"ezi_road_name":"KIPLING STREET","road_name":"KIPLING","road_type":"STREET","class_code":5,"direction_code":"B","left_locality":"CREMORNE","right_locality":"CREMORNE"}},{"type":"Feature","id":1074986,"geometry":{"type":"LineString","coordinates":[[144.993952614049,-37.8252268679242],[144.994121996786,-37.8252458062339]]},"properties":{"OBJECTID":1074986,"ufi":1392567,"pfi":5681473,"ezi_road_name":"SWAN STREET","road_name":"SWAN","road_type":"STREET","class_code":3,"direction_code":"B","left_locality":"RICHMOND","right_locality":"CREMORNE"}},{"type":"Feature","id":245050,"geometry":{"type":"LineString","coordinates":[[144.999016542172,-37.8286096930612],[144.998944187367,-37.8290419650314]]},"properties":{"OBJECTID":245050,"ufi":51580481,"pfi":18434803,"ezi_road_name":"BRIGHTON STREET","road_name":"BRIGHTON","road_type":"STREET","class_code":5,"direction_code":"B","left_locality":"RICHMOND","right_locality":"RICHMOND"}},{"type":"Feature","id":320135,"geometry":{"type":"LineString","coordinates":[[144.999016542172,-37.8286096930612],[144.999400149747,-37.8287679017912],[145.000006132577,-37.8289681689957],[145.000548335919,-37.8291294371528]]},"properties":{"OBJECTID":320135,"ufi":51580482,"pfi":6258380,"ezi_road_name":"BURNLEY TUNNEL","road_name":"BURNLEY","road_type":"TUNNEL","class_code":0,"direction_code":"F","left_locality":"RICHMOND","right_locality":"RICHMOND"}},{"type":"Feature","id":824700,"geometry":{"type":"LineString","coordinates":[[145.000792401894,-37.8231186772627],[144.999863958013,-37.8230043522084]]},"properties":{"OBJECTID":824700,"ufi":62818392,"pfi":5680496,"ezi_road_name":"GEORGE STREET","road_name":"GEORGE","road_type":"STREET","class_code":5,"direction_code":"B","left_locality":"RICHMOND","right_locality":"RICHMOND"}},{"type":"Feature","id":491729,"geometry":{"type":"LineString","coordinates":[[144.995475662698,-37.8281675453442],[144.995362074323,-37.8288102147074]]},"properties":{"OBJECTID":491729,"ufi":1394566,"pfi":5683469,"ezi_road_name":"CHESTNUT STREET","road_name":"CHESTNUT","road_type":"STREET","class_code":5,"direction_code":"F","left_locality":"CREMORNE","right_locality":"CREMORNE"}},{"type":"Feature","id":1259611,"geometry":{"type":"LineString","coordinates":[[144.993913484334,-37.8264720390302],[144.993971475975,-37.8261390772893]]},"properties":{"OBJECTID":1259611,"ufi":62818408,"pfi":5682173,"ezi_road_name":"STEPHENSON STREET","road_name":"STEPHENSON","road_type":"STREET","class_code":5,"direction_code":"B","left_locality":"CREMORNE","right_locality":"CREMORNE"}},{"type":"Feature","id":121921,"geometry":{"type":"LineString","coordinates":[[145.001182001233,-37.8281141150178],[145.001160200019,-37.8279477998148],[145.001172657855,-37.8277666633373],[145.001214172598,-37.8275723530357],[145.001243241182,-37.8275097776772],[145.001271263229,-37.8274323912326]]},"properties":{"OBJECTID":121921,"ufi":38507622,"pfi":14960591,"ezi_road_name":"UNNAMED","road_name":"UNNAMED","road_type":null,"class_code":9,"direction_code":"B","left_locality":"RICHMOND","right_locality":"RICHMOND"}},{"type":"Feature","id":145484,"geometry":{"type":"LineString","coordinates":[[145.001271263229,-37.8274323912326],[145.001431110349,-37.8273681660628],[145.001547371212,-37.82732864722],[145.001802728111,-37.8273385191277],[145.001912754665,-37.8273796826908],[145.001966735329,-37.8274175610387]]},"properties":{"OBJECTID":145484,"ufi":38507618,"pfi":14960587,"ezi_road_name":"UNNAMED","road_name":"UNNAMED","road_type":null,"class_code":9,"direction_code":"B","left_locality":"RICHMOND","right_locality":"RICHMOND"}},{"type":"Feature","id":147713,"geometry":{"type":"LineString","coordinates":[[144.993952614049,-37.8252268679242],[144.994289431077,-37.8234087916822]]},"properties":{"OBJECTID":147713,"ufi":1392557,"pfi":5681463,"ezi_road_name":"CARROLL STREET","road_name":"CARROLL","road_type":"STREET","class_code":5,"direction_code":"F","left_locality":"RICHMOND","right_locality":"RICHMOND"}},{"type":"Feature","id":28380,"geometry":{"type":"LineString","coordinates":[[144.993395178873,-37.8251626422539],[144.993952614049,-37.8252268679242]]},"properties":{"OBJECTID":28380,"ufi":1392558,"pfi":5681464,"ezi_road_name":"SWAN STREET","road_name":"SWAN","road_type":"STREET","class_code":3,"direction_code":"B","left_locality":"RICHMOND","right_locality":"CREMORNE"}},{"type":"Feature","id":328628,"geometry":{"type":"LineString","coordinates":[[145.000751136883,-37.8279502087019],[145.000695172739,-37.8282660361876]]},"properties":{"OBJECTID":328628,"ufi":57401246,"pfi":5683140,"ezi_road_name":"MARY STREET","road_name":"MARY","road_type":"STREET","class_code":5,"direction_code":"B","left_locality":"RICHMOND","right_locality":"RICHMOND"}},{"type":"Feature","id":27292,"geometry":{"type":"LineString","coordinates":[[145.001424479884,-37.8239371682364],[145.002050236429,-37.824008257298]]},"properties":{"OBJECTID":27292,"ufi":1392015,"pfi":5680923,"ezi_road_name":"BENSON STREET","road_name":"BENSON","road_type":"STREET","class_code":5,"direction_code":"F","left_locality":"RICHMOND","right_locality":"RICHMOND"}},{"type":"Feature","id":328590,"geometry":{"type":"LineString","coordinates":[[145.001537020823,-37.8233111777885],[145.001424479884,-37.8239371682364]]},"properties":{"OBJECTID":328590,"ufi":57401226,"pfi":5680889,"ezi_road_name":"MARY STREET","road_name":"MARY","road_type":"STREET","class_code":5,"direction_code":"F","left_locality":"RICHMOND","right_locality":"RICHMOND"}},{"type":"Feature","id":27622,"geometry":{"type":"LineString","coordinates":[[144.994844139866,-37.823474895725],[144.994289431077,-37.8234087916822]]},"properties":{"OBJECTID":27622,"ufi":1391776,"pfi":5680684,"ezi_road_name":"GIPPS STREET","road_name":"GIPPS","road_type":"STREET","class_code":5,"direction_code":"B","left_locality":"RICHMOND","right_locality":"RICHMOND"}},{"type":"Feature","id":147710,"geometry":{"type":"LineString","coordinates":[[144.995094733,-37.8221169449179],[144.994844139866,-37.823474895725]]},"properties":{"OBJECTID":147710,"ufi":1391775,"pfi":5680683,"ezi_road_name":"STANLEY STREET","road_name":"STANLEY","road_type":"STREET","class_code":5,"direction_code":"B","left_locality":"RICHMOND","right_locality":"RICHMOND"}},{"type":"Feature","id":28313,"geometry":{"type":"LineString","coordinates":[[144.997334743246,-37.8223818379511],[144.996776043242,-37.8223157719569]]},"properties":{"OBJECTID":28313,"ufi":1391243,"pfi":5680151,"ezi_road_name":"RICHMOND TERRACE","road_name":"RICHMOND","road_type":"TERRACE","class_code":5,"direction_code":"B","left_locality":"RICHMOND","right_locality":"RICHMOND"}},{"type":"Feature","id":129787,"geometry":{"type":"LineString","coordinates":[[144.994178310374,-37.8272285579361],[144.994118196014,-37.827239357944]]},"properties":{"OBJECTID":129787,"ufi":39999169,"pfi":15150096,"ezi_road_name":"DUNN STREET","road_name":"DUNN","road_type":"STREET","class_code":5,"direction_code":"B","left_locality":"CREMORNE","right_locality":"CREMORNE"}},{"type":"Feature","id":451939,"geometry":{"type":"LineString","coordinates":[[145.000637674273,-37.8286010367543],[145.000695172739,-37.8282660361876]]},"properties":{"OBJECTID":451939,"ufi":1394450,"pfi":5683353,"ezi_road_name":"MARY STREET","road_name":"MARY","road_type":"STREET","class_code":5,"direction_code":"B","left_locality":"RICHMOND","right_locality":"RICHMOND"}},{"type":"Feature","id":1231829,"geometry":{"type":"LineString","coordinates":[[145.000695172739,-37.8282660361876],[145.000821808245,-37.828321599979],[145.000987894164,-37.8283380597952]]},"properties":{"OBJECTID":1231829,"ufi":38507624,"pfi":14960593,"ezi_road_name":"UNNAMED","road_name":"UNNAMED","road_type":null,"class_code":9,"direction_code":"B","left_locality":"RICHMOND","right_locality":"RICHMOND"}},{"type":"Feature","id":129786,"geometry":{"type":"LineString","coordinates":[[144.994118196014,-37.827239357944],[144.993962799148,-37.8272672807216]]},"properties":{"OBJECTID":129786,"ufi":39999168,"pfi":15150095,"ezi_road_name":"DUNN STREET","road_name":"DUNN","road_type":"STREET","class_code":5,"direction_code":"B","left_locality":"CREMORNE","right_locality":"CREMORNE"}},{"type":"Feature","id":27264,"geometry":{"type":"LineString","coordinates":[[144.997331848874,-37.8290398492154],[144.995708956974,-37.828850655147]]},"properties":{"OBJECTID":27264,"ufi":1394683,"pfi":5683585,"ezi_road_name":"ADELAIDE STREET","road_name":"ADELAIDE","road_type":"STREET","class_code":5,"direction_code":"F","left_locality":"CREMORNE","right_locality":"CREMORNE"}},{"type":"Feature","id":27542,"geometry":{"type":"LineString","coordinates":[[144.997331848874,-37.8290398492154],[144.997281391403,-37.8293156980334]]},"properties":{"OBJECTID":27542,"ufi":1394812,"pfi":5683714,"ezi_road_name":"CHURCH STREET","road_name":"CHURCH","road_type":"STREET","class_code":3,"direction_code":"B","left_locality":"RICHMOND","right_locality":"CREMORNE"}},{"type":"Feature","id":328615,"geometry":{"type":"LineString","coordinates":[[145.001567141334,-37.8231456819763],[145.000887620619,-37.8230665631118],[145.000792401894,-37.8231186772627]]},"properties":{"OBJECTID":328615,"ufi":57401230,"pfi":20175174,"ezi_road_name":"UNNAMED","road_name":"UNNAMED","road_type":null,"class_code":9,"direction_code":"B","left_locality":"RICHMOND","right_locality":"RICHMOND"}},{"type":"Feature","id":27471,"geometry":{"type":"LineString","coordinates":[[145.000532398908,-37.8292142477329],[144.998944187367,-37.8290419650314]]},"properties":{"OBJECTID":27471,"ufi":1394772,"pfi":5683674,"ezi_road_name":"GOODWIN STREET","road_name":"GOODWIN","road_type":"STREET","class_code":5,"direction_code":"F","left_locality":"RICHMOND","right_locality":"RICHMOND"}},{"type":"Feature","id":882052,"geometry":{"type":"LineString","coordinates":[[144.998944187367,-37.8290419650314],[144.998892768699,-37.8293490968583]]},"properties":{"OBJECTID":882052,"ufi":64903311,"pfi":5683728,"ezi_road_name":"BRIGHTON STREET","road_name":"BRIGHTON","road_type":"STREET","class_code":5,"direction_code":"B","left_locality":"RICHMOND","right_locality":"RICHMOND"}},{"type":"Feature","id":328417,"geometry":{"type":"LineString","coordinates":[[144.996776043242,-37.8223157719569],[144.996731608076,-37.8223105181241]]},"properties":{"OBJECTID":328417,"ufi":57401219,"pfi":20175168,"ezi_road_name":"RICHMOND TERRACE","road_name":"RICHMOND","road_type":"TERRACE","class_code":5,"direction_code":"B","left_locality":"RICHMOND","right_locality":"RICHMOND"}},{"type":"Feature","id":328437,"geometry":{"type":"LineString","coordinates":[[144.996731608076,-37.8223105181241],[144.996204882706,-37.8222482349144]]},"properties":{"OBJECTID":328437,"ufi":57401220,"pfi":20175169,"ezi_road_name":"RICHMOND TERRACE","road_name":"RICHMOND","road_type":"TERRACE","class_code":5,"direction_code":"B","left_locality":"RICHMOND","right_locality":"RICHMOND"}},{"type":"Feature","id":328786,"geometry":{"type":"LineString","coordinates":[[144.996814871123,-37.8219338029977],[144.996731608076,-37.8223105181241]]},"properties":{"OBJECTID":328786,"ufi":57401276,"pfi":5680126,"ezi_road_name":"WAVERLEY STREET","road_name":"WAVERLEY","road_type":"STREET","class_code":5,"direction_code":"B","left_locality":"RICHMOND","right_locality":"RICHMOND"}},{"type":"Feature","id":129788,"geometry":{"type":"LineString","coordinates":[[144.993962799148,-37.8272672807216],[144.993754637039,-37.8273046801838]]},"properties":{"OBJECTID":129788,"ufi":39999174,"pfi":5682630,"ezi_road_name":"DUNN STREET","road_name":"DUNN","road_type":"STREET","class_code":5,"direction_code":"B","left_locality":"CREMORNE","right_locality":"CREMORNE"}},{"type":"Feature","id":824710,"geometry":{"type":"LineString","coordinates":[[145.000142549838,-37.8222900832368],[145.000084531247,-37.8226139568727]]},"properties":{"OBJECTID":824710,"ufi":62818387,"pfi":5680254,"ezi_road_name":"LYNDHURST STREET","road_name":"LYNDHURST","road_type":"STREET","class_code":5,"direction_code":"B","left_locality":"RICHMOND","right_locality":"RICHMOND"}},{"type":"Feature","id":727505,"geometry":{"type":"LineString","coordinates":[[145.001087537991,-37.8282688991677],[145.001126988405,-37.8281915121001],[145.001182001233,-37.8281141150178]]},"properties":{"OBJECTID":727505,"ufi":38507628,"pfi":14960597,"ezi_road_name":"UNNAMED","road_name":"UNNAMED","road_type":null,"class_code":9,"direction_code":"B","left_locality":"RICHMOND","right_locality":"RICHMOND"}},{"type":"Feature","id":1267683,"geometry":{"type":"LineString","coordinates":[[145.001412454137,-37.8283792228007],[145.001316954239,-37.8283001883056],[145.001242207221,-37.8282178557975],[145.001182001233,-37.8281141150178]]},"properties":{"OBJECTID":1267683,"ufi":38507621,"pfi":14960590,"ezi_road_name":"UNNAMED","road_name":"UNNAMED","road_type":null,"class_code":9,"direction_code":"B","left_locality":"RICHMOND","right_locality":"RICHMOND"}},{"type":"Feature","id":121914,"geometry":{"type":"LineString","coordinates":[[145.001060561583,-37.8284105182776],[145.000987894164,-37.8283380597952]]},"properties":{"OBJECTID":121914,"ufi":38507627,"pfi":14960596,"ezi_road_name":"UNNAMED","road_name":"UNNAMED","road_type":null,"class_code":9,"direction_code":"B","left_locality":"RICHMOND","right_locality":"RICHMOND"}},{"type":"Feature","id":465162,"geometry":{"type":"LineString","coordinates":[[145.000987894164,-37.8283380597952],[145.001087537991,-37.8282688991677]]},"properties":{"OBJECTID":465162,"ufi":38507625,"pfi":14960594,"ezi_road_name":"UNNAMED","road_name":"UNNAMED","road_type":null,"class_code":9,"direction_code":"B","left_locality":"RICHMOND","right_locality":"RICHMOND"}},{"type":"Feature","id":121913,"geometry":{"type":"LineString","coordinates":[[145.001087537991,-37.8282688991677],[145.00108961759,-37.8283495918816],[145.001060561583,-37.8284105182776]]},"properties":{"OBJECTID":121913,"ufi":38507626,"pfi":14960595,"ezi_road_name":"UNNAMED","road_name":"UNNAMED","road_type":null,"class_code":9,"direction_code":"B","left_locality":"RICHMOND","right_locality":"RICHMOND"}}]}